Name,Latitude,Longitude,City,Country,Website,Category
Karting: Circuit Park Berghem,51.739249,5.572546,Berghem,Netherlands,N/A,Karting
A15 Karting,51.84137,5.0062833,N/A,Netherlands,N/A,Karting
Coronel Kartracing,52.3078014,5.2418536,Huizen,Netherlands,https://www.coronel.nl/,Karting
Bleekemolens Race Planet Delft,52.0251181,4.3634035,Delft,Netherlands,https://raceplanet.nl/,Karting
De Vries indoor karting,52.9401604,5.9404909,Heerenveen,Netherlands,https://www.indoorkartingheerenveen.nl,Karting
Kartplaza,52.3557209,6.5032297,Nijverdal,Netherlands,https://www.kartplaza.nl/,Karting
Planet Awesome,51.8380326,5.8124312,N/A,Netherlands,https://planet-awesome.com,Karting
Ourtdoor Karting Eindhoven,51.4626841,5.3749358,Eindhoven,Netherlands,https://www.outdoorkarting.nl,Karting
ZERO55,52.2386357,6.8332491,Enschede,Netherlands,https://zero55.nl/enschede/,Karting
N/A,51.7672063,4.5275025,Strijen,Netherlands,N/A,Karting
Circuitpark Karting Texel,53.0581775,4.7778491,Den Burg,Netherlands,https://www.kartingtexel.nl/nl/contact,Karting
Kartcircuit Pottendijk,52.8228596,6.9831781,Nieuw-Weerdinge,Netherlands,https://www.pottendijk.nl,Karting
Kartcentrum Zwolle,52.4882323,6.1601054,Zwolle,Netherlands,https://www.kartcentrumzwolle.nl,Karting
LevelRacing,53.1811986,6.166401,Surhuisterveen,Netherlands,https://levelracing.eu/,Karting
Kartbaan Duiven,51.9646956,5.9974969,Duiven,Netherlands,N/A,Karting
Euro Indoorkarting & Bowling Swalmen,51.2365856,6.0570402,Swalmen,Netherlands,https://kartcentrum.nl,Karting
Triopsys,52.1265559,5.0430383,Utrecht,Netherlands,https://www.kartfabrique.nl/,Karting
Kartfabrique,52.1276685,5.0486308,N/A,Netherlands,https://www.kartfabrique.nl/,Karting
Silverstone Indoorkarting / Lasergame,52.3833535,4.7345696,Zwanenburg,Netherlands,N/A,Karting
Van der Ende racing Inn,52.0346022,4.2300306,Poeldijk,Netherlands,https://www.vanderende.com/,Karting
Karting Eefde,52.1867525,6.2492891,Eefde,Netherlands,https://kartingeefde.nl,Karting
N/A,52.1829604,5.9675168,N/A,Netherlands,N/A,Karting
Hezemans Karting,51.4753317,5.4585347,Eindhoven,Netherlands,https://hezemans.nl,Karting
Modelautoclub De Baanbrekers,51.5394091,4.5701555,Rucphen,Netherlands,https://macdebaanbrekers.nl/,Karting
Hezemans Karting,51.475599,5.4585542,N/A,Netherlands,https://hezemans.nl/restaurant-keuze,Karting
TeamSport Groningen,53.2387663,6.5912212,N/A,Netherlands,https://www.teamsport-ekarting.nl/locaties/groningen,Karting
Kart Centre Roosendaal,51.5356399,4.4311162,Roosendaal,Netherlands,https://www.kcr.nl,Karting
Kartingbaan Vaals,50.7791921,6.0121835,N/A,Netherlands,https://www.kartingvaals.nl/,Karting
N/A,52.1865366,6.2480331,N/A,Netherlands,N/A,Karting
Karting Eefde,52.1863216,6.248012,N/A,Netherlands,N/A,Karting
N/A,52.3249653,4.5986074,N/A,Netherlands,N/A,Karting
N/A,52.9691251,6.5414214,N/A,Netherlands,N/A,Karting
Indoor Kartbaan Winterswijk,51.959267,6.7051894,Winterswijk,Netherlands,https://kartbaanwinterswijk.nl/,Karting
All In Echt,51.1077554,5.8870123,Echt,Netherlands,https://www.allinecht.nl/,Karting
Kartbaan Oldenzaal,52.3065822,6.9002729,Oldenzaal,Netherlands,http://kartbaanoldenzaal.nl/,Karting
N/A,51.6722943,5.6439547,N/A,Netherlands,N/A,Karting
Bushiri Karting,12.5360517,-70.0485256,N/A,Netherlands,N/A,Karting
Bushiri Karting,12.5367656,-70.0489171,N/A,Netherlands,N/A,Karting
Bushiri Karting,12.5360941,-70.0489404,N/A,Netherlands,N/A,Karting
N/A,53.0579896,4.7779723,N/A,Netherlands,N/A,Karting
Kartbaan Driebergen,52.0552,5.2576402,N/A,Netherlands,N/A,Karting
GoKart track,12.5364178,-70.0488198,N/A,Netherlands,N/A,Karting
N/A,52.8228621,6.982639,N/A,Netherlands,N/A,Karting
Kartbaan Ulrum,53.361534,6.341368,N/A,Netherlands,http://kartbaanulrum.nl,Karting
N/A,51.1081968,5.8862539,N/A,Netherlands,N/A,Karting
N/A,51.1080673,5.8861915,N/A,Netherlands,N/A,Karting
SHW - Kartbaan Strijen,51.7667165,4.5282741,N/A,Netherlands,N/A,Karting
Kartbaan Oldenzaal,52.3071942,6.900733,N/A,Netherlands,N/A,Karting
De Landsard,51.461617,5.3750145,N/A,Netherlands,N/A,Karting
N/A,51.7667694,4.5283451,N/A,Netherlands,N/A,Karting
N/A,51.7665399,4.5279848,N/A,Netherlands,N/A,Karting
N/A,51.7668363,4.5277264,N/A,Netherlands,N/A,Karting
N/A,51.7664153,4.5279016,N/A,Netherlands,N/A,Karting
Karting Eefde,52.1860766,6.2478381,N/A,Netherlands,N/A,Karting
Karting Eefde,52.1861449,6.2478951,N/A,Netherlands,N/A,Karting
Karting Eefde,52.186263,6.2479353,N/A,Netherlands,N/A,Karting
Karting Eefde,52.1863065,6.2483806,N/A,Netherlands,N/A,Karting
Karting Eefde,52.1858898,6.2486425,N/A,Netherlands,N/A,Karting
Karting Eefde,52.1858879,6.2487139,N/A,Netherlands,N/A,Karting
Karting Eefde,52.1859028,6.2483654,N/A,Netherlands,N/A,Karting
Karting Eefde,52.185877,6.248543,N/A,Netherlands,N/A,Karting
Karting Eefde,52.186115,6.248583,N/A,Netherlands,N/A,Karting
Karting Eefde,52.1860431,6.2482607,N/A,Netherlands,N/A,Karting
Karting Eefde,52.1862147,6.2488398,N/A,Netherlands,N/A,Karting
Karting Eefde,52.186154,6.2489293,N/A,Netherlands,N/A,Karting
Karting Eefde,52.1861042,6.2488652,N/A,Netherlands,N/A,Karting
Karting Eefde,52.1861466,6.2490096,N/A,Netherlands,N/A,Karting
Karting Eefde,52.1865775,6.2489556,N/A,Netherlands,N/A,Karting
Pitstraat,52.0547196,5.2578916,N/A,Netherlands,N/A,Karting
Karting Eefde,52.186379,6.248162,N/A,Netherlands,N/A,Karting
TeamSport Karten Utrecht The Wall,52.1072824,5.0544155,N/A,Netherlands,https://www.teamsport-ekarting.nl/locaties/utrecht,Karting
N/A,52.306711,6.9009596,N/A,Netherlands,N/A,Karting
N/A,52.3065866,6.9008607,N/A,Netherlands,N/A,Karting
N/A,52.3065779,6.9008709,N/A,Netherlands,N/A,Karting
N/A,52.3065524,6.900879,N/A,Netherlands,N/A,Karting
N/A,52.3065336,6.9008888,N/A,Netherlands,N/A,Karting
N/A,51.9986622,4.6881817,N/A,Netherlands,N/A,Karting
Karting Genk - International CIK - FIA Circuit,50.9881922,5.5630127,N/A,Belgium,https://www.kartinggenk.be/,Karting
Bouillon Karting,49.7991478,5.0855435,N/A,Belgium,N/A,Karting
City Kart,50.8053583,4.3110225,N/A,Belgium,N/A,Karting
JPR Belgium,51.1668635,4.1668174,N/A,Belgium,https://www.jprkarting.be/,Karting
Karting des Fagnes,50.0940164,4.5003112,N/A,Belgium,N/A,Karting
Karting,50.6146731,5.9322593,N/A,Belgium,N/A,Karting
eKart,51.0659052,3.7326211,Gent,Belgium,https://www.ekart.be/,Karting
N/A,50.6147604,5.6625063,N/A,Belgium,N/A,Karting
Karting Grivegnée,50.6307576,5.6020928,N/A,Belgium,N/A,Karting
WIK Wavre Indoor Karting,50.7057166,4.5932223,N/A,Belgium,https://www.wik-karting.be,Karting
Franière Karting,50.4338368,4.7415286,N/A,Belgium,N/A,Karting
Franière Karting,50.4337475,4.7415295,N/A,Belgium,N/A,Karting
JMKarting,50.4356975,4.7397334,N/A,Belgium,N/A,Karting
Bar du karting,49.7993194,5.0847441,N/A,Belgium,N/A,Karting
Battle Kart,50.7198554,3.3034462,N/A,Belgium,N/A,Karting
Battle Kart,50.7201814,3.3042616,N/A,Belgium,N/A,Karting
BattleKart Liège Verlaine,50.6102571,5.3179241,N/A,Belgium,https://www.battlekart.com,Karting
Liège Karting,50.630888,5.6021659,N/A,Belgium,N/A,Karting
Battlekart Mouscron,50.7210186,3.3024463,Mouscron,Belgium,https://www.battlekart.com/en/mouscron/,Karting
N/A,50.7525733,4.2611212,N/A,Belgium,N/A,Karting
Indoor Karting Lommel,51.2174072,5.2813388,Lommel,Belgium,N/A,Karting
BattleKart Gent,51.0740776,3.7427723,N/A,Belgium,https://www.battlekart.com/nl/gent,Karting
BattleKart WEX,50.2469595,5.338975,Marche-en-Famenne,Belgium,https://battlekart.com/fr/wex,Karting
Cargo-Karting,50.9907559,5.7005965,Maasmechelen,Belgium,N/A,Karting
Kart,50.4322966,5.9629501,N/A,Belgium,N/A,Karting
First Kart'Inn,50.9060789,4.4166288,Machelen,Belgium,https://www.fki.be/,Karting
Inkart nv,51.0735303,4.3450166,N/A,Belgium,https://www.inkart.be/,Karting
Pro Circuit karting,50.98767,5.5644383,N/A,Belgium,N/A,Karting
Fun Circuit karting,50.9875432,5.5629053,N/A,Belgium,N/A,Karting
John Martin's Karting,50.6149032,5.6625691,N/A,Belgium,N/A,Karting
Rue du Karting,50.0953725,4.5000539,N/A,Belgium,N/A,Karting
Karting des Fagnes,50.0933772,4.5003277,N/A,Belgium,https://www.kartingdesfagnes.com,Karting
N/A,50.2377319,5.3004158,N/A,Belgium,N/A,Karting
Goodwill Karting,51.1493971,4.8923254,Olen,Belgium,https://www.goodwillkarting.be,Karting
Karting Eupen,50.638211,6.0040345,Eupen,Belgium,https://www.karting-eupen.com,Karting
Brussels Kart,50.8713615,4.2797786,Groot-Bijgaarden,Belgium,N/A,Karting
N/A,50.394806,5.8742381,N/A,Belgium,N/A,Karting
"Eastbelgium Action, Fun & Karting Center",50.2333149,6.0795352,Grüfflingen,Belgium,https://www.actioncenter.be/,Karting
Factorykart,50.7527417,4.2612142,Huizingen,Belgium,N/A,Karting
N/A,50.394562,5.8740968,N/A,Belgium,N/A,Karting
Karting,50.3944414,5.8741066,N/A,Belgium,N/A,Karting
Sentier du karting,50.6719568,4.2570805,N/A,Belgium,N/A,Karting
"""X-Treme"" E-karting Battlefield ""De Kegel"" Bowling Minigolf",51.1782178,2.8019276,N/A,Belgium,https://www.bowlingdekegel.be/,Karting
N/A,51.1784223,2.8017715,N/A,Belgium,N/A,Karting
Racelandkart,51.0955714,5.5349351,Oudsbergen,Belgium,N/A,Karting
Karting Amay,50.5474897,5.2972791,N/A,Belgium,N/A,Karting
Kid-karting,51.3133646,3.1227525,N/A,Belgium,N/A,Karting
Action kart,50.9550893,5.3585432,N/A,Belgium,https://www.actionkart.be/,Karting
Karting de Spa-Francorchamps,50.4317683,5.9612551,N/A,Belgium,N/A,Karting
Pit Lane,50.4315564,5.962543,N/A,Belgium,N/A,Karting
Brussels South Karting,50.5413963,4.459954,N/A,Belgium,N/A,Karting
Fastline,50.8602383,5.5070515,N/A,Belgium,N/A,Karting
Paddock karting,50.9881109,5.561374,N/A,Belgium,N/A,Karting
Karting Amay,50.5474717,5.2971907,N/A,Belgium,N/A,Karting
Mini-auto's,50.9625246,5.4143659,N/A,Belgium,N/A,Karting
N/A,50.7412789,4.2808883,N/A,Belgium,N/A,Karting
N/A,50.7411765,4.2810543,N/A,Belgium,N/A,Karting
N/A,50.7410397,4.2811303,N/A,Belgium,N/A,Karting
N/A,49.7991102,5.0842848,N/A,Belgium,N/A,Karting
Worldkarts Poperinge,50.8531164,2.7425149,N/A,Belgium,https://poperinge.worldkarts.com/home,Karting
Skelters,50.7908183,3.9205344,N/A,Belgium,N/A,Karting
N/A,50.7412118,4.2810137,N/A,Belgium,N/A,Karting
Rue du Karting,50.0960968,4.5044804,N/A,Belgium,N/A,Karting
N/A,50.4331308,5.9644255,N/A,Belgium,N/A,Karting
Mini auto 's,50.9831991,5.0648071,N/A,Belgium,N/A,Karting
Green Power Kart,50.4426745,4.4205876,N/A,Belgium,N/A,Karting
Karting Genk Horensbergdam,50.9877178,5.5633807,N/A,Belgium,https://www.kartinggenk.be/,Karting
Imagikart,50.4691192,3.9360291,N/A,Belgium,N/A,Karting
N/A,50.4690512,3.9355228,N/A,Belgium,N/A,Karting
N/A,50.4688963,3.9355811,N/A,Belgium,N/A,Karting
N/A,50.4692963,3.9358453,N/A,Belgium,N/A,Karting
N/A,50.4691185,3.9360619,N/A,Belgium,N/A,Karting
N/A,50.7412904,4.280973,N/A,Belgium,N/A,Karting
N/A,50.7415847,4.2813425,N/A,Belgium,N/A,Karting
N/A,50.7415405,4.2812183,N/A,Belgium,N/A,Karting
N/A,51.1494047,4.8923709,N/A,Belgium,N/A,Karting
N/A,51.1492578,4.892838,N/A,Belgium,N/A,Karting
N/A,51.1495732,4.8919767,N/A,Belgium,N/A,Karting
N/A,51.1492763,4.8922116,N/A,Belgium,N/A,Karting
Karting Bouillon,49.7990602,5.0844853,N/A,Belgium,https://www.kartingbouillon.com/,Karting
BattleKart,50.8651088,4.3479056,N/A,Belgium,https://www.battlekart.com/,Karting
BattleKart,50.9471772,5.5123264,N/A,Belgium,N/A,Karting
Raceland Karting,51.4614083,7.9430253,Arnsberg,Germany,http://raceland-karting.de,Karting
Lap's Kart Center,51.219202,12.7175287,N/A,Germany,N/A,Karting
Indoor Kartbahn Werther,52.0789634,8.4219923,Werther (Westf.),Germany,https://www.kartbahn-werther.de/,Karting
Westerwaldring,50.7157794,7.7165043,N/A,Germany,N/A,Karting
Kartbahn Ampfing,48.2457972,12.4426174,N/A,Germany,https://www.kartshop-ampfing.de,Karting
Jugendkarttrainingsgelände,49.9739452,12.067379,N/A,Germany,N/A,Karting
DSP Drift- und Spielepark UG,48.8003914,9.8288498,Schwäbisch Gmünd,Germany,N/A,Karting
Kartbahn,53.1079307,7.6695139,Saterland,Germany,http://www.ramsloh-karting.de/,Karting
sport kart Münster,51.994576,7.6614325,N/A,Germany,N/A,Karting
N/A,52.9048774,8.3589644,N/A,Germany,N/A,Karting
Berlin Kart,52.4794909,13.4327678,Berlin,Germany,http://www.berlin-kart.de/,Karting
Karthalle Fraureuth,50.7098018,12.3619808,Fraureuth,Germany,http://www.karthalle.de/,Karting
Cool Runners Kart GmbH,51.3233,7.3457671,Gevelsberg,Germany,N/A,Karting
Kartbahn,49.2358887,9.0922124,Bad Rappenau,Germany,https://www.kartbahn.de/,Karting
TeamSport E-Karting Kart Palast Funpark,48.2360442,11.3509817,Bergkirchen,Germany,https://teamsport-ekarting.de/standorte/muenchen-west-kart-palast,Karting
Konrads Kartbahn,50.3031137,11.9204716,N/A,Germany,http://www.konrads-kart.de,Karting
Devalkartbahn,50.0021588,11.8033339,N/A,Germany,http://www.skilifte-devalkartbahn.de,Karting
Planet KART-O-MANIA,49.0282901,12.9885463,N/A,Germany,https://www.kart-o-mania.de/,Karting
Kart & Fun Kartbahn Neckartenzlingen,48.5856393,9.2265983,N/A,Germany,http://www.kart-und-fun-neckartenzlingen.de/,Karting
Kart-O-Mania Hannover,52.3517949,9.7136181,Hannover,Germany,https://www.kartomania-hannover.de/,Karting
Kart & Eventcenter,48.9551456,8.5070108,Karlsruhe,Germany,N/A,Karting
Dickarting,48.399186,12.1145573,N/A,Germany,N/A,Karting
Kart Center Landau,49.2075202,8.1285705,N/A,Germany,https://www.kartcenter-landau.de/,Karting
Motodrom Schwerin,53.607012,11.3826489,N/A,Germany,https://www.motodrom-schwerin.de/,Karting
Kartcenter Cologne,50.8710158,6.9879897,Köln,Germany,https://www.kartcenter-cologne.de,Karting
Knatterdrom,52.1401287,7.555741,N/A,Germany,https://www.knatterdrom.de/,Karting
Le Mans Karting,50.9757621,6.8956723,Köln,Germany,https://www.lemanskarting.de/,Karting
ring°kartbahn,50.334402,6.9476353,N/A,Germany,https://www.nuerburgring.de/fahren-erleben/fahren/kartbahn.html,Karting
Indy Kart,48.1769992,8.6145678,Rottweil,Germany,http://www.indykart.de/,Karting
AMC Ehingen,48.3022856,9.6973688,Ehingen (Donau),Germany,http://www.amc-ehingen.de/,Karting
N/A,48.3696562,8.6433305,Sulz am Neckar,Germany,http://www.hallenkartbahn-sulz.de/,Karting
All-Kart,47.8916184,10.6551558,N/A,Germany,http://www.all-kart.de,Karting
Dickarting,48.4023507,12.112047,N/A,Germany,N/A,Karting
Dickarting,48.4024187,12.1120432,N/A,Germany,N/A,Karting
Dickarting,48.4023086,12.1120407,N/A,Germany,N/A,Karting
Kart-o-Mania,48.7822711,9.2339853,N/A,Germany,http://www.kart-arena-stuttgart.de/,Karting
Sim Racing Center,50.5210793,8.8182415,Lich,Germany,https://sim-racing-center.de/index.php/sim-racing-center/,SIM Racing
No limit - die Kartbahn,50.5273868,9.6771114,N/A,Germany,N/A,Karting
Kart-Driving by Richi,51.2786877,9.4732156,Kassel,Germany,http://kartbahn-kassel.de,Karting
Karthalle Mainz,49.9594893,8.2563668,Mainz,Germany,https://karthalle-mainz.de/,Karting
Burnout Celler Kartbahn,52.6088187,10.0613791,Celle,Germany,https://www.celler-kartbahn.com/,Karting
Kart Center Hildesheim,52.1625029,9.9400636,Hildesheim,Germany,https://www.kartcenterhildesheim.de,Karting
Kart Palast,49.2508535,6.978161,Saarbrücken,Germany,http://www.kart-palast.com,Karting
Burgpark Ring Kart-Bahn,49.4954589,9.7523423,N/A,Germany,N/A,Karting
Hallenkartbahn Stralsund,54.3070627,13.0589975,Stralsund,Germany,http://www.kartbahn-mv.de/Stralsund/home.html,Karting
Kart-Center Erfurt,51.0079167,11.0204243,Erfurt,Germany,http://www.kart-center-erfurt.de,Karting
Battle-Kart,53.0982856,9.9815404,Bispingen,Germany,https://bispingen.battlekart.com,Karting
Indoorkart Usedom,53.877482,13.9197399,Usedom,Germany,N/A,Karting
DWA Racing Kartbahn,52.8565646,8.750856,N/A,Germany,N/A,Karting
Eco Kart Kiel,54.2837931,10.1476657,N/A,Germany,https://ecokart-kiel.de/,Karting
SimRacing-Center Düsseldorf,51.1947651,6.823652,Düsseldorf,Germany,https://simracing-center.de,SIM Racing
KARTCENTER LANDSBERG,48.0707555,10.8628723,N/A,Germany,N/A,Karting
Go kart Gramkow,53.9187406,11.3189757,Hohenkirchen,Germany,https://www.racingo.de/kartbahnen/de/kartbahn-gramkow/,Karting
Michael Becker & Team,51.2011336,7.9647383,Finnentrop,Germany,https://wt-becker.weebly.com/finnentrop-zentrale.html,Karting
TeamSport E-Karting,51.2153122,6.4686432,N/A,Germany,https://teamsport-ekarting.de/standorte/moenchengladbach,Karting
Kartodrom Elles,50.6942751,7.4472748,N/A,Germany,https://www.kartbahn-deutschland.de/,Karting
N/A,53.507499,11.0955844,N/A,Germany,N/A,Karting
Rollende Kühe,51.3006735,12.3677891,N/A,Germany,N/A,Karting
Kartbahn CalaRace,48.5498058,7.8400419,N/A,Germany,https://www.cala-race.com/,Karting
JCSimRacing,50.3304545,7.2467328,N/A,Germany,N/A,SIM Racing
BattleKart Mayen-Koblenz,50.330435,7.2464563,N/A,Germany,N/A,Karting
Sim Racing Store,50.5210654,8.8182748,Lich,Germany,https://sim-racing-center.de/index.php/simraceshop-offline-store/,SIM Racing
Kart Raceland,47.6077958,7.5961244,N/A,Germany,https://kartraceland.de/,Karting
Kart Arena,50.1696434,11.1664434,N/A,Germany,https://www.actionarena.de,Karting
BattleKart,50.8665467,9.7204758,Bad Hersfeld,Germany,N/A,Karting
N/A,47.5305118,10.2641957,Sonthofen,Germany,N/A,Karting
Kartbahn Bous,49.2760841,6.7901168,N/A,Germany,https://kartbahn-bous.de,Karting
N/A,51.554356,6.2064243,N/A,Germany,N/A,Karting
Geschicklichkeits-Kartbahn,51.5567992,6.2089761,N/A,Germany,N/A,Karting
Geschicklichkeits-Kartbahn,51.5566705,6.2088881,N/A,Germany,N/A,Karting
Daytona Kart-Center,51.4905973,6.9558943,Essen,Germany,https://www.daytona-kartbahn.de,Karting
ProKart Raceland,49.3264129,12.2149632,Wackersdorf,Germany,http://www.prokart-raceland.com/home/,Karting
Cartion,48.6377322,8.9090784,Gärtringen,Germany,http://www.kartion.de,Karting
Kart Arena,48.7447419,11.4686675,Ingolstadt,Germany,N/A,Karting
GO102,51.9984701,12.9926774,Niedergörsdorf,Germany,https://go102.de/,Karting
Kartbahn B68,52.0061008,8.4776252,Bielefeld,Germany,N/A,Karting
Kartland,52.5861179,13.3088157,Berlin,Germany,https://kartland.de/,Karting
N/A,50.4010902,6.5296641,N/A,Germany,N/A,Karting
N/A,50.400632,6.5303648,N/A,Germany,N/A,Karting
N/A,50.4008264,6.5298163,N/A,Germany,N/A,Karting
N/A,50.4006593,6.529465,N/A,Germany,N/A,Karting
N/A,50.4009248,6.5312805,N/A,Germany,N/A,Karting
N/A,48.698032,9.4115579,N/A,Germany,N/A,Karting
F1 motodrom,48.697985,9.4114448,Wernau (Neckar),Germany,https://f1-motodrom.de/,Karting
Kartcenter Rostock,54.1313466,12.0803916,Rostock,Germany,http://www.kartcenter-rostock.de/,Karting
Hanse Gokart Racing,54.1250397,12.1709705,N/A,Germany,http://www.hansegokart.de,Karting
Odenwaldring,49.9303497,9.0174133,N/A,Germany,N/A,Karting
Traktorbahn,47.8654618,8.8919443,N/A,Germany,N/A,Karting
Quadbahn,47.8660594,8.8918475,N/A,Germany,N/A,Karting
Kartbahn,49.2969212,8.6020846,N/A,Germany,N/A,Karting
Kartbahn Urloffen,48.5691395,7.9624514,N/A,Germany,N/A,Karting
N/A,52.8564339,8.7507611,N/A,Germany,N/A,Karting
N/A,52.8562625,8.7495156,N/A,Germany,N/A,Karting
Cockpit Kartarena,51.8349407,6.654622,Bocholt,Germany,N/A,Karting
N/A,49.3266104,12.2135141,N/A,Germany,N/A,Karting
Karthalle Coswig,51.1479025,13.539857,Coswig,Germany,https://www.karthalle-coswig.de/,Karting
N/A,51.9470965,8.2213546,N/A,Germany,N/A,Karting
Buggy Racer,49.2066764,10.9019262,N/A,Germany,N/A,Karting
N/A,51.6633099,14.2587691,N/A,Germany,N/A,Karting
N/A,51.6631368,14.2571544,N/A,Germany,N/A,Karting
Spiel-Preis GmbH & Co. KG,49.322263,11.3378354,Burgthann,Germany,https://www.spiel-preis.de,Karting
RS Speedworld,51.2157644,6.634825,Kaarst,Germany,https://www.gokart-online.de/,Karting
BattleKart St-Leon-Rot,49.2479822,8.6443192,St. Leon-Rot,Germany,N/A,Karting
N/A,51.3965125,14.3889349,N/A,Germany,N/A,Karting
N/A,50.7694525,6.551706,N/A,Germany,N/A,Karting
N/A,50.7694598,6.551747,N/A,Germany,N/A,Karting
Kartbahn Schönerlinde,52.6569094,13.4175248,N/A,Germany,http://www.kartbahn-schoenerlinde.de/,Karting
SAX Racing Kartbahn,51.3502516,12.198436,N/A,Germany,N/A,Karting
N/A,54.4200563,13.4592795,N/A,Germany,N/A,Karting
Kartbahn Alfsee,52.4914393,7.9890603,N/A,Germany,https://www.kart-am-alfsee.de/,Karting
Kartbahn Lühneburg,53.1918362,10.368571,Embsen,Germany,https://www.kartbahn-lueneburg.de/,Karting
N/A,50.0079841,7.3904351,N/A,Germany,N/A,Karting
N/A,53.1078205,7.6688234,N/A,Germany,N/A,Karting
Schleswig-Ring,54.5353923,9.5832185,N/A,Germany,http://www.kartbahn-schleswig.de/,Karting
GoKart-Bahn,52.9063443,8.3586471,N/A,Germany,N/A,Karting
Kartbahn,52.0252474,11.2822629,N/A,Germany,N/A,Karting
Sommerrodelbahn Eckartsberga,51.1184315,11.5602915,N/A,Germany,N/A,Karting
Mainfranken Motodrom,49.8118638,9.8916964,Würzburg,Germany,https://www.ekart-center.de,Karting
The Kart Company Emsbüren,52.3752851,7.3092193,N/A,Germany,https://www.kartcompanyemsbueren.de/de/,Karting
Kartbahn Gerolzhofen,49.9007773,10.3647077,N/A,Germany,N/A,Karting
N/A,48.119881,7.786995,N/A,Germany,N/A,Karting
N/A,50.0016364,10.5435158,N/A,Germany,N/A,Karting
N/A,52.8025744,7.1647106,N/A,Germany,N/A,Karting
Emslandring Dankern,52.802666,7.1644959,Haren (Ems),Germany,https://emslandring.de/,Karting
Kartbahn GRIP,48.0642079,9.4102489,N/A,Germany,http://kartbahn-herbertingen.de/,Karting
Kart-Bahn,47.8923242,11.4321247,N/A,Germany,N/A,Karting
Fahr-Werk Kartbahn,49.8833669,8.8165716,Groß-Zimmern,Germany,https://www.fahrwerk.de/,Karting
Kartsporthalle,51.7837613,13.3956463,N/A,Germany,N/A,Karting
N/A,52.9059946,8.3590235,N/A,Germany,N/A,Karting
N/A,52.9058392,8.358755,N/A,Germany,N/A,Karting
N/A,52.9059477,8.3587166,N/A,Germany,N/A,Karting
N/A,51.2073695,6.235136,N/A,Germany,N/A,Karting
N/A,49.2117812,7.978835,N/A,Germany,N/A,Karting
Speedykart-Kartbahn,53.5454767,13.3208348,N/A,Germany,https://www.racingo.de/kartbahnen/de/kartbahn-neubrandenburg,Karting
Powerhall,50.8640493,12.8576867,Chemnitz,Germany,https://www.powerhall.de/,Karting
N/A,53.1011104,9.979,N/A,Germany,N/A,Karting
Go-Karting,50.9430797,14.8778786,N/A,Germany,N/A,Karting
Kartbahn,54.4227296,11.1880328,N/A,Germany,N/A,Karting
N/A,49.1433303,8.4306642,N/A,Germany,N/A,Karting
Go! Indoor eKart,49.44309,7.7323445,Kaiserslautern,Germany,https://gokartbahn.net/,Karting
Ecodrom Kartbahn Neu-Ulm,48.3947831,10.010906,Neu-Ulm,Germany,https://ecodrom.de/,Karting
Spreewaldring Kartcenter,51.9998127,13.6895118,Schönwald,Germany,https://kart-center.de/,Karting
N/A,48.2464142,12.4432041,N/A,Germany,N/A,Karting
N/A,48.2458666,12.4434546,N/A,Germany,N/A,Karting
N/A,48.2457786,12.4430374,N/A,Germany,N/A,Karting
N/A,48.2459237,12.4430092,N/A,Germany,N/A,Karting
Kartcity,52.3275592,10.5234802,Braunschweig,Germany,https://www.kartcity.de/,Karting
Kartcity,52.3274884,10.5240386,N/A,Germany,https://www.kartcity.de/,Karting
Kartcenter Hungen,50.4764662,8.9130512,Hungen,Germany,https://kartbahn-hungen.de/,Karting
KARTBAHN Alemannenring,47.7553621,8.8663428,Singen (Hohentwiel),Germany,http://www.kartbahn-alemannenring.com,Karting
N/A,54.5354023,9.583241,N/A,Germany,N/A,Karting
Racing Club Gevenich,50.1475658,7.0837042,N/A,Germany,N/A,Karting
Kartbahn Oppenrod Stefan Bellof,50.5860917,8.8130094,N/A,Germany,N/A,Karting
Kartfun Astenberg,51.168952,8.4871559,Winterberg,Germany,http://www.kartfun-astenberg.de,Karting
Kartbahn Schwarzbach,50.4895303,10.8340312,Schwarzbach,Germany,N/A,Karting
Indoor-Karting Rheinfelden,47.5727373,7.7967441,Rheinfelden (Baden),Germany,https://www.kartbahn-rheinfelden.de/,Karting
Battlekart Aachen,50.9180699,6.1430036,Übach-Palenberg,Germany,aachen.battlekart.com,Karting
Bavaria Kart,48.4759532,10.2769804,Günzburg,Germany,https://bavaria-kart.de/,Karting
Bavaria Kart (Außenbahn),48.4764141,10.2770867,N/A,Germany,https://bavaria-kart.de/,Karting
N/A,51.0582613,14.9553074,N/A,Germany,N/A,Karting
Kartarena Niederkrüchten ST Motorsport Performance GmbH,51.2072002,6.2349927,N/A,Germany,N/A,Karting
N/A,51.207055,6.2347209,N/A,Germany,N/A,Karting
Nordseering,54.1275542,8.8718082,N/A,Germany,https://www.nordseering.de/,Karting
GPN Grand-Prix-Niederrhein,51.6235568,6.2100246,Weeze,Germany,https://www.grand-prix-niederrhein.com/,Karting
Indoor Superkart Hemsbach,49.5956341,8.6321579,Hemsbach,Germany,https://www.indoor-superkart.de/,Karting
N/A,51.997851,12.9932858,N/A,Germany,N/A,Karting
N/A,51.9977684,12.9931022,N/A,Germany,N/A,Karting
RC-Cartbahn,51.4725809,6.8439839,N/A,Germany,N/A,Karting
N/A,49.3260734,12.2140289,N/A,Germany,N/A,Karting
N/A,49.3261031,12.2142603,N/A,Germany,N/A,Karting
N/A,49.3261729,12.2150923,N/A,Germany,N/A,Karting
N/A,49.4573588,8.5022553,N/A,Germany,N/A,Karting
Gaspedal,47.8850695,8.2864321,N/A,Germany,N/A,Karting
Kartbahn MSC-Oberflockenbach,49.5399671,8.628525,N/A,Germany,https://www.msc-oberflockenbach.de/,Karting
N/A,49.5399539,8.6286197,N/A,Germany,N/A,Karting
N/A,49.5398187,8.6287534,N/A,Germany,N/A,Karting
N/A,49.5399906,8.62843,N/A,Germany,N/A,Karting
N/A,49.5398287,8.6283677,N/A,Germany,N/A,Karting
N/A,49.5399762,8.6286334,N/A,Germany,N/A,Karting
Saarlandring Kartbahn,49.3806787,7.0025527,N/A,Germany,https://www.saarlandring.de/,Karting
N/A,51.9994664,13.6893399,N/A,Germany,N/A,Karting
N/A,51.9994013,13.6896642,N/A,Germany,N/A,Karting
N/A,51.9995975,13.6892159,N/A,Germany,N/A,Karting
GoKart-Bahn,52.2166063,7.0906786,N/A,Germany,N/A,Karting
Kartbahn Brookmerland Erwachsene,53.5105104,7.2878602,N/A,Germany,N/A,Karting
Kartbahn Kinder,53.5104312,7.2872334,N/A,Germany,N/A,Karting
Boxengasse,53.5108373,7.2873791,N/A,Germany,N/A,Karting
Boxengasse,53.5105122,7.2867653,N/A,Germany,N/A,Karting
Kartbahn Brookmerland,53.510706,7.2869146,Upgant-Schott,Germany,https://www.kartbahn-ostfriesland.de/,Karting
Kartbahn Brookmerland,53.5104981,7.2875993,Upgant-Schott,Germany,N/A,Karting
N/A,54.1620006,12.2316092,N/A,Germany,N/A,Karting
Kartplatz Hof,47.8642485,12.7633485,N/A,Germany,N/A,Karting
Kart2000,48.0359778,12.2333649,N/A,Germany,https://www.kart2000-wasserburg.de/,Karting
Kart2000,48.0357297,12.2330903,Eiselfing,Germany,https://www.kart2000-wasserburg.de,Karting
N/A,48.0356967,12.2334598,N/A,Germany,N/A,Karting
N/A,48.0364041,12.2331588,N/A,Germany,N/A,Karting
Jumicar,53.0733595,8.7660048,N/A,Germany,N/A,Karting
N/A,52.0251823,11.2813735,N/A,Germany,N/A,Karting
N/A,52.0251671,11.2818001,N/A,Germany,N/A,Karting
N/A,52.0248007,11.2823792,N/A,Germany,N/A,Karting
N/A,48.9021504,12.6270633,N/A,Germany,N/A,Karting
N/A,47.8923519,11.432134,N/A,Germany,N/A,Karting
N/A,47.8920272,11.43237,N/A,Germany,N/A,Karting
N/A,47.8924988,11.4322595,N/A,Germany,N/A,Karting
N/A,47.8922778,11.4321007,N/A,Germany,N/A,Karting
N/A,47.892597,11.431848,N/A,Germany,N/A,Karting
N/A,47.8922596,11.4321066,N/A,Germany,N/A,Karting
Kartbahn,51.735515,6.8821864,N/A,Germany,N/A,Karting
ADAC Übungsplatz + Kartbahn,50.5103381,9.8065345,N/A,Germany,N/A,Karting
N/A,47.89865,12.9463273,N/A,Germany,N/A,Karting
N/A,47.8985924,12.946667,N/A,Germany,N/A,Karting
N/A,47.8984893,12.9466581,N/A,Germany,N/A,Karting
N/A,51.5342209,7.2595033,N/A,Germany,N/A,Karting
Kartbahn,49.3249749,8.6748662,N/A,Germany,N/A,Karting
N/A,49.9952152,12.0874266,N/A,Germany,N/A,Karting
KMS-Kartcenter,50.6595395,7.4260246,N/A,Germany,https://www.kms-kartcenter.de/,Karting
N/A,50.6595015,7.4259902,N/A,Germany,N/A,Karting
Kartbahn Bopfingen,48.8509855,10.3322694,N/A,Germany,N/A,Karting
Harzer Kart-Center,51.9492081,10.5451326,N/A,Germany,N/A,Karting
Knax-Rennbahn,51.4390312,6.8034986,N/A,Germany,N/A,Karting
N/A,53.4920667,13.7924048,N/A,Germany,https://www.mc-touring-strasburg.com/kartbahn.htm,Karting
N/A,53.4919388,13.7921963,N/A,Germany,N/A,Karting
N/A,53.4918146,13.7921842,N/A,Germany,N/A,Karting
Nano-Karts,52.4314373,10.7914264,N/A,Germany,N/A,Karting
Kart-O-Drom,53.267562,8.1798224,Rastede,Germany,https://kart-o-drom.de/,Karting
N/A,50.4992372,12.1243969,N/A,Germany,N/A,Karting
N/A,50.4991299,12.1248406,N/A,Germany,N/A,Karting
N/A,50.4993312,12.1247484,N/A,Germany,N/A,Karting
N/A,50.4992876,12.124721,N/A,Germany,N/A,Karting
N/A,50.4992948,12.1246829,N/A,Germany,N/A,Karting
Karting Paradies,48.4504469,12.3366186,Vilsbiburg,Germany,N/A,Karting
Kartbahn Wuppertal,51.2474811,7.0970582,Wuppertal,Germany,https://www.formel-eins-kartbahn.de/,Karting
N/A,51.4847714,7.1085052,N/A,Germany,N/A,Karting
N/A,47.7127323,9.5956638,N/A,Germany,N/A,Karting
GoKartArena und Familienpark Neufinsing,48.2172848,11.8070032,Finsing,Germany,https://www.gokartarena.de/,Karting
Offroad Kids Otterwisch,51.2053904,12.612457,N/A,Germany,N/A,Karting
N/A,51.2054331,12.6123453,N/A,Germany,N/A,Karting
N/A,51.2053701,12.6124164,N/A,Germany,N/A,Karting
N/A,51.2053478,12.6124014,N/A,Germany,N/A,Karting
N/A,51.2054029,12.6124862,N/A,Germany,N/A,Karting
Kart-O-Mania,52.2985181,9.8248336,N/A,Germany,https://www.kartomania-laatzen.de/,Karting
Kart-Bahn Dahlemer Binz,50.4008569,6.5311508,Dahlem,Germany,http://www.kartbahn-dahlem.de,Karting
Kinderkart,51.8152632,14.4352159,N/A,Germany,N/A,Karting
MS Drift & Fun Center,50.7738616,6.2172855,N/A,Germany,https://ms-drift-and-fun-center.de/,Karting
Kartbahn Jena,50.9535623,11.621424,Jena,Germany,http://www.kartbahnjena.de,Karting
N/A,50.5728311,8.5389503,N/A,Germany,N/A,Karting
N/A,50.5731607,8.5392087,N/A,Germany,N/A,Karting
N/A,50.5730619,8.5390775,N/A,Germany,N/A,Karting
Sensadrom Indoor E-Kartbahn,48.6896593,8.9885404,Sindelfingen,Germany,https://sensadrom.com,Karting
N/A,49.3259924,12.2159677,N/A,Germany,N/A,Karting
N/A,49.2078303,8.128199,N/A,Germany,N/A,Karting
Speedway- und Kartbahn Homberg (Ohm),50.7253175,8.990944,N/A,Germany,N/A,Karting
Go-Kart und Quad Bahn Bergen,54.4211069,13.4612847,N/A,Germany,https://www.ruegenkartbahn.de/,Karting
N/A,51.5597805,8.5346405,N/A,Germany,N/A,Karting
Go-Kartbahn,49.7642338,11.403948,N/A,Germany,N/A,Karting
Mini-Lausitzring,51.4598461,13.5442656,N/A,Germany,N/A,Karting
N/A,50.0678624,10.1536906,N/A,Germany,N/A,Karting
N/A,50.0678809,10.1533371,N/A,Germany,N/A,Karting
Kartbahn Dargelin,54.0160109,13.3575948,Dargelin,Germany,http://www.kartbahn-mv.de/Dargelin/home.html,Karting
N/A,54.0160116,13.3576805,N/A,Germany,N/A,Karting
Indy-Cart Indoorkartbahn,48.9292902,9.4398456,Backnang,Germany,https://www.indy-cart.de/,Karting
Michael Schumacher Kart-Center,50.8911703,6.6741825,Kerpen,Germany,https://www.ms-kartcenter.de/,Karting
N/A,48.3949716,10.0111215,N/A,Germany,N/A,Karting
N/A,48.3949324,10.0111395,N/A,Germany,N/A,Karting
N/A,49.1429316,8.4317367,N/A,Germany,N/A,Karting
N/A,48.4500805,12.3363736,N/A,Germany,N/A,Karting
Outdoorbahn,48.4501151,12.3367768,N/A,Germany,N/A,Karting
N/A,48.4500474,12.3364698,N/A,Germany,N/A,Karting
N/A,48.9578536,8.4032523,N/A,Germany,N/A,Karting
MSC Übungsplatz,48.8975578,9.3168827,N/A,Germany,N/A,Karting
Kartsportzentrum Rottal,48.3785706,13.229397,Rotthalmünster,Germany,https://www.kartsport-zentrum.de/,Karting
Biathlonanlage im Grumbach,50.7892846,10.4284603,N/A,Germany,N/A,Karting
Go-Kart-Center-Ringleben,51.3692532,11.2244077,Bad Frankenhausen/Kyffhäuser,Germany,N/A,Karting
Kartbahn Liedolsheim,49.1433258,8.4306253,N/A,Germany,https://www.kartbahn-liedolsheim.com/,Karting
BattleKart Trier,49.7973833,6.7246461,Kenn,Germany,https://trier.battlekart.com/de/,Karting
Boxenstop,48.3948467,10.0112313,N/A,Germany,N/A,Karting
N/A,50.3678463,9.9153151,N/A,Germany,N/A,Karting
N/A,50.3680562,9.9146589,N/A,Germany,N/A,Karting
N/A,50.3676417,9.915584,N/A,Germany,N/A,Karting
N/A,50.3676578,9.9152911,N/A,Germany,N/A,Karting
N/A,50.3678405,9.9156025,N/A,Germany,N/A,Karting
Go-Kart-Bahn,50.7693675,6.55177,N/A,Germany,N/A,Karting
N/A,50.4940781,10.7838542,N/A,Germany,N/A,Karting
N/A,52.1397128,7.5565122,N/A,Germany,N/A,Karting
Kart-Bahn Templiner Ring,53.1036498,13.4903551,Templin,Germany,http://www.kart-templin.de,Karting
N/A,53.1039352,13.4898679,N/A,Germany,N/A,Karting
N/A,51.9977062,12.9949887,N/A,Germany,N/A,Karting
N/A,51.9971723,12.9951958,N/A,Germany,N/A,Karting
N/A,51.9973258,12.995352,N/A,Germany,N/A,Karting
N/A,51.9977419,12.9957606,N/A,Germany,N/A,Karting
N/A,51.9975693,12.9943565,N/A,Germany,N/A,Karting
N/A,51.9984599,12.9937736,N/A,Germany,N/A,Karting
Kart- und Eventcenter Schlotheim,51.2576199,10.6511541,Nottertal-Heilinger Höhen,Germany,www.kartcenter-schlotheim.de,Karting
N/A,50.2897585,9.2796401,N/A,Germany,N/A,Karting
Vogelsbergring,50.2899642,9.279737,N/A,Germany,http://www.msc-wittgenborn.de/body_index.html,Karting
boxenstop Carrera-Bahn,53.1120413,8.4418014,Hude,Germany,N/A,Karting
Cross-Kart-Bahn,47.6103263,10.4505636,N/A,Germany,N/A,Karting
N/A,50.494127,10.7837994,N/A,Germany,N/A,Karting
N/A,50.4940519,10.7833748,N/A,Germany,N/A,Karting
N/A,51.5672678,6.8734972,N/A,Germany,N/A,Karting
Kart-Bahn Teningen,48.1199146,7.7869886,N/A,Germany,https://www.kartbahn-teningen.de/,Karting
N/A,51.9984776,13.6900872,N/A,Germany,N/A,Karting
N/A,51.9986091,13.6904905,N/A,Germany,N/A,Karting
N/A,54.0159426,13.3567983,N/A,Germany,N/A,Karting
Skate- und Kartbahn,52.618291,6.8579666,N/A,Germany,N/A,Karting
N/A,51.4481398,7.3885447,N/A,Germany,N/A,Karting
N/A,51.4482888,7.3894737,N/A,Germany,N/A,Karting
N/A,51.4484101,7.389478,N/A,Germany,N/A,Karting
TeamSport E-Karting,52.3011443,8.0494907,Osnabrück,Germany,https://teamsport-ekarting.de/standorte/osnabrueck,Karting
N/A,51.0080594,11.0210983,N/A,Germany,N/A,Karting
Motor Sport Weis - Kartbahn Büren,51.5598548,8.5343854,Büren,Germany,http://www.kartbahn-bueren.de,Karting
N/A,51.9975065,12.9954902,N/A,Germany,N/A,Karting
Kart-Trainingsgelände,47.7730332,10.5564061,N/A,Germany,N/A,Karting
N/A,49.3249354,8.6749575,N/A,Germany,N/A,Karting
N/A,49.3252665,8.6751543,N/A,Germany,N/A,Karting
N/A,49.3251657,8.6751758,N/A,Germany,N/A,Karting
N/A,49.3244301,8.6749381,N/A,Germany,N/A,Karting
N/A,49.3246501,8.6745185,N/A,Germany,N/A,Karting
N/A,49.3255016,8.6752263,N/A,Germany,N/A,Karting
Kartbahn,52.5347453,7.6619318,N/A,Germany,N/A,Karting
Kartbahn Walldorf,49.2968735,8.6016681,N/A,Germany,N/A,Karting
Kart Center Heiligenstadt,51.3675004,10.1534375,Heilbad Heiligenstadt,Germany,http://www.kart-center-heiligenstadt.de/,Karting
E-Fun-Park-Pottenstein,49.7644148,11.404227,Pottenstein,Germany,https://www.e-fun-park-pottenstein.de/,Karting
Kartland Sinn,50.6551371,8.3259988,N/A,Germany,N/A,Karting
N/A,48.27947,10.9005255,N/A,Germany,N/A,Karting
N/A,52.697735,13.6207182,N/A,Germany,N/A,Karting
N/A,47.7102969,9.5939325,N/A,Germany,N/A,Karting
N/A,47.7102006,9.593923,N/A,Germany,N/A,Karting
N/A,47.7103011,9.5938043,N/A,Germany,N/A,Karting
N/A,47.7103724,9.5939469,N/A,Germany,N/A,Karting
N/A,47.7102811,9.5939022,N/A,Germany,N/A,Karting
Eco-Kart,50.1625647,8.6859065,Frankfurt am Main,Germany,https://www.eco-kart.de,Karting
Karthaus,49.2288566,7.4084796,Zweibrücken,Germany,https://karthaus.de/,Karting
Emslandring,52.8025892,7.1637665,N/A,Germany,N/A,Karting
N/A,53.300795,12.8131286,N/A,Germany,N/A,Karting
N/A,49.0429386,8.2962219,N/A,Germany,N/A,Karting
N/A,51.5543838,6.2065981,N/A,Germany,N/A,Karting
N/A,51.5544709,6.2064233,N/A,Germany,N/A,Karting
N/A,51.5544822,6.2066411,N/A,Germany,N/A,Karting
N/A,51.5545068,6.2064635,N/A,Germany,N/A,Karting
N/A,51.5544155,6.2062129,N/A,Germany,N/A,Karting
N/A,47.7126552,9.5956746,N/A,Germany,N/A,Karting
N/A,47.7126984,9.5952875,N/A,Germany,N/A,Karting
N/A,47.7126566,9.5954577,N/A,Germany,N/A,Karting
Seealm-Ring,47.590456,12.9915369,N/A,Germany,http://www.seealm-ring.de/,Karting
BattleKart Halle-Leipzig,51.4943642,12.0099724,N/A,Germany,https://www.battlekart.com/de/halle-leipzig,Karting
SAX Racing Kartbahn,51.3502429,12.1978325,N/A,Germany,N/A,Karting
SAX Racing Kartbahn,51.3501651,12.1980368,N/A,Germany,N/A,Karting
SAX Racing Kartbahn,51.349984,12.1976932,N/A,Germany,N/A,Karting
SAX Racing Kartbahn,51.3501396,12.1979044,N/A,Germany,N/A,Karting
SAX Racing Kartbahn,51.3498982,12.1982747,N/A,Germany,N/A,Karting
SAX Racing Kartbahn,51.3500135,12.1980272,N/A,Germany,N/A,Karting
SAX Racing Kartbahn,51.3502187,12.1981702,N/A,Germany,N/A,Karting
N/A,53.6178731,12.3671908,N/A,Germany,N/A,Karting
MS Kartcenter Hattingen,51.4054512,7.1993848,Hattingen,Germany,https://www.ms-kartcenter-hattingen.de/,Karting
N/A,47.8777936,11.9900955,N/A,Germany,N/A,Karting
N/A,51.3674935,10.1537625,N/A,Germany,N/A,Karting
Westerwaldring,50.7153672,7.7181033,N/A,Germany,N/A,Karting
N/A,52.6977308,13.620713,N/A,Germany,N/A,Karting
N/A,50.7156263,7.7167568,N/A,Germany,N/A,Karting
N/A,51.558614,6.7511291,N/A,Germany,N/A,Karting
Kartarena,51.5593702,6.750017,Dinslaken,Germany,https://kartarena-dinslaken.de,Karting
Kartstrecke,50.7800085,12.5424558,N/A,Germany,N/A,Karting
Go-Kart-Bahn,49.432867,11.1041187,N/A,Germany,N/A,Karting
N/A,53.5672122,12.593924,N/A,Germany,N/A,Karting
FöhrRing Kartbahn,54.6848006,8.5378392,Wyk auf Föhr,Germany,https://www.foehrring.de/,Karting
FöhrRing,54.6847792,8.5379518,N/A,Germany,N/A,Karting
Mini Kartbahn,50.6121547,10.384213,N/A,Germany,N/A,Karting
Ralf Schumacher Kartcenter,53.101617,9.9796127,Bispingen,Germany,https://www.rs-kartcenter.de,Karting
N/A,52.8569638,8.7511066,N/A,Germany,N/A,Karting
DWA Racing,52.8564887,8.7504774,N/A,Germany,https://www.dwa-racing.de/,Karting
Outdoorbahn,48.4500249,12.3372265,N/A,Germany,N/A,Karting
Audi Fahrtrainingsplatz,48.3495287,11.7473404,N/A,Germany,N/A,Karting
N/A,51.8081067,7.0200416,N/A,Germany,N/A,Karting
N/A,51.8082883,7.0199429,N/A,Germany,N/A,Karting
Kart am Alfsee,52.4912415,7.989541,Rieste,Germany,https://www.kart-am-alfsee.de/,Karting
Go Karts,49.1694989,12.6408185,N/A,Germany,N/A,Karting
Kinderquadbahn Firmenich,50.6308978,6.6953707,Mechernich,Germany,http://www.kinderquadbahn-firmenich.de/,Karting
N/A,47.679262,8.3109749,N/A,Germany,N/A,Karting
N/A,50.7623556,13.7534873,N/A,Germany,N/A,Karting
N/A,51.1395779,6.4596127,N/A,Germany,N/A,Karting
N/A,54.3874881,13.5500935,N/A,Germany,N/A,Karting
MSC Marktleuthen Verkehrsübungsplatz,50.1230568,12.004877,N/A,Germany,N/A,Karting
N/A,51.1111114,6.9252674,N/A,Germany,N/A,Karting
N/A,53.5997465,11.378293,N/A,Germany,N/A,Karting
N/A,51.3965577,14.3888475,N/A,Germany,N/A,Karting
N/A,48.0707254,10.8627896,N/A,Germany,N/A,Karting
N/A,48.0707046,10.8630278,N/A,Germany,N/A,Karting
N/A,48.0707763,10.862721,N/A,Germany,N/A,Karting
N/A,48.0706243,10.8625526,N/A,Germany,N/A,Karting
N/A,48.070858,10.8627832,N/A,Germany,N/A,Karting
N/A,48.0708501,10.8626202,N/A,Germany,N/A,Karting
N/A,52.4868659,7.9908511,N/A,Germany,N/A,Karting
N/A,54.0824025,13.9117802,N/A,Germany,N/A,Karting
N/A,48.901831,12.6259112,N/A,Germany,N/A,Karting
N/A,51.0693799,8.1744969,N/A,Germany,N/A,Karting
Boxengasse,50.7796803,12.5428086,N/A,Germany,N/A,Karting
N/A,54.1622275,12.2306324,N/A,Germany,N/A,Karting
Görlitz Ring,51.0582704,14.9550785,Görlitz,Germany,https://www.kartbahn-goerlitz-ring.de,Karting
Faßbergring,52.9131003,10.20359,N/A,Germany,N/A,Karting
N/A,52.9128238,10.2039765,N/A,Germany,N/A,Karting
N/A,50.9533124,11.6211671,N/A,Germany,N/A,Karting
N/A,53.5438652,13.2850165,N/A,Germany,N/A,Karting
N/A,49.5841085,10.1779406,N/A,Germany,N/A,Karting
Mini-GoKard-Bahn,53.9649335,10.819396,N/A,Germany,N/A,Karting
N/A,50.5730296,8.5394609,N/A,Germany,N/A,Karting
N/A,50.5727945,8.5392386,N/A,Germany,N/A,Karting
N/A,50.5727619,8.5387034,N/A,Germany,N/A,Karting
N/A,51.0381368,13.7551568,N/A,Germany,N/A,Karting
N/A,51.2600361,6.5433706,N/A,Germany,N/A,Karting
N/A,51.2600604,6.5433516,N/A,Germany,N/A,Karting
Kinder-Elektrokartbahn,53.5438602,13.2850322,N/A,Germany,N/A,Karting
Tret Go Kart,47.7431461,9.0470018,N/A,Germany,N/A,Karting
Mini-Karts,50.5000761,9.9432207,N/A,Germany,N/A,Karting
Jumicar Ostholstein,54.3591125,11.0848842,Großenbrode,Germany,https://jumicar-ostholstein.de/,Karting
BB-Kartbahn,53.1041396,8.7680012,N/A,Germany,https://www.bb-kart.de/,Karting
Automodellsport-Club Langenfeld e.V.,51.1111134,6.9250938,N/A,Germany,N/A,Karting
N/A,50.9043827,13.3830415,N/A,Germany,N/A,Karting
Saxoniaring Kartclub Freiberg e.V.,50.9043646,13.3830818,N/A,Germany,https://www.saxoniaring-freiberg.de,Karting
Eco-Kart,50.0564739,8.5906048,N/A,Germany,https://www.ecokart-outdoor.de/,Karting
N/A,51.3853282,7.7995789,N/A,Germany,N/A,Karting
N/A,48.3662986,12.5211888,N/A,Germany,N/A,Karting
N/A,51.0639053,8.1723253,N/A,Germany,N/A,Karting
N/A,51.0640217,8.171933,N/A,Germany,N/A,Karting
N/A,47.8850858,8.2864387,N/A,Germany,N/A,Karting
Formula 1 Münzautoscooter,49.1701319,12.6432458,N/A,Germany,N/A,Karting
N/A,51.4908276,6.9558315,N/A,Germany,N/A,Karting
N/A,51.4906205,6.956193,N/A,Germany,N/A,Karting
N/A,51.4908487,6.9562188,N/A,Germany,N/A,Karting
N/A,51.491213,6.9561621,N/A,Germany,N/A,Karting
Bahn 1 (rot),51.4904696,6.9564842,N/A,Germany,N/A,Karting
N/A,51.4908736,6.9562599,N/A,Germany,N/A,Karting
Bahn 2 (gelb),51.4909893,6.955588,N/A,Germany,N/A,Karting
N/A,52.3275003,10.5240714,N/A,Germany,N/A,Karting
N/A,48.3121568,12.8472829,N/A,Germany,N/A,Karting
N/A,53.5079304,11.0927238,N/A,Germany,N/A,Karting
N/A,53.507947,11.0928287,N/A,Germany,N/A,Karting
N/A,53.5084377,11.0923432,N/A,Germany,N/A,Karting
N/A,53.5088725,11.0915756,N/A,Germany,N/A,Karting
N/A,53.5095532,11.0915157,N/A,Germany,N/A,Karting
N/A,53.5087518,11.0924067,N/A,Germany,N/A,Karting
N/A,53.508385,11.0929728,N/A,Germany,N/A,Karting
N/A,53.5088122,11.0929342,N/A,Germany,N/A,Karting
N/A,53.5092643,11.0916974,N/A,Germany,N/A,Karting
Treggerbahn,53.4859485,8.6095008,N/A,Germany,N/A,Karting
Mini-GoKart-Bahn,53.4856894,8.6092656,N/A,Germany,N/A,Karting
Minicars,49.5018828,8.4843494,N/A,Germany,N/A,Karting
Battle Kart Düsseldorf-Neuss,51.1573896,6.7439083,N/A,Germany,https://duesseldorf-neuss.battlekart.com/,Karting
Geschicklichkeits-Kartbahn,51.5570649,6.2089128,N/A,Germany,N/A,Karting
Spreeflitzer,52.3281552,14.0699311,N/A,Germany,www.spreeflitzer.de,Karting
Spreeflitzer,52.328103,14.0700539,N/A,Germany,N/A,Karting
N/A,48.706264,13.0369657,N/A,Germany,https://msc-osterhofen.jimdoweb.com/,Karting
Karting de Dumbéa,-22.1730688,166.4353461,N/A,France,N/A,Karting
Karting,43.9222928,4.5010897,N/A,France,N/A,Karting
Café du Karting de Nakutakoin,-22.1726472,166.4366726,N/A,France,N/A,Karting
Circuit de Deauville - Team Active,49.3269982,0.0796983,N/A,France,https://www.teamactive.fr/nos-sites/grand-ouest/circuit-de-deauville/,Karting
Kart Racer,47.9580191,1.8945374,Saran,France,https://www.kartracer.fr/,Karting
SpeedPark,47.6712153,-2.7920196,Vannes,France,N/A,Karting
Giga Kart,-21.2840756,55.3961209,N/A,France,N/A,Karting
Le Karting,5.1555527,-52.6706414,N/A,France,N/A,Karting
Kart 56,47.668102,-3.0622531,N/A,France,https://www.kart56.com/,Karting
N/A,46.2287498,-1.4298278,N/A,France,N/A,Karting
N/A,48.9569662,2.2041814,N/A,France,N/A,Karting
N/A,49.4904223,4.5749773,N/A,France,N/A,Karting
Kart'In,48.7029936,6.1838251,N/A,France,N/A,Karting
Piste de Karting,47.6568527,6.1041626,N/A,France,N/A,Karting
Karting du Fouteau,48.3874877,-0.5028185,N/A,France,N/A,Karting
Circuit Quad,43.3530889,0.0391472,N/A,France,N/A,Karting
Karting,46.4967422,-1.786469,Les Sables-d'Olonne,France,N/A,Karting
C.P. Quad Loisirs,47.773366,3.6191024,N/A,France,N/A,Karting
Circuit International de Karting d’Aunay-les-Bois,48.552799,0.2746901,N/A,France,https://www.ouest-karting.fr/,Karting
Kart Park Pacific,-22.172595,166.4366591,Dumbéa,France,N/A,Karting
Karting - Aérodrome,49.1010161,2.0426185,N/A,France,N/A,Karting
N/A,44.9535924,6.5504292,N/A,France,N/A,Karting
Karting,47.2341637,-1.6527655,N/A,France,N/A,Karting
N/A,44.8968813,4.8887196,N/A,France,N/A,Karting
NTKart,49.5103475,5.7183574,N/A,France,https://ntkart.com/,Karting
N/A,45.7157552,4.8588929,N/A,France,N/A,Karting
Stras Kart,48.5894308,7.6812034,N/A,France,http://www.straskart.fr/,Karting
City Kart,47.1902045,-1.4897493,N/A,France,https://www.city-kart.fr/karting-indoor-de-nantes/,Karting
Karting - Aérodrome,49.1021056,2.0414661,N/A,France,N/A,Karting
Starter Park,43.2650345,5.6750693,N/A,France,N/A,Karting
N/A,51.0060012,2.384409,N/A,France,N/A,Karting
INDYKART,47.0578001,-0.9788615,N/A,France,N/A,Karting
Karting Bowling,44.8889083,-0.5618336,N/A,France,N/A,Karting
Kart System Indoor,44.8890163,-0.5622465,N/A,France,N/A,Karting
Karting Neumuehle,48.975071,7.3295805,N/A,France,N/A,Karting
N/A,47.2127521,5.9460535,N/A,France,N/A,Karting
Puissance Kart Indoor,47.4870552,6.8280952,Audincourt,France,https://www.puissancekartindoor.com/,Karting
Karting - Aérodrome,49.1020449,2.0414784,N/A,France,N/A,Karting
Karting,46.7733589,-1.4298168,N/A,France,N/A,Karting
Karting - Aérodrome,49.1011089,2.042639,N/A,France,N/A,Karting
Piste karting Selongey,47.6108692,5.2337094,N/A,France,N/A,Karting
Karting,46.1008086,-0.9447302,N/A,France,N/A,Karting
Karting Monéteau,47.8474946,3.5547852,N/A,France,N/A,Karting
Metz Kart Indoor,49.0768397,6.1085889,N/A,France,https://gamesfactory.fr/metz/,Karting
Kart Expo,48.0547793,-1.7306967,Bruz,France,http://www.kart-expo.fr/,Karting
Karting,43.6867133,6.9595527,N/A,France,N/A,Karting
Karting de Saintes,45.6977889,-0.6168453,N/A,France,N/A,Karting
N/A,49.4027547,2.7736924,N/A,France,N/A,Karting
Selest’Kart-IN,48.2522338,7.4317789,N/A,France,https://selestkart-in.com/,Karting
Karting Magescq,43.8009535,-1.2473545,Magescq,France,https://www.karting-de-magescq.fr/,Karting
N/A,45.74332,0.40265,N/A,France,N/A,Karting
N/A,47.9582427,1.8942177,N/A,France,N/A,Karting
Karting Philippe Lavilledieu,44.5860651,4.4488978,N/A,France,N/A,Karting
Kartmania,47.2886459,5.0239771,Chenôve,France,https://kartmania.com/,Karting
Tours Kart Indoor,47.3448828,0.7332596,N/A,France,https://www.tours-kart-indoor.fr/,Karting
N/A,48.050234,0.1752787,N/A,France,N/A,Karting
Karting,50.2741457,3.9650615,N/A,France,N/A,Karting
N/A,47.2011023,6.8422862,N/A,France,https://lacombesaintpierre.com/devalkart/,Karting
La Calmette Karting,43.9455781,4.2658338,La Calmette,France,https://www.lacalmettekarting.fr/,Karting
Karting City Périgord,44.9870494,0.8885936,N/A,France,https://kartingcityperigord.fr/,Karting
Fast & Green,45.4614936,4.3927503,N/A,France,https://www.fast-and-green.fr/,Karting
Inwall Kart,47.4274919,-0.5431727,N/A,France,N/A,Karting
Battle Kart,48.7058859,2.2930661,N/A,France,https://www.battlekart.com/fr/paris-sud-massy/,Karting
Sim Racing,49.8468206,3.2857942,N/A,France,https://sim-one.co/,SIM Racing
On'Kart,46.1293549,6.0292004,N/A,France,https://on-kart.com/,Karting
SimRacing full motion,49.2864877,-0.1304937,Cabourg,France,https://espacesimu.fr/,SIM Racing
Karting Lexy,49.5095605,5.7180663,N/A,France,N/A,Karting
Karting Lexy,49.5095203,5.7182146,N/A,France,N/A,Karting
BattleKart Lyon-Mornant,45.6243043,4.7029789,N/A,France,https://www.battlekart.com/fr/lyon-mornant/,Karting
Al. Karting,45.7141102,-1.160275,N/A,France,N/A,Karting
Base US Karting,46.813179,1.7781921,N/A,France,https://baseuskarting.com/,Karting
K1 Speed,49.2055686,-0.3241328,N/A,France,https://k1speed.fr/caen,Karting
Karting Manosque,43.8072913,5.8198708,Manosque,France,https://www.kartingmanosque.fr/,Karting
Funlab,48.1918172,-1.7273171,La Mézière,France,N/A,Karting
Karting de Chartres,48.446638,1.5420005,Chartres,France,N/A,Karting
K1 Speed,47.9628032,0.2179134,N/A,France,N/A,Karting
Rouen Espace LoisirsV,49.4426281,1.0428676,N/A,France,https://www.rouenespaceloisirs.fr/,Karting
Selest'Kart'in,48.2523842,7.4323185,N/A,France,https://www.selestkart-in.com,Karting
Karting Family Fun Park,45.5644151,-0.9553492,N/A,France,https://www.familyfunpark.fr/,Karting
48 K-C-V Lozère,44.467701,3.9362345,N/A,France,N/A,Karting
Planet Karting,50.7632245,2.2215101,N/A,France,https://www.planet-karting.com/,Karting
Gwada Karting Club,16.2491385,-61.5949181,N/A,France,N/A,Karting
N/A,44.89,4.04684,N/A,France,N/A,Karting
Circuit de Ouistreham - Team Active,49.2892429,-0.2537876,N/A,France,https://www.teamactive.fr/nos-sites/grand-ouest/circuit-de-ouistreham/,Karting
Passion Karting 17,45.9493895,-0.503282,N/A,France,https://www.passionkarting17.fr/,Karting
Buggs Buggy 974,-21.2237709,55.558145,N/A,France,N/A,Karting
Karting 55,49.148081,5.3769979,Verdun,France,https://k55.fr/accueil-karting/,Karting
Karting paintball 14,49.1448732,0.3512987,N/A,France,https://kartingpaintball14.fr/,Karting
Circuit 2,43.6888628,6.9601346,N/A,France,N/A,Karting
Circuit 1,43.6900957,6.9609299,N/A,France,N/A,Karting
Circuit enfant,43.6888738,6.9593065,N/A,France,N/A,Karting
Circuit de Karting Elceka,43.6406229,3.7627618,N/A,France,N/A,Karting
Nantes Karting NEK,47.2538271,-1.4982264,N/A,France,N/A,Karting
N/A,43.4224514,6.730062,N/A,France,N/A,Karting
N/A,43.4226104,6.7297701,N/A,France,N/A,Karting
N/A,43.4228101,6.7293714,N/A,France,N/A,Karting
N/A,43.4229742,6.7295159,N/A,France,N/A,Karting
Circuit de l'Indre,46.9700589,1.181465,N/A,France,https://circuit-de-lindre.com/,Karting
Rue du Karting,-20.8937367,55.5009431,N/A,France,N/A,Karting
Rue du Karting,-20.8938444,55.5004407,N/A,France,N/A,Karting
N/A,46.9181683,6.3331814,N/A,France,N/A,Karting
GP Circuit,48.4885169,-2.4508935,Lamballe,France,https://www.gp-circuit.fr/,Karting
Circuit Alain Prost,47.9392643,0.211995,N/A,France,N/A,Karting
Piste de Karting,47.7990375,7.3468022,N/A,France,N/A,Karting
N/A,49.2766032,-0.1371596,N/A,France,N/A,Karting
Kart Origins,45.6469217,4.9081152,N/A,France,https://kartorigins.fr/,Karting
N/A,49.1039188,2.0368555,N/A,France,N/A,Karting
N/A,49.1039924,2.0377789,N/A,France,N/A,Karting
Brest karting électrique,48.3756716,-4.5574486,N/A,France,N/A,Karting
Solokart,47.5248869,-1.8391093,N/A,France,N/A,Karting
N/A,47.5248801,-1.8404,N/A,France,N/A,Karting
Karting,45.9497166,-0.5037764,N/A,France,N/A,Karting
Karting Cap Malo,48.1996996,-1.7221933,N/A,France,N/A,Karting
Crcuit de Karting,47.3559083,5.8183701,N/A,France,N/A,Karting
Crcuit de Karting,47.3565437,5.8193826,N/A,France,N/A,Karting
Crcuit de Karting,47.3569218,5.8198125,N/A,France,N/A,Karting
Circuit de Karting,43.3488979,6.3383874,N/A,France,N/A,Karting
Circuit de karting Technikart,49.016115,-0.0791017,N/A,France,https://www.technikart.fr/,Karting
N/A,45.2417338,-0.0994341,N/A,France,N/A,Karting
N/A,45.2413358,-0.1000472,N/A,France,N/A,Karting
N/A,45.2412088,-0.1013412,N/A,France,N/A,Karting
Le Karting,47.2007646,-1.5709516,N/A,France,N/A,Karting
Mini Karting Piste du Bois,45.7796605,4.8568643,N/A,France,N/A,Karting
Kart indoor,47.8649872,3.5365148,N/A,France,N/A,Karting
Karting & Quad Auxerre,47.8140452,3.5785419,N/A,France,N/A,Karting
Kartingliss,45.7492295,3.1643274,N/A,France,N/A,Karting
Energy Karting Saint-Cyr,45.253999,4.7531818,N/A,France,https://www.energykarting-stcyr.com,Karting
Piste de Karting Phillipe Alliot,46.7735119,-1.4295245,N/A,France,N/A,Karting
Laval Loisirs Karting,48.0368232,-0.7440815,N/A,France,https://www.karting-laval.fr,Karting
N/A,47.9580179,1.8945701,N/A,France,N/A,Karting
Karting de Crolles,45.2654635,5.8948387,Crolles,France,https://kartingdecrolles.com/,Karting
RMT Karting,45.813196,1.2678173,N/A,France,N/A,Karting
N/A,45.6331318,-0.9961163,N/A,France,N/A,Karting
Mistral Karting Montélimar,44.5531037,4.7126504,N/A,France,N/A,Karting
Défikart,43.6328111,1.4267074,Toulouse,France,N/A,Karting
Jovikart Karting Nantes 44,47.123366,-1.4981761,Le Bignon,France,https://www.jovikart.com/,Karting
Green Kart,45.1444621,5.706099,N/A,France,https://green-kart.com/,Karting
K1 Speed Lyon,45.7193975,4.9873266,N/A,France,https://www.k1speed.fr/lyon.html,Karting
Go Kart 90,47.6145729,6.8509656,Danjoutin,France,N/A,Karting
N/A,42.7795295,2.9079635,N/A,France,N/A,Karting
Ancienne piste Karting,47.2032092,-0.7371269,N/A,France,N/A,Karting
Accès Karting,-22.173236,166.4357059,N/A,France,N/A,Karting
Piste de Karting de Nakutakoin,-22.1722074,166.4367178,N/A,France,N/A,Karting
Piste de Karting de Nakutakoin,-22.1719567,166.4364625,N/A,France,N/A,Karting
Piste de Karting de Nakutakoin,-22.1722659,166.4365923,N/A,France,N/A,Karting
Décibel Kart Cross Bisontin,47.1591743,6.1221749,N/A,France,N/A,Karting
N/A,47.1592055,6.1223151,N/A,France,N/A,Karting
N/A,44.9860524,4.8791371,N/A,France,N/A,Karting
Karting Indoor,43.4875423,5.3766148,N/A,France,N/A,Karting
N/A,42.7796485,2.9079381,N/A,France,N/A,Karting
N/A,42.780066,2.9067899,N/A,France,N/A,Karting
N/A,42.7796852,2.907462,N/A,France,N/A,Karting
Karting Buffo,48.6518208,2.76182,N/A,France,N/A,Karting
N/A,46.6144083,0.3197613,N/A,France,N/A,Karting
N/A,48.6094212,2.5837196,N/A,France,N/A,Karting
Kartland,48.6107841,2.5815779,N/A,France,N/A,Karting
N/A,48.6102148,2.5793014,N/A,France,N/A,Karting
N/A,48.6098535,2.5815699,N/A,France,N/A,Karting
N/A,44.9855814,4.8585681,N/A,France,N/A,Karting
N/A,44.9857684,4.8554977,N/A,France,N/A,Karting
Karting de Saint-Malo,48.6363676,-1.8696756,N/A,France,N/A,Karting
A.S. Karting Circuit de la Hague,49.6625667,-1.814964,N/A,France,N/A,Karting
Circuit Jean Brun,46.3221855,3.3597323,N/A,France,N/A,Karting
Karting,49.3457513,2.3985739,N/A,France,N/A,Karting
Circuit Berderry,43.3548681,-0.4414414,N/A,France,N/A,Karting
N/A,43.3548191,-0.4415047,N/A,France,N/A,Karting
N/A,43.2557338,-0.1384489,N/A,France,N/A,Karting
Karting,46.5099898,-0.1819662,N/A,France,N/A,Karting
Karting,44.5858504,4.448142,N/A,France,N/A,Karting
West Aventure,46.6989336,-1.8453348,N/A,France,N/A,Karting
N/A,49.2891712,-0.2537878,N/A,France,N/A,Karting
N/A,46.446182,-0.7782714,N/A,France,N/A,Karting
Circuit de Cabourg - Team Active,49.2766854,-0.1371657,N/A,France,https://www.teamactive.fr/nos-sites/grand-ouest/circuit-de-cabourg/,Karting
N/A,45.6907858,0.1894802,N/A,France,N/A,Karting
N/A,47.2818985,1.6484512,N/A,France,N/A,Karting
N/A,50.1356541,1.8398504,N/A,France,N/A,Karting
N/A,47.3848643,-1.6397179,N/A,France,N/A,Karting
Kartland,48.6098831,2.5834608,Moissy-Cramayel,France,N/A,Karting
N/A,44.5522206,4.7107191,N/A,France,N/A,Karting
N/A,45.5362741,4.301893,N/A,France,N/A,Karting
N/A,48.5524509,0.2748306,N/A,France,N/A,Karting
N/A,48.5524515,0.2745406,N/A,France,N/A,Karting
Karting,45.7140579,-1.1602249,N/A,France,N/A,Karting
N/A,45.7138224,-1.1606075,N/A,France,N/A,Karting
N/A,48.2629405,3.3138338,N/A,France,N/A,Karting
N/A,48.2637073,3.3122932,N/A,France,N/A,Karting
Karting - Circuit de Muret,43.4551306,1.2800589,N/A,France,N/A,Karting
N/A,47.2230446,4.5561548,N/A,France,N/A,Karting
Lille Karting,50.6354624,2.9692023,Ennetières-en-Weppes,France,https://www.lillekarting.fr/,Karting
N/A,46.446161,-0.779814,N/A,France,N/A,Karting
Karting de Marcillat en Combraille,46.172657,2.5994465,N/A,France,N/A,Karting
Route du Karting,46.1705399,2.6074269,N/A,France,N/A,Karting
Piste de Karting de Marcillat,46.1727472,2.5991276,N/A,France,N/A,Karting
N/A,47.6687161,1.21534,N/A,France,N/A,Karting
N/A,47.6688046,1.2161761,N/A,France,N/A,Karting
N/A,47.7289337,1.4892675,N/A,France,N/A,Karting
Mini-Karting,-22.1727581,166.4362788,N/A,France,N/A,Karting
Karting Enfants,48.7823927,2.0071295,N/A,France,N/A,Karting
Piste de Karting,43.5904196,2.7059486,N/A,France,N/A,Karting
N/A,45.7431053,0.4028361,N/A,France,N/A,Karting
N/A,49.901143,1.1075991,N/A,France,N/A,Karting
Euro Dieppe Karting,49.9015041,1.1080941,N/A,France,N/A,Karting
N/A,49.9014279,1.1074439,N/A,France,N/A,Karting
Euro Dieppe Karting,49.9014426,1.1074887,N/A,France,N/A,Karting
N/A,48.2091214,6.5573138,N/A,France,N/A,Karting
N/A,46.8626797,3.1556504,N/A,France,N/A,Karting
N/A,44.55319,4.7112483,N/A,France,N/A,Karting
N/A,46.8155978,4.8204642,N/A,France,N/A,Karting
N/A,43.6306212,-1.4251204,N/A,France,N/A,Karting
N/A,43.629901,-1.4245104,N/A,France,N/A,Karting
Karting,46.340333,2.5195009,N/A,France,N/A,Karting
N/A,49.1486259,5.3767804,N/A,France,N/A,Karting
Piste karting Selongey,47.6108008,5.2334877,N/A,France,N/A,Karting
Piste karting Selongey,47.6107999,5.2334818,N/A,France,N/A,Karting
Dunois Kart,48.0528122,1.4285105,N/A,France,https://www.dunoiskart.com/,Karting
Circuit Karting de Pont-L'Évêque,49.2627114,0.1936404,N/A,France,N/A,Karting
Karting,48.111332,-0.8500406,N/A,France,N/A,Karting
MK Karting,46.1345514,6.3207282,N/A,France,N/A,Karting
N/A,45.4550865,1.4523691,N/A,France,N/A,Karting
JCS Karting,45.4551349,1.4520742,N/A,France,N/A,Karting
Kart Center,46.6143825,0.3197209,N/A,France,https://www.newkartpoitiers.com/,Karting
Lille Karting,50.6346926,2.970903,N/A,France,N/A,Karting
Karting Circuit Paul Ricard,43.2466621,5.798755,N/A,France,N/A,Karting
Karting Circuit Paul Ricard,43.247279,5.797984,N/A,France,N/A,Karting
Karting Circuit Paul Ricard,43.2467434,5.7984984,N/A,France,N/A,Karting
Karting Circuit Paul Ricard,43.2473758,5.7981571,N/A,France,N/A,Karting
Karting Dijon-Prenois,47.3667507,4.901663,N/A,France,N/A,Karting
Karting Quad de Vendays Montalivet,45.376198,-1.1226057,N/A,France,http://www.karting-montalivet.com/,Karting
Karting Circuit Paul Ricard,43.2476394,5.7986065,N/A,France,N/A,Karting
N/A,49.0161259,-0.0785127,N/A,France,N/A,Karting
N/A,43.1301581,3.125966,N/A,France,N/A,Karting
Opale Karting,50.3992186,1.6038817,N/A,France,https://www.opalekarting.fr/,Karting
N/A,48.6442223,-0.5135754,N/A,France,N/A,Karting
A.S Karting d'Etauliers,45.2259625,-0.5693825,N/A,France,N/A,Karting
AS Karting Corsika,42.606634,9.4460226,N/A,France,N/A,Karting
N/A,46.9161134,0.5154741,N/A,France,N/A,Karting
Karting de Crolles,45.2649286,5.8946929,N/A,France,N/A,Karting
N/A,45.2652627,5.8949984,N/A,France,N/A,Karting
N/A,44.0375643,5.0651652,N/A,France,N/A,Karting
N/A,48.0370104,0.4211721,N/A,France,N/A,Karting
N/A,47.2634484,-1.7016251,N/A,France,N/A,Karting
N/A,47.2636027,-1.7018741,N/A,France,N/A,Karting
N/A,44.460333,6.1533777,N/A,France,N/A,Karting
Mini Bolid' Club Pertuisien,43.6688589,5.5031425,N/A,France,N/A,Karting
N/A,43.2190621,2.3032844,N/A,France,N/A,Karting
Win'Kart de Carcassonne,43.2190583,2.3033725,N/A,France,N/A,Karting
A.S. Karting Etauliers,45.2252646,-0.5685096,N/A,France,N/A,Karting
N/A,48.0368875,0.4228076,N/A,France,N/A,Karting
N/A,42.7587786,3.0185794,N/A,France,N/A,Karting
N/A,42.7589253,3.0176989,N/A,France,N/A,Karting
N/A,42.759044,3.0188951,N/A,France,N/A,Karting
Karting de Saint-Benoit sur Loire,47.8203407,2.3307079,N/A,France,N/A,Karting
N/A,42.7792297,2.9092974,N/A,France,N/A,Karting
N/A,42.7793215,2.9087428,N/A,France,N/A,Karting
N/A,42.7789438,2.9100431,N/A,France,N/A,Karting
N/A,42.7792556,2.9097894,N/A,France,N/A,Karting
Db Karting,48.3592083,3.9805787,N/A,France,N/A,Karting
N/A,48.3591141,3.9801056,N/A,France,N/A,Karting
Atlantic Kart System A.K.S,46.5094015,-1.682925,N/A,France,N/A,Karting
N/A,44.9068481,2.2337375,N/A,France,N/A,Karting
Piste de Karting de Charmes,48.3798162,6.2820968,N/A,France,N/A,Karting
Piste de Karting,47.3956824,-1.1854068,N/A,France,N/A,Karting
Piste de Karting du Parc,48.765196,-1.2844923,N/A,France,N/A,Karting
Circuit du Bicêtre,45.6169396,4.0770324,N/A,France,N/A,Karting
N/A,45.6169182,4.0770827,N/A,France,N/A,Karting
N/A,50.3260552,3.4290129,N/A,France,N/A,Karting
Starter Park Karting,43.2651657,5.6748075,N/A,France,N/A,Karting
N/A,48.4731687,-4.5259133,N/A,France,N/A,Karting
N/A,43.9519195,4.8713805,N/A,France,N/A,Karting
Sologne Karting,47.3601309,2.0498434,N/A,France,N/A,Karting
Piste de Karting d'Anneville-Ambourville,49.448436,0.9055392,N/A,France,N/A,Karting
Circuit Beltoise-Trappes,48.7598273,1.9931251,N/A,France,N/A,Karting
Circuit de Kart-Cross,47.7941602,0.7829538,N/A,France,N/A,Karting
N/A,48.0549689,-1.7301694,N/A,France,N/A,Karting
N/A,48.0549586,-1.729326,N/A,France,N/A,Karting
N/A,48.0549763,-1.7297871,N/A,France,N/A,Karting
N/A,48.0662897,-1.7134169,N/A,France,N/A,Karting
N/A,48.0664647,-1.7127084,N/A,France,N/A,Karting
Circuit du Val d'Argenton,47.0077609,-0.4323862,N/A,France,N/A,Karting
Karting du Fouteau,48.3879484,-0.5013425,N/A,France,N/A,Karting
Inter Racing Kart,43.4224087,6.7295999,N/A,France,https://www.interracingkart.com/,Karting
Circuit du Périgord,45.5809231,0.5836751,N/A,France,N/A,Karting
Circuit Julie Tonelli,43.8191093,4.6037583,N/A,France,N/A,Karting
N/A,43.8189987,4.6052466,N/A,France,N/A,Karting
N/A,44.1074069,0.6539766,N/A,France,N/A,Karting
N/A,44.1062482,0.7261317,N/A,France,N/A,Karting
N/A,46.6760021,1.7102238,N/A,France,N/A,Karting
Speed Fun Karting,46.291719,-0.5081855,N/A,France,N/A,Karting
Kart Quad Sensations,45.6503167,2.5817376,N/A,France,N/A,Karting
N/A,43.272038,6.5535463,N/A,France,N/A,Karting
N/A,43.2719836,6.5540695,N/A,France,N/A,Karting
N/A,46.6654984,-0.6155446,N/A,France,N/A,Karting
Circuit Alain Prost Pro,47.9397861,0.2120764,N/A,France,N/A,Karting
N/A,46.8132751,4.4120385,N/A,France,N/A,Karting
N/A,46.8130503,4.4121988,N/A,France,N/A,Karting
N/A,47.7007517,6.2461566,N/A,France,N/A,Karting
Circuit de Karting de Dijon-Prenois,47.3671952,4.9016102,N/A,France,N/A,Karting
N/A,48.3188048,6.0794071,N/A,France,N/A,Karting
Karting du Mont-Blanc,45.9219847,6.66061,N/A,France,N/A,Karting
L'Indykarte,47.9079545,6.7884805,N/A,France,http://www.vp-kart.com/,Karting
RKC Karting,49.1037563,2.0377999,Cormeilles-en-Vexin,France,https://www.rkc.fr/,Karting
N/A,45.141223,3.8199417,N/A,France,N/A,Karting
Manacha Kart,48.1642675,6.9176816,N/A,France,https://www.manachakart.com/,Karting
N/A,48.164142,6.9175476,N/A,France,N/A,Karting
N/A,44.1507482,4.0709575,N/A,France,N/A,Karting
N/A,46.9469372,-1.5928333,N/A,France,N/A,Karting
Tour de contrôle karting,44.1520082,4.0709579,N/A,France,N/A,Karting
N/A,43.2529747,3.2739028,N/A,France,N/A,Karting
Karting Intérieur,46.4281544,5.7152336,N/A,France,N/A,Karting
Circuit de l'Europe,49.3146203,1.1159464,N/A,France,N/A,Karting
N/A,45.2244196,2.3208872,N/A,France,N/A,Karting
N/A,45.6256604,6.3308911,N/A,France,N/A,Karting
Piste 550 m,45.8460691,5.9691819,N/A,France,N/A,Karting
Piste 1150 m,45.845216,5.9688822,N/A,France,N/A,Karting
N/A,47.8669971,-1.8968047,N/A,France,N/A,Karting
Number One Karting,43.3022696,3.456316,N/A,France,https://www.kartingnumberone.com/,Karting
N/A,47.866779,-1.8968377,N/A,France,N/A,Karting
Karting de Pont d'Ain,46.0426534,5.3310135,N/A,France,N/A,Karting
Karting de Pont d'Ain,46.0426895,5.3310431,N/A,France,N/A,Karting
Kart-Circuit des Renardières,45.6905088,1.0205932,N/A,France,N/A,Karting
N/A,47.2226935,4.5569485,N/A,France,N/A,Karting
Pit-Lane,50.3266038,3.4300145,N/A,France,N/A,Karting
Impasse des Kartings,45.0886072,0.8324185,N/A,France,N/A,Karting
Garden Karting,45.0871036,0.8323831,N/A,France,N/A,Karting
Martini Racing Kart 85,46.8506769,-1.8486421,N/A,France,N/A,Karting
N/A,44.377178,4.2570435,N/A,France,N/A,Karting
N/A,46.8129882,4.4128465,N/A,France,N/A,Karting
ClotKart,48.6927411,3.1035908,N/A,France,https://www.clotkart.com,Karting
N/A,48.6927473,3.1034362,N/A,France,N/A,Karting
N/A,47.8207614,2.3305055,N/A,France,N/A,Karting
Piste entreprise,45.6832941,5.0728163,N/A,France,N/A,Karting
Piste compétition,45.6846751,5.0752821,N/A,France,N/A,Karting
Piste location,45.683192,5.074857,N/A,France,N/A,Karting
Bretagne Karting,47.9213579,-4.1875726,N/A,France,http://www.bretagne-karting.fr/,Karting
Karting de Monteux,44.0532258,4.9462398,N/A,France,N/A,Karting
N/A,49.0161389,-0.0788079,N/A,France,N/A,Karting
N/A,49.0160349,-0.0784499,N/A,France,N/A,Karting
N/A,49.0166141,-0.0783886,N/A,France,N/A,Karting
N/A,49.0160415,-0.0783241,N/A,France,N/A,Karting
N/A,49.0162583,-0.0791741,N/A,France,N/A,Karting
N/A,49.0164,-0.0780356,N/A,France,N/A,Karting
N/A,49.0155304,-0.0786099,N/A,France,N/A,Karting
Circuit de Chantemerle,47.1233833,-1.4972139,N/A,France,N/A,Karting
Virage du Karting,47.9380743,0.2093849,N/A,France,N/A,Karting
Karting Plus,43.8255738,2.7454449,Belmont-sur-Rance,France,N/A,Karting
N/A,47.4014627,0.7114386,N/A,France,N/A,Karting
N/A,47.6683214,-3.0625104,N/A,France,N/A,Karting
N/A,46.5491181,5.3285264,N/A,France,N/A,Karting
Karting,44.3881582,6.594492,N/A,France,N/A,Karting
Landes Karting,47.6687244,1.2160078,N/A,France,N/A,Karting
Circuit national de la Boule d'Or,47.064313,0.0715996,N/A,France,https://www.loudun-karting.com/,Karting
N/A,48.5388312,7.4090523,N/A,France,N/A,Karting
N/A,47.168938,-2.1447845,N/A,France,N/A,Karting
Circuit de Karting de Brignoles,43.4046967,6.0116322,N/A,France,N/A,Karting
N/A,49.0766538,6.1080731,N/A,France,N/A,Karting
N/A,47.0797179,2.2976292,N/A,France,N/A,Karting
OnlyKart,45.8433024,5.0618486,N/A,France,N/A,Karting
Karting Circuit Paul Ricard,43.2468171,5.7985538,N/A,France,N/A,Karting
Ancien Karting du Tydos,43.0963218,-0.0314166,N/A,France,N/A,Karting
N/A,45.4800114,4.3444198,N/A,France,http://www.askarting-villars42.fr,Karting
Terrain de Kart Cross,46.4636332,5.3315256,N/A,France,N/A,Karting
N/A,50.3259403,3.4292428,N/A,France,N/A,Karting
N/A,50.3255705,3.4289558,N/A,France,N/A,Karting
Circuit de Karting d'Anneville-Ambourville,49.4480461,0.9051912,N/A,France,N/A,Karting
Piste de Karting d'Anneville-Ambourville,49.4479386,0.9069754,N/A,France,N/A,Karting
Piste de Karting d'Anneville-Ambourville,49.4482579,0.9055643,N/A,France,N/A,Karting
Le Grand Prix,50.4276496,1.6022947,N/A,France,N/A,Karting
N/A,47.2882234,5.055245,N/A,France,N/A,Karting
N/A,47.0579089,-0.9784404,N/A,France,N/A,Karting
N/A,44.984887,1.2970379,N/A,France,N/A,Karting
N/A,46.5497984,5.3288158,N/A,France,N/A,Karting
N/A,49.2889753,-0.2533967,N/A,France,N/A,Karting
N/A,49.2892056,-0.2537948,N/A,France,N/A,Karting
Circuit de Karting du Parc,48.765371,-1.284579,N/A,France,N/A,Karting
N/A,46.5690436,4.055543,N/A,France,N/A,Karting
Alcava Karting Gueugnonnais,46.5691581,4.0556375,N/A,France,N/A,Karting
N/A,48.2897856,2.0054518,N/A,France,N/A,Karting
Fun-Kart,43.6897163,6.9604243,N/A,France,https://www.fun-karting.com/,Karting
Karting Mécamax,46.5777061,-1.7744927,N/A,France,N/A,Karting
Karting,43.5403793,3.1814237,N/A,France,N/A,Karting
Karting,48.8265241,4.4770685,N/A,France,N/A,Karting
N/A,48.8263917,4.4771463,N/A,France,N/A,Karting
karting,43.3215115,3.545489,marseillan plage,France,N/A,Karting
Rue du Karting,-20.8945343,55.4982452,N/A,France,N/A,Karting
Rue du Karting,-20.8940644,55.500602,N/A,France,N/A,Karting
Pro Kart Figari,41.4881425,9.1160391,N/A,France,N/A,Karting
Karting de Saint-Malo,48.6366086,-1.8694879,N/A,France,N/A,Karting
Karting de Saint-Malo,48.6358867,-1.8709916,N/A,France,N/A,Karting
N/A,47.775988,7.4100115,N/A,France,N/A,Karting
N/A,45.6334346,-0.9957351,N/A,France,N/A,Karting
Karting,48.0518768,7.5209293,N/A,France,N/A,Karting
Laville Karting Service,46.8156616,4.8202803,N/A,France,N/A,Karting
Piste de karting,46.8132083,4.4122707,N/A,France,N/A,Karting
N/A,46.2963875,4.7935499,N/A,France,N/A,Karting
Centre de Karting,46.3390466,5.1428243,N/A,France,N/A,Karting
Piste de Karting Extérieur,46.4271373,5.7135991,N/A,France,N/A,Karting
Piste de Karting,46.5491713,5.3286013,N/A,France,N/A,Karting
Circuit de l'Enclos - Piste Location,46.9603753,6.1893427,N/A,France,http://www.circuitdelenclos.com/,Karting
Circuit de l'Enclos - Piste de compétition,46.9604482,6.1874107,N/A,France,http://www.circuitdelenclos.com/,Karting
Circuit Karting Besançon,47.3563054,5.8189034,N/A,France,https://ckbesancon.com/,Karting
Piste de Karting,47.1902879,5.0892177,N/A,France,https://www.karting2noiron.fr/,Karting
Piste de Karting,47.2226143,4.5567997,N/A,France,N/A,Karting
Piste de Karting,47.5715031,7.3661246,N/A,France,https://www.sundgaukart.com/,Karting
Piste de Karting,47.7759682,7.4102121,N/A,France,N/A,Karting
N/A,47.7755039,7.4106966,N/A,France,N/A,Karting
N/A,47.7751943,7.4103798,N/A,France,N/A,Karting
Circuit de Karting,43.3492418,6.3392025,N/A,France,N/A,Karting
Grimaud Karting Loisirs,43.2720016,6.5538564,N/A,France,https://www.grimaudkartingloisir.com/,Karting
Prestige Karting,43.3489065,6.3386024,N/A,France,N/A,Karting
N/A,43.0882523,6.1426012,N/A,France,N/A,Karting
N/A,43.0883595,6.1417376,N/A,France,N/A,Karting
Karting Martigues,43.3872588,5.0646522,N/A,France,N/A,Karting
Karting Six-Fours,43.1212924,5.8437797,N/A,France,N/A,Karting
Piste Bayle Brothers,43.8066535,5.8206694,N/A,France,N/A,Karting
Piste Bayle Brothers,43.8069696,5.8197631,N/A,France,N/A,Karting
Espace Loisir,43.8190946,4.6042982,N/A,France,N/A,Karting
Piste Stands Karting,43.817265,4.4269901,N/A,France,N/A,Karting
Piste Karting,43.8177166,4.4264686,N/A,France,N/A,Karting
Sud Karting,43.8174573,4.4266245,N/A,France,N/A,Karting
Milhaud Karting,43.7792874,4.3036918,N/A,France,N/A,Karting
Circuit de Karting KDM,43.3217582,3.5453318,N/A,France,N/A,Karting
Sun Kart - Gruissan,43.1303212,3.1259726,N/A,France,N/A,Karting
N/A,43.5406369,3.1810298,N/A,France,N/A,Karting
Karting Saint-Cyprien,42.606983,3.016056,N/A,France,https://kartingstcyprien.fr/,Karting
Karting de Torreilles,42.7586803,3.0185265,N/A,France,N/A,Karting
Ludi Kart,42.5777041,3.0357481,N/A,France,N/A,Karting
Ludi Kart,42.576914,3.0349448,N/A,France,N/A,Karting
Grand Circuit du Roussillon,42.7797779,2.9078002,N/A,France,N/A,Karting
N/A,42.606805,3.0160931,N/A,France,N/A,Karting
N/A,42.607135,3.0160977,N/A,France,N/A,Karting
Piste de Karting Indoor,43.5694239,1.4972749,N/A,France,https://kartingtoulouse.com/,Karting
Circuit Jean Sainrame,43.4648934,-1.283939,N/A,France,N/A,Karting
Piste de Karting,43.9166187,2.1165518,N/A,France,N/A,Karting
Karting des Pins,43.8003841,-1.2466637,N/A,France,N/A,Karting
Karting du Gaillou,43.6301809,-1.4246386,Capbreton,France,http://www.kartingdugaillou.com,Karting
Piste de Karting,44.4100701,-1.0827594,N/A,France,N/A,Karting
Piste de Karting,44.655108,-0.9279951,N/A,France,N/A,Karting
LF Karting,44.1071041,0.653249,Layrac,France,https://lfkarting.fr/,Karting
Piste de Karting,45.2253323,-0.5685761,N/A,France,N/A,Karting
Karting 47,44.1061129,0.726701,N/A,France,https://k47.fr/,Karting
N/A,44.6545764,-0.9286072,N/A,France,N/A,Karting
N/A,44.6554472,-0.9273733,N/A,France,N/A,Karting
N/A,47.287892,5.0549167,N/A,France,N/A,Karting
N/A,48.1804467,2.7286271,N/A,France,N/A,Karting
N/A,49.1686675,-0.2692391,N/A,France,N/A,Karting
Karting de Caen,49.1691942,-0.269076,N/A,France,http://www.karting-caen.fr,Karting
Chemin Autour du Karting d'Ostricourt,50.4651429,3.0306377,N/A,France,N/A,Karting
Piste de kart abandonnée,46.9058337,3.8309967,N/A,France,N/A,Karting
N/A,43.0890346,6.1420208,N/A,France,N/A,Karting
N/A,49.3795106,3.2931506,N/A,France,N/A,Karting
N/A,48.8778966,6.4344545,N/A,France,N/A,Karting
N/A,45.8961686,6.3430522,N/A,France,N/A,Karting
Karting de Rumilly,45.8456112,5.9687884,Rumilly,France,http://kartingderumilly.fr/index.html,Karting
Karting Meisenthal,48.9756626,7.3291709,Meisenthal,France,https://www.kartingmeisenthal.fr/,Karting
Karting,43.1164729,5.8041207,N/A,France,N/A,Karting
Rue du Karting,-20.8935022,55.5015934,N/A,France,N/A,Karting
Le Grand Prix,50.4276152,1.6026956,N/A,France,N/A,Karting
Parking karting,43.6880619,6.9592282,N/A,France,N/A,Karting
Kerlabo Kart,48.4464252,-2.946455,N/A,France,https://kerlabo-kart.com/,Karting
N/A,48.3193024,6.0797544,N/A,France,N/A,Karting
N/A,48.3193416,6.079175,N/A,France,N/A,Karting
N/A,44.8326237,0.4522153,N/A,France,N/A,Karting
Piste de karting de Cattenom,49.4167092,6.2315852,N/A,France,N/A,Karting
N/A,47.0647819,0.0716485,N/A,France,N/A,Karting
N/A,45.8164349,1.2964442,N/A,France,N/A,Karting
Kpb 14,49.1446914,0.3520275,N/A,France,N/A,Karting
N/A,49.3767581,3.4250144,N/A,France,N/A,Karting
Circut de Bucy,49.3762086,3.4239529,N/A,France,https://www.circuit-de-bucy.com/,Karting
N/A,49.1030463,2.0374456,N/A,France,N/A,Karting
N/A,49.1030422,2.0391531,N/A,France,N/A,Karting
N/A,49.1027309,2.038528,N/A,France,N/A,Karting
N/A,49.1038974,2.0363108,N/A,France,N/A,Karting
N/A,49.1036957,2.0361857,N/A,France,N/A,Karting
N/A,49.1042172,2.0372772,N/A,France,N/A,Karting
N/A,49.3976295,2.2003288,N/A,France,N/A,Karting
N/A,49.3981009,2.2010987,N/A,France,N/A,Karting
quad avenue - src karting,43.7812538,5.7735724,N/A,France,N/A,Karting
Circuit Beltoise-Trappes,48.7594512,1.9918857,N/A,France,N/A,Karting
Circuit Beltoise-Trappes,48.7593392,1.9925946,N/A,France,N/A,Karting
Circuit Beltoise-Trappes,48.7601058,1.993914,N/A,France,N/A,Karting
Circuit Beltoise-Trappes,48.7600205,1.9927913,N/A,France,N/A,Karting
N/A,41.4881519,9.1160229,N/A,France,N/A,Karting
Chemin du Karting,45.7477483,0.4066521,N/A,France,N/A,Karting
N/A,45.9880258,5.3239327,N/A,France,N/A,Karting
Karting Vallée de l'Arc,43.4754717,5.6980677,N/A,France,N/A,Karting
N/A,47.3881938,0.7888722,N/A,France,N/A,Karting
N/A,45.857744,4.5601525,N/A,France,N/A,Karting
N/A,45.8574925,4.5602717,N/A,France,N/A,Karting
N/A,49.1687962,-0.2679531,N/A,France,N/A,Karting
N/A,49.1685621,-0.270382,N/A,France,N/A,Karting
N/A,49.1685618,-0.2698331,N/A,France,N/A,Karting
N/A,49.1687673,-0.2698723,N/A,France,N/A,Karting
N/A,49.1685519,-0.2706898,N/A,France,N/A,Karting
N/A,49.1686959,-0.2680651,N/A,France,N/A,Karting
N/A,49.1688856,-0.2689456,N/A,France,N/A,Karting
N/A,49.1688633,-0.2686416,N/A,France,N/A,Karting
N/A,42.9733325,2.3043049,N/A,France,N/A,Karting
Karting Club Gravelinois,51.0065942,2.1325274,N/A,France,N/A,Karting
Karting du Sundgau,47.5715392,7.3661019,N/A,France,N/A,Karting
KLL Loisirs,50.5135052,2.8429617,N/A,France,https://kll.fr/,Karting
Karting Sud Toulois,48.5312763,5.8664618,N/A,France,N/A,Karting
N/A,48.5313395,5.8661347,N/A,France,N/A,Karting
Kart Race,49.2824744,4.1366587,Witry-lès-Reims,France,https://www.kartrace.org/,Karting
N/A,48.8256044,2.6087296,N/A,France,N/A,Karting
Circuit International de Lavelanet,43.00568,1.8807309,N/A,France,N/A,Karting
Racing Kart du Mans,48.0370658,0.4220017,N/A,France,N/A,Karting
N/A,49.9022861,4.094651,N/A,France,N/A,Karting
Rue du Karting,-20.8944569,55.4995759,N/A,France,N/A,Karting
Rue du Karting,-20.8945082,55.4990808,N/A,France,N/A,Karting
Rue du Karting,-20.8941085,55.4995858,N/A,France,N/A,Karting
Rue du Karting,-20.8942681,55.4991371,N/A,France,N/A,Karting
Rue du Karting,-20.8936935,55.500935,N/A,France,N/A,Karting
N/A,47.9660181,3.4025216,N/A,France,N/A,Karting
N/A,47.9660346,3.4016837,N/A,France,N/A,Karting
N/A,47.967061,3.4020632,N/A,France,N/A,Karting
Rue du Karting,-20.8942604,55.5002118,N/A,France,N/A,Karting
Rue du Karting,-20.8939454,55.5000965,N/A,France,N/A,Karting
Karting du Laquais,45.4662115,5.2983117,N/A,France,N/A,Karting
Rue du Karting,-20.8938412,55.5006532,N/A,France,N/A,Karting
Rue du Karting,-20.8938782,55.5007916,N/A,France,N/A,Karting
Rue du Karting,-20.893763,55.5007306,N/A,France,N/A,Karting
Guyane Karting,4.9678447,-52.4642554,N/A,France,N/A,Karting
N/A,4.9681278,-52.4640469,N/A,France,N/A,Karting
Circuit,43.9076161,3.7006672,N/A,France,N/A,Karting
Circuit,43.9083799,3.7000125,N/A,France,N/A,Karting
N/A,49.0764709,6.1085538,N/A,France,N/A,Karting
N/A,44.5393584,4.3624904,N/A,France,N/A,Karting
Karting cazin,50.5391985,1.9385072,N/A,France,N/A,Karting
Parking Karting Visiteurs,49.341195,5.9769648,N/A,France,N/A,Karting
N/A,16.2497476,-61.2833394,N/A,France,N/A,Karting
N/A,16.2497001,-61.28333,N/A,France,N/A,Karting
Piste du Bois,45.7795885,4.8570282,N/A,France,N/A,Karting
N/A,45.6470228,4.9089514,N/A,France,N/A,Karting
N/A,45.6469359,4.9078178,N/A,France,N/A,Karting
N/A,46.2376896,5.6347457,N/A,France,N/A,Karting
Racing Kart JPR,50.4683816,3.0308447,N/A,France,N/A,Karting
Pôle mécanique de Mirecourt,48.3187643,6.0796415,N/A,France,http://www.freekart88.fr,Karting
N/A,48.6107772,2.5836043,N/A,France,N/A,Karting
N/A,48.6107611,2.5821372,N/A,France,N/A,Karting
Circuit C.I.K,47.9424397,0.2124282,N/A,France,N/A,Karting
N/A,47.9422832,0.2125235,N/A,France,N/A,Karting
Piste de karting,46.8627106,3.1557852,N/A,France,N/A,Karting
N/A,46.3835873,4.9144271,N/A,France,N/A,Karting
Circuit Espace Plus,48.621251,2.2220584,N/A,France,N/A,Karting
N/A,43.4688132,-1.4674439,N/A,France,N/A,Karting
Saint-Paul Kart Team,45.0574715,5.1039349,N/A,France,N/A,Karting
N/A,49.4166048,6.2313242,N/A,France,N/A,Karting
N/A,49.4169136,6.2311083,N/A,France,N/A,Karting
N/A,49.4167733,6.2315449,N/A,France,N/A,Karting
N/A,49.4167867,6.2318062,N/A,France,N/A,Karting
N/A,49.4167943,6.2316304,N/A,France,N/A,Karting
N/A,49.0768777,6.1080127,N/A,France,N/A,Karting
Circuit de karting Loc'karting,43.5784755,3.9425178,N/A,France,N/A,Karting
Rue du Karting,-20.8943573,55.4989609,N/A,France,N/A,Karting
Rue du Karting,-20.8944124,55.4989505,N/A,France,N/A,Karting
Rue du Karting,-20.8943749,55.4990164,N/A,France,N/A,Karting
N/A,49.4650673,3.6809165,N/A,France,N/A,Karting
Karting Haute Picardie,49.7526323,2.6547465,N/A,France,https://www.kartingarvillers.fr/,Karting
Circuit de Karting,44.8443589,-0.7208191,N/A,France,N/A,Karting
N/A,16.2497554,-61.2836244,N/A,France,N/A,Karting
Le Grand Prix,50.4278763,1.6026389,N/A,France,N/A,Karting
Le Grand Prix,50.4278309,1.6024458,N/A,France,N/A,Karting
N/A,49.0253634,2.0515255,N/A,France,N/A,Karting
Piste de Kart Cross du Creaux de Barret,44.6000094,4.8567657,N/A,France,http://lalaupie.com/Sport/index.html,Karting
N/A,45.5432949,4.229456,N/A,France,N/A,Karting
Circuit Léopard,45.5362856,4.3021956,N/A,France,N/A,Karting
Circuit automobile Maurice Tissandier,46.5939363,2.0063644,N/A,France,N/A,Karting
N/A,45.4798641,4.344563,N/A,France,N/A,Karting
N/A,49.3671277,0.0776699,N/A,France,N/A,Karting
N/A,49.3670641,0.0775828,N/A,France,N/A,Karting
N/A,49.3671553,0.0777208,N/A,France,N/A,Karting
N/A,49.3671421,0.0776769,N/A,France,N/A,Karting
N/A,48.9188658,2.8541341,N/A,France,N/A,Karting
N/A,48.5521947,4.7708169,N/A,France,N/A,Karting
N/A,47.969315,-2.9909582,N/A,France,N/A,Karting
N/A,44.9476012,6.5554013,N/A,France,N/A,Karting
N/A,46.6763821,1.7102777,N/A,France,N/A,Karting
Karting Arthonnais,46.6760722,1.7102489,N/A,France,N/A,Karting
Karting Arthonnais,46.6764508,1.7100776,N/A,France,N/A,Karting
N/A,44.3459904,1.4824924,N/A,France,N/A,Karting
N/A,43.0825672,6.1418606,N/A,France,N/A,Karting
Circuit Sarron,45.9082011,3.1274805,N/A,France,N/A,Karting
N/A,47.0578686,-0.9790017,N/A,France,N/A,Karting
Formule Kart,47.1984111,0.6529881,N/A,France,http://www.formulekart.com/,Karting
N/A,47.2878835,5.0549926,N/A,France,N/A,Karting
Ancien projet de karting abandonné,16.2552048,-61.5506529,N/A,France,N/A,Karting
N/A,46.2923964,-0.5071528,N/A,France,N/A,Karting
N/A,46.4218163,-1.3921363,N/A,France,N/A,Karting
Kart de Foulain,48.0379353,5.2234264,N/A,France,N/A,Karting
N/A,49.0156878,-0.0797027,N/A,France,N/A,Karting
N/A,46.8127549,4.413032,N/A,France,N/A,Karting
N/A,46.8129185,4.4129972,N/A,France,N/A,Karting
N/A,44.3882153,6.5943745,N/A,France,https://www.passionkart.fr/listings/karting-saint-pons-circuit-barcelonnette/,Karting
Karting des Poudrières,46.9182729,6.3331375,N/A,France,N/A,Karting
Karting de Monteux,44.0536982,4.9462134,N/A,France,N/A,Karting
Le Grand Prix,50.4275546,1.6027012,N/A,France,N/A,Karting
Le Grand Prix,50.4277565,1.6026039,N/A,France,N/A,Karting
Le Grand Prix,50.4276308,1.6027895,N/A,France,N/A,Karting
Karting Tours,47.3880277,0.7889781,N/A,France,karting-center-tours.fr,Karting
Circuit Julie Tonelli,43.8195921,4.6038114,N/A,France,N/A,Karting
Karting Manosque,43.8073715,5.8199642,Manosque,France,https://www.kartingmanosque.fr/,Karting
N/A,45.4555926,1.452984,N/A,France,N/A,Karting
Circuit de l'Enclos,46.9605041,6.1880172,N/A,France,http://www.circuitdelenclos.com/,Karting
N/A,45.9882473,5.323323,N/A,France,N/A,Karting
N/A,45.9894794,5.3231087,N/A,France,N/A,Karting
N/A,45.989003,5.3243002,N/A,France,N/A,Karting
N/A,45.9898897,5.3242269,N/A,France,N/A,Karting
N/A,45.9893263,5.3231225,N/A,France,N/A,Karting
N/A,45.9898084,5.323956,N/A,France,N/A,Karting
N/A,45.9882572,5.3239671,N/A,France,N/A,Karting
N/A,45.9890065,5.3237533,N/A,France,N/A,Karting
N/A,45.9886267,5.3241799,N/A,France,N/A,Karting
N/A,45.9885283,5.3234363,N/A,France,N/A,Karting
N/A,45.9885317,5.3243433,N/A,France,N/A,Karting
KartCenter,47.9693813,-2.9910758,N/A,France,https://www.kartcenter56.fr/,Karting
N/A,43.362416,5.2380863,N/A,France,N/A,Karting
Actua kart,45.6834578,5.0746905,N/A,France,https://www.actua-organisation.fr/,Karting
Circuit Pro'Kart,48.7607532,1.3706688,N/A,France,N/A,Karting
N/A,46.4468624,-0.7792788,N/A,France,N/A,Karting
Martini Racing Kart 85,46.8508019,-1.8486603,N/A,France,N/A,Karting
N/A,46.8506713,-1.8485615,N/A,France,N/A,Karting
N/A,46.8510881,-1.8495071,N/A,France,N/A,Karting
Circuit de Karting de la Roche de Glun,44.9859105,4.8553577,N/A,France,http://www.kartingvalence.com/,Karting
Karthors,44.3459154,1.4823703,N/A,France,https://www.karthors.fr,Karting
Karting sur Glace Orcières,44.6792268,6.316524,N/A,France,N/A,Karting
N/A,43.4463163,-0.5292072,N/A,France,N/A,Karting
N/A,43.4458468,-0.5301527,N/A,France,N/A,Karting
N/A,43.4461654,-0.5298107,N/A,France,N/A,Karting
N/A,43.4463029,-0.529634,N/A,France,N/A,Karting
N/A,43.4460682,-0.5293633,N/A,France,N/A,Karting
N/A,43.4468411,-0.5287097,N/A,France,N/A,Karting
N/A,43.4463431,-0.5292025,N/A,France,N/A,Karting
Abbeville Somme Karting,50.1356745,1.8397527,N/A,France,https://abbeville-somme-karting.fr/,Karting
Piste de Karting Extérieur,46.4270624,5.7136811,N/A,France,N/A,Karting
N/A,45.6311831,-1.0102516,N/A,France,N/A,Karting
N/A,49.1024333,2.0402693,N/A,France,N/A,Karting
N/A,48.7556009,5.170161,N/A,France,N/A,Karting
N/A,48.7554696,5.1703542,N/A,France,N/A,Karting
Karting 79,46.3441956,-0.3676664,N/A,France,N/A,Karting
Karting,48.0362584,-0.7431724,Laval,France,N/A,Karting
Karting des 3 Lacs,44.4602921,6.1533777,N/A,France,N/A,Karting
Circuit de karting,-17.5324755,-149.4319921,N/A,France,https://tahitinuikarting.business.site/,Karting
Kartings à Pédales,46.9973662,-0.3463674,N/A,France,N/A,Karting
Karting,48.5314672,5.8680452,N/A,France,N/A,Karting
N/A,50.5063791,2.5012479,N/A,France,N/A,Karting
N/A,50.506189,2.5013385,N/A,France,N/A,Karting
N/A,50.5062006,2.5011554,N/A,France,N/A,Karting
N/A,50.5062685,2.5011264,N/A,France,N/A,Karting
N/A,50.5063356,2.5010996,N/A,France,N/A,Karting
N/A,44.5401442,4.3626702,N/A,France,N/A,Karting
N/A,47.9385967,0.2127574,N/A,France,N/A,Karting
N/A,47.9382469,0.2118256,N/A,France,N/A,Karting
Pit lane,47.9380733,0.2108661,N/A,France,N/A,Karting
Circuit Alain Prost Amateur,47.9381897,0.2117627,N/A,France,N/A,Karting
N/A,48.0707921,-1.1731531,N/A,France,N/A,Karting
N/A,48.0706052,-1.1727803,N/A,France,N/A,Karting
N/A,48.0707278,-1.1727264,N/A,France,N/A,Karting
Parc Sports & Loisirs Gorges de l'Hérault - Cévennes,43.9080664,3.7003736,N/A,France,https://www.parc-loisir-cevennes.fr,Karting
Piste de Karting de Lessay,49.2042918,-1.5110311,N/A,France,N/A,Karting
N/A,48.6112044,2.5800637,N/A,France,N/A,Karting
N/A,48.3194067,6.07853,N/A,France,N/A,Karting
N/A,48.3192334,6.0783134,N/A,France,N/A,Karting
Cosne Karting,47.3580574,2.9191223,N/A,France,N/A,Karting
Xtreme fun 08,49.6623613,5.0451913,N/A,France,N/A,Karting
N/A,43.4220283,6.7297992,N/A,France,N/A,Karting
MP Karting,44.5395302,4.3625103,N/A,France,https://www.karting-ardeche.com/,Karting
Brenne Découverte,46.8091801,1.283374,N/A,France,https://www.brenne-decouverte.com/karting/,Karting
N/A,46.8092277,1.2834001,N/A,France,N/A,Karting
Quad'Loc,46.7677329,-2.0333652,N/A,France,http://quadloc85.fr/,Karting
N/A,43.6914222,7.2426747,N/A,France,N/A,Karting
N/A,48.6924983,3.104577,N/A,France,N/A,Karting
N/A,48.692728,3.10426,N/A,France,N/A,Karting
N/A,50.9922931,2.3981926,N/A,France,N/A,Karting
N/A,43.0892771,6.1422079,N/A,France,N/A,Karting
N/A,43.0895717,6.1427996,N/A,France,N/A,Karting
N/A,48.0372349,-0.7406346,N/A,France,N/A,Karting
N/A,48.6443182,-0.5135262,N/A,France,N/A,Karting
N/A,45.9495633,-0.5038278,N/A,France,N/A,Karting
Impasse du Karting,45.2812526,4.8212987,N/A,France,N/A,Karting
N/A,47.5247555,-1.8395504,N/A,France,N/A,Karting
N/A,47.5254597,-1.8412054,N/A,France,N/A,Karting
N/A,47.525228,-1.8414648,N/A,France,N/A,Karting
N/A,47.5259699,-1.8404495,N/A,France,N/A,Karting
N/A,47.5256235,-1.8399992,N/A,France,N/A,Karting
N/A,50.4936707,1.652385,N/A,France,N/A,Karting
N/A,50.4928342,1.6521577,N/A,France,N/A,Karting
N/A,48.0667953,-1.7128627,N/A,France,N/A,Karting
N/A,44.5565943,6.0911783,N/A,France,N/A,Karting
N/A,43.9669688,4.2717707,N/A,France,N/A,Karting
N/A,43.9669698,4.2718655,N/A,France,N/A,Karting
N/A,43.966965,4.2718143,N/A,France,N/A,Karting
N/A,43.9669605,4.2717431,N/A,France,N/A,Karting
N/A,43.9669911,4.271674,N/A,France,N/A,Karting
N/A,43.9669648,4.2716553,N/A,France,N/A,Karting
N/A,43.9669398,4.2717582,N/A,France,N/A,Karting
N/A,43.9669605,4.271781,N/A,France,N/A,Karting
Les Karts à Pédales,43.966972,4.2717821,N/A,France,N/A,Karting
Karting Six-Fours,43.1215581,5.843305,N/A,France,N/A,Karting
Kart Expo,48.0662976,-1.7134414,N/A,France,N/A,Karting
N/A,48.0661399,-1.7133487,N/A,France,N/A,Karting
N/A,48.4735738,-4.5257888,N/A,France,N/A,Karting
Mistral Karting,44.5526214,4.7107454,N/A,France,N/A,Karting
N/A,44.9860071,4.8793261,N/A,France,N/A,Karting
N/A,47.1685298,-2.144733,N/A,France,N/A,Karting
N/A,47.1685773,-2.1449988,N/A,France,N/A,Karting
N/A,47.1677729,-2.1449438,N/A,France,N/A,Karting
N/A,47.3668845,4.9012442,N/A,France,N/A,Karting
N/A,45.6975959,-0.6154608,N/A,France,N/A,Karting
N/A,45.697835,-0.6166809,N/A,France,N/A,Karting
N/A,45.6976809,-0.6152661,N/A,France,N/A,Karting
N/A,45.6973898,-0.6152047,N/A,France,N/A,Karting
N/A,45.6977268,-0.6160964,N/A,France,N/A,Karting
Descente du karting,48.600212,-0.653313,N/A,France,N/A,Karting
N/A,43.300211,3.4117786,N/A,France,N/A,Karting
N/A,43.3001412,3.4116183,N/A,France,N/A,Karting
N/A,45.6645185,-0.6054417,N/A,France,N/A,Karting
Rue du Karting,-20.8946599,55.497549,N/A,France,N/A,Karting
Rue du Karting,-20.8947198,55.497563,N/A,France,N/A,Karting
N/A,47.4918504,3.9732273,N/A,France,N/A,Karting
N/A,43.6892112,6.959796,N/A,France,N/A,Karting
N/A,49.1028003,2.0396471,N/A,France,N/A,Karting
Circuit Vendée Kart Center,46.4386987,-0.788855,N/A,France,N/A,Karting
N/A,47.3584296,2.9189103,N/A,France,N/A,Karting
Sun Karting,43.2533749,3.2743844,Sérignan,France,http://www.sunkarting.fr,Karting
N/A,47.2879032,5.0549052,N/A,France,N/A,Karting
N/A,47.2882249,5.0552579,N/A,France,N/A,Karting
Karts Enfants,48.8872991,2.3156634,N/A,France,N/A,Karting
Buggy Quad Enfants,45.5572456,-0.9482367,N/A,France,N/A,Karting
N/A,50.4688668,3.0316976,N/A,France,https://www.karting-lille-jpr.fr,Karting
N/A,50.4686726,3.0308804,N/A,France,N/A,Karting
N/A,50.4694578,3.0305417,N/A,France,N/A,Karting
N/A,50.4697687,3.0309769,N/A,France,N/A,Karting
N/A,50.4692078,3.0297577,N/A,France,N/A,Karting
N/A,47.5579422,-2.6917319,N/A,France,N/A,Karting
Kart à Pédales,44.394436,2.6935853,N/A,France,N/A,Karting
Kart à Pédales,44.3946858,2.6936814,N/A,France,N/A,Karting
Karting Club Gravelinois,51.00647,2.1327619,N/A,France,N/A,Karting
N/A,44.4689056,0.7937501,N/A,France,N/A,Karting
N/A,46.8511735,-1.8487773,N/A,France,N/A,Karting
Kart One,46.7871369,-2.0701457,N/A,France,N/A,Karting
BattleKart,47.4415019,0.6974984,N/A,France,https://www.battlekart.com/fr/tours/,Karting
N/A,43.9669947,4.2717325,N/A,France,N/A,Karting
N/A,48.0545458,-1.7304163,N/A,France,N/A,Karting
Karting de Beauvais,49.3980086,2.201011,Rochy-Condé,France,https://kartingdebeauvais.fr/,Karting
N/A,49.3972505,2.2005656,N/A,France,N/A,Karting
N/A,16.2498192,-61.2838148,N/A,France,N/A,Karting
Acro'Kart Racing,14.534391,-61.0126832,N/A,France,N/A,Karting
N/A,43.3002856,3.4123484,N/A,France,N/A,Karting
N/A,48.9156483,7.7520406,N/A,France,N/A,Karting
N/A,48.9155849,7.7522005,N/A,France,N/A,Karting
N/A,48.9159578,7.7527114,N/A,France,N/A,Karting
N/A,48.915996,7.7525742,N/A,France,N/A,Karting
N/A,48.9137963,7.7510988,N/A,France,N/A,Karting
N/A,48.9138485,7.7513464,N/A,France,N/A,Karting
N/A,48.9675862,7.727411,N/A,France,N/A,Karting
Rallye Kart,43.4611913,6.6521463,Roquebrune-sur-Argens,France,N/A,Karting
N/A,50.4729258,2.6831008,N/A,France,N/A,Karting
Speed Park,48.5809179,2.3023314,N/A,France,https://www.kartingbowling.com/bretigny-sur-orge/page-contact-et-plan-d-acces-11.html,Karting
N/A,43.469222,-1.4660971,N/A,France,N/A,Karting
N/A,43.4688069,-1.4675692,N/A,France,N/A,Karting
Karting l'Anneau du Rhin,47.951044,7.414148,N/A,France,N/A,Karting
N/A,16.2553374,-61.5507151,N/A,France,N/A,Karting
N/A,43.8820647,3.8958128,N/A,France,N/A,Karting
N/A,43.8821015,3.8953703,N/A,France,N/A,Karting
N/A,43.8822696,3.8946307,N/A,France,N/A,Karting
N/A,43.8824713,3.8939032,N/A,France,N/A,Karting
N/A,43.8823579,3.8941485,N/A,France,N/A,Karting
N/A,43.8824437,3.8961615,N/A,France,N/A,Karting
N/A,43.8823294,3.8961911,N/A,France,N/A,Karting
N/A,43.8824578,3.8960213,N/A,France,N/A,Karting
N/A,43.8824464,3.8958774,N/A,France,N/A,Karting
N/A,43.8823296,3.895407,N/A,France,N/A,Karting
N/A,43.881424,3.8949167,N/A,France,N/A,Karting
N/A,43.8816466,3.8929303,N/A,France,N/A,Karting
N/A,43.8819243,3.8943811,N/A,France,N/A,Karting
N/A,43.8819192,3.8941988,N/A,France,N/A,Karting
N/A,43.8820583,3.8938577,N/A,France,N/A,Karting
N/A,43.8821112,3.8926538,N/A,France,N/A,Karting
N/A,43.8817285,3.8922969,N/A,France,N/A,Karting
N/A,43.8822871,3.8920932,N/A,France,N/A,Karting
N/A,43.8824166,3.891574,N/A,France,N/A,Karting
Rue du Karting,-20.8945783,55.4991845,N/A,France,N/A,Karting
Karting's Passion,48.1015012,-1.2871366,N/A,France,N/A,Karting
N/A,48.1013231,-1.2871491,N/A,France,N/A,Karting
N/A,48.1016734,-1.2876691,N/A,France,N/A,Karting
N/A,49.0225851,6.101909,N/A,France,N/A,Karting
N/A,49.0225351,6.1014435,N/A,France,N/A,Karting
N/A,47.7953631,7.1630987,N/A,France,https://www.pgkart.com/fr/projets/complexe-de-loisirs-wakalase/,Karting
N/A,45.9498907,-0.5038972,N/A,France,N/A,Karting
Piste de Karting,46.5036338,-1.6784299,N/A,France,N/A,Karting
N/A,46.0706421,4.7394542,N/A,France,N/A,Karting
N/A,43.3002676,3.4129011,N/A,France,N/A,Karting
N/A,45.843259,5.0632764,N/A,France,N/A,Karting
N/A,45.8434999,5.0617494,N/A,France,N/A,Karting
N/A,45.8429801,5.0620983,N/A,France,N/A,Karting
N/A,45.2410797,-0.1008822,N/A,France,N/A,Karting
N/A,45.2407649,-0.0993902,N/A,France,N/A,Karting
N/A,45.2412569,-0.0997021,N/A,France,N/A,Karting
N/A,45.2403154,-0.1027764,N/A,France,N/A,Karting
N/A,45.240571,-0.1024145,N/A,France,N/A,Karting
N/A,45.2420429,-0.1000032,N/A,France,N/A,Karting
N/A,45.8736899,1.1829137,N/A,France,N/A,Karting
N/A,45.8735658,1.182455,N/A,France,N/A,Karting
N/A,47.6688044,1.2162202,N/A,France,N/A,Karting
N/A,47.6691868,1.2148376,N/A,France,N/A,Karting
Complexe sportif de karting de la Hague,49.6632952,-1.813785,N/A,France,https://karting50.fr/,Karting
N/A,43.2484789,5.7976731,N/A,France,N/A,Karting
N/A,43.2484487,5.7977426,N/A,France,N/A,Karting
N/A,49.4169086,6.2321654,N/A,France,N/A,Karting
N/A,43.5937703,2.1878457,N/A,France,N/A,Karting
Stand,43.0888782,6.1430909,N/A,France,N/A,Karting
N/A,43.089086,6.1428,N/A,France,N/A,Karting
Stand,43.0891317,6.14244,N/A,France,N/A,Karting
Stand,43.0888804,6.1432851,N/A,France,N/A,Karting
N/A,43.0891139,6.1428717,N/A,France,N/A,Karting
N/A,43.0891232,6.1429047,N/A,France,N/A,Karting
N/A,43.0890868,6.1422063,N/A,France,N/A,Karting
N/A,43.089208,6.1420224,N/A,France,N/A,Karting
Stand,43.0890287,6.1427299,N/A,France,N/A,Karting
Stand,43.0890567,6.142768,N/A,France,N/A,Karting
Stand,43.0890833,6.1428056,N/A,France,N/A,Karting
N/A,47.567898,0.5319061,N/A,France,N/A,Karting
N/A,46.6895947,4.3780593,N/A,France,N/A,Karting
N/A,49.9022802,4.0946713,N/A,France,N/A,Karting
N/A,47.8672211,-1.8968634,N/A,France,N/A,Karting
N/A,48.0662128,-1.7133545,N/A,France,N/A,Karting
Stand,45.845482,5.9676625,N/A,France,N/A,Karting
Stand,45.8462408,5.9686404,N/A,France,N/A,Karting
Karting de Rumilly,45.8466736,5.9685936,Rumilly,France,http://kartingderumilly.fr/index.html,Karting
Tahiti Karting,-17.5324027,-149.4319382,N/A,France,N/A,Karting
Tahiti Karting,-17.5325774,-149.4315989,N/A,France,N/A,Karting
N/A,49.115138,3.8483843,N/A,France,N/A,Karting
N/A,49.1144902,3.8496828,N/A,France,N/A,Karting
N/A,49.1145632,3.8497668,N/A,France,N/A,Karting
N/A,49.114733,3.8477131,N/A,France,N/A,Karting
N/A,49.1152496,3.8471364,N/A,France,N/A,Karting
N/A,49.1149141,3.8471947,N/A,France,N/A,Karting
N/A,49.1147818,3.8474606,N/A,France,N/A,Karting
N/A,49.1146614,3.8477517,N/A,France,N/A,Karting
N/A,49.1146298,3.8484897,N/A,France,N/A,Karting
N/A,49.1142777,3.8488187,N/A,France,N/A,Karting
N/A,49.1140663,3.8487264,N/A,France,N/A,Karting
N/A,49.1154183,3.8476592,N/A,France,N/A,Karting
N/A,49.1151465,3.8491967,N/A,France,N/A,Karting
West Aventure,46.6989164,-1.8451723,N/A,France,N/A,Karting
N/A,48.4737175,-4.5259102,N/A,France,N/A,Karting
Made In Kart,47.9668291,3.4020862,N/A,France,N/A,Karting
N/A,45.3071401,4.0375078,N/A,France,N/A,Karting
N/A,46.3443167,-0.3676636,N/A,France,N/A,Karting
N/A,46.3440475,-0.3679516,N/A,France,N/A,Karting
Karting du Grand Arc,45.6256612,6.3308227,N/A,France,https://kartingdugrandarc.fr/,Karting
N/A,46.2925353,-0.5069805,N/A,France,N/A,Karting
N/A,46.2927024,-0.506777,N/A,France,N/A,Karting
N/A,46.0999456,-0.9446351,N/A,France,N/A,Karting
N/A,46.1005692,-0.9448827,N/A,France,N/A,Karting
N/A,49.1687271,-0.2674318,N/A,France,N/A,Karting
N/A,49.168818,-0.2683847,N/A,France,N/A,Karting
N/A,43.9519099,4.8713789,N/A,France,N/A,Karting
Speed Park,48.4268375,-4.4705213,N/A,France,N/A,Karting
N/A,46.3829039,0.0541696,N/A,France,N/A,Karting
N/A,46.5488103,5.3286712,N/A,France,N/A,Karting
N/A,46.5493015,5.3288328,N/A,France,N/A,Karting
N/A,46.5494049,5.3292163,N/A,France,N/A,Karting
N/A,46.5503928,5.3250979,N/A,France,N/A,Karting
Circuit Beltoise-Trappes,48.760521,1.9937865,N/A,France,N/A,Karting
N/A,43.2723685,6.5531167,N/A,France,N/A,Karting
N/A,43.2719982,6.5537307,N/A,France,N/A,Karting
N/A,43.2717913,6.5545254,N/A,France,N/A,Karting
N/A,43.2717548,6.554552,N/A,France,N/A,Karting
N/A,43.2719569,6.5542741,N/A,France,N/A,Karting
N/A,43.2719475,6.5542673,N/A,France,N/A,Karting
N/A,43.2717601,6.5538588,N/A,France,N/A,Karting
N/A,43.2718772,6.5539703,N/A,France,N/A,Karting
N/A,44.9858964,4.8590421,N/A,France,N/A,Karting
N/A,44.5385595,4.3623788,N/A,France,N/A,Karting
N/A,44.5396792,4.3623535,N/A,France,N/A,Karting
N/A,44.5399631,4.36231,N/A,France,N/A,Karting
Karting,44.5862853,4.4478482,N/A,France,N/A,Karting
Karting,44.5853486,4.4474854,N/A,France,N/A,Karting
Karting,44.5844774,4.4480404,N/A,France,N/A,Karting
Karting,44.5848388,4.4481726,N/A,France,N/A,Karting
Karting,44.5843927,4.4482784,N/A,France,N/A,Karting
Karting,44.5858192,4.4485253,N/A,France,N/A,Karting
Karting,44.5856148,4.4485439,N/A,France,N/A,Karting
N/A,48.7601661,1.3705821,N/A,France,N/A,Karting
N/A,48.761027,1.3708839,N/A,France,N/A,Karting
N/A,48.7611692,1.3710167,N/A,France,N/A,Karting
Accès Karting,-22.1725738,166.4373286,N/A,France,N/A,Karting
N/A,45.6259334,6.3305584,N/A,France,N/A,Karting
N/A,45.6260705,6.3306725,N/A,France,N/A,Karting
N/A,45.843358,5.0633009,N/A,France,N/A,Karting
N/A,45.8434048,5.0636895,N/A,France,N/A,Karting
N/A,45.8434646,5.0637553,N/A,France,N/A,Karting
N/A,45.8435001,5.0636459,N/A,France,N/A,Karting
N/A,45.8430968,5.0630445,N/A,France,N/A,Karting
N/A,45.8433189,5.0634603,N/A,France,N/A,Karting
N/A,45.843118,5.0634133,N/A,France,N/A,Karting
N/A,48.1647712,6.9175472,N/A,France,N/A,Karting
N/A,48.1650855,6.9180524,N/A,France,N/A,Karting
N/A,44.6793936,6.3164638,N/A,France,N/A,Karting
N/A,44.6795994,6.316956,N/A,France,N/A,Karting
N/A,44.6796471,6.3168363,N/A,France,N/A,Karting
N/A,44.6796739,6.3170518,N/A,France,N/A,Karting
N/A,44.6789835,6.3161825,N/A,France,N/A,Karting
Circuit voiturette,44.6793475,6.3174416,N/A,France,N/A,Karting
N/A,4.967525,-52.4650157,N/A,France,N/A,Karting
Karting des Auzieres,44.2602416,4.9999398,N/A,France,N/A,Karting
N/A,44.2600618,5.0001249,N/A,France,N/A,Karting
N/A,48.7614432,1.3711546,N/A,France,N/A,Karting
N/A,48.7607954,1.3707995,N/A,France,N/A,Karting
N/A,48.7611482,1.3706094,N/A,France,N/A,Karting
Stands,48.7601765,1.3702549,N/A,France,N/A,Karting
N/A,43.9976311,4.9438784,N/A,France,N/A,Karting
Karting Est,47.9401844,0.216991,Le Mans,France,N/A,Karting
Karting Sud,47.9374409,0.2135764,Le Mans,France,N/A,Karting
N/A,47.2576449,-1.5426273,N/A,France,N/A,Karting
N/A,45.4883557,-0.5595234,N/A,France,N/A,Karting
Circuit de karting Kart Extrem,45.4888545,-0.5598623,Saint-Genis-de-Saintonge,France,N/A,Karting
N/A,46.7979502,4.793671,N/A,France,N/A,Karting
City Kart,47.2640906,-1.7016714,N/A,France,N/A,Karting
N/A,43.2355918,3.2601639,N/A,France,N/A,Karting
N/A,46.2058183,5.2882825,N/A,France,N/A,Karting
N/A,46.6989387,-1.8453275,N/A,France,N/A,Karting
N/A,44.4603149,6.1545261,N/A,France,N/A,Karting
Piste Bayle Brothers,43.8066454,5.8203784,N/A,France,N/A,Karting
Piste Bayle Brothers,43.8070952,5.8200831,N/A,France,N/A,Karting
N/A,43.8920815,5.3767395,N/A,France,N/A,Karting
DKS-Motors,50.326133,3.4292988,N/A,France,https://www.dks-motors.com/,Karting
Pit Lane,45.2652691,5.8948155,N/A,France,N/A,Karting
N/A,44.9871721,0.8892102,N/A,France,N/A,Karting
N/A,42.9295084,0.6495864,N/A,France,N/A,Karting
N/A,47.0767116,-1.0214895,N/A,France,N/A,Karting
Piste de Karting d'Anneville-Ambourville,49.4483208,0.903866,N/A,France,N/A,Karting
Piste de Karting d'Anneville-Ambourville,49.4479215,0.9036285,N/A,France,N/A,Karting
Piste de Karting d'Anneville-Ambourville,49.4475058,0.9036487,N/A,France,N/A,Karting
Piste de Karting d'Anneville-Ambourville,49.4474931,0.9042291,N/A,France,N/A,Karting
Piste de Karting d'Anneville-Ambourville,49.4477359,0.9048742,N/A,France,N/A,Karting
Piste de Karting d'Anneville-Ambourville,49.4478424,0.9045684,N/A,France,N/A,Karting
Piste de Karting d'Anneville-Ambourville,49.448149,0.9047638,N/A,France,N/A,Karting
Piste de Karting d'Anneville-Ambourville,49.4479806,0.9041862,N/A,France,N/A,Karting
Piste de Karting d'Anneville-Ambourville,49.4479657,0.9054701,N/A,France,N/A,Karting
Piste de Karting d'Anneville-Ambourville,49.4481968,0.9061835,N/A,France,N/A,Karting
Piste de Karting d'Anneville-Ambourville,49.4482722,0.9068453,N/A,France,N/A,Karting
Piste de Karting d'Anneville-Ambourville,49.4480291,0.9064115,N/A,France,N/A,Karting
Piste de Karting d'Anneville-Ambourville,49.4477672,0.9058804,N/A,France,N/A,Karting
Piste de Karting d'Anneville-Ambourville,49.4476594,0.9065524,N/A,France,N/A,Karting
Piste de Karting d'Anneville-Ambourville,49.4477272,0.9071897,N/A,France,N/A,Karting
Piste de Karting d'Anneville-Ambourville,49.4480891,0.9073064,N/A,France,N/A,Karting
Piste de Karting d'Anneville-Ambourville,49.4484348,0.9071655,N/A,France,N/A,Karting
Circuit Julie Tonelli,43.8192676,4.6042257,N/A,France,N/A,Karting
Baby Kart,43.8188607,4.6060491,N/A,France,N/A,Karting
N/A,43.2971824,3.4021843,N/A,France,N/A,Karting
N/A,43.2971424,3.4020969,N/A,France,N/A,Karting
N/A,43.6895693,6.9601052,N/A,France,N/A,Karting
N/A,43.6901584,6.9615979,N/A,France,N/A,Karting
N/A,43.6899287,6.961464,N/A,France,N/A,Karting
N/A,43.6893695,6.9605426,N/A,France,N/A,Karting
N/A,43.6891378,6.9604101,N/A,France,N/A,Karting
N/A,43.689048,6.9606291,N/A,France,N/A,Karting
Kids Safari,48.6195569,6.9847728,N/A,France,N/A,Karting
Kart pour enfants,46.0272461,6.3247768,N/A,France,N/A,Karting
KartParc,45.8962168,6.3429446,Thônes,France,N/A,Karting
Grands Kartings,47.4060531,0.7462019,N/A,France,N/A,Karting
N/A,43.6789856,6.0589446,N/A,France,N/A,Karting
N/A,48.3195606,6.0794057,N/A,France,N/A,Karting
N/A,46.4469791,-0.7789883,N/A,France,N/A,Karting
Karting du Bugey,45.9881398,5.3228384,Château-Gaillard,France,https://www.kartingdubugey.com/,Karting
N/A,45.9886171,5.3248747,N/A,France,N/A,Karting
N/A,47.1231391,-1.4984179,N/A,France,N/A,Karting
Jovikart Karting Nantes 44,47.1232008,-1.4974633,Le Bignon,France,https://www.jovikart.com/,Karting
N/A,47.6107956,5.233491,N/A,France,N/A,Karting
Action Karts,53.9125151,-1.3164226,Wetherby,United Kingdom,actionkarts.co.uk,Karting
Formula Karting,54.1628445,-6.3321708,N/A,United Kingdom,N/A,Karting
Amen Corner Karting,53.1802696,-1.0431227,Newark,United Kingdom,N/A,Karting
TeamSport Karting,50.8369275,-1.1751158,Gosport,United Kingdom,https://www.team-sport.co.uk/go-kart-tracks/gosport,Karting
Matchams Karting,50.8080704,-1.8220505,N/A,United Kingdom,http://www.matchamskarting.co.uk/,Karting
Glan y Gors Park Karting,53.0355871,-3.5829628,Cerrigydrudion,United Kingdom,N/A,Karting
Wombwell Karting,53.5260103,-1.3968069,Barnsley,United Kingdom,https://wombwellkarting64.wixsite.com/,Karting
Swindon Karting Arena,51.5088298,-1.7927263,N/A,United Kingdom,N/A,Karting
Karting Worcester,52.1572825,-2.1616173,N/A,United Kingdom,N/A,Karting
Forest Edge Kart Club,51.1803735,-1.362815,N/A,United Kingdom,https://fekc.co.uk/,Karting
TeamSport Karting,53.4886392,-2.2428793,Manchester,United Kingdom,https://www.team-sport.co.uk/go-kart-tracks/manchester-victoria,Karting
Go-Karts,53.1776397,0.3493448,N/A,United Kingdom,N/A,Karting
KartSport Indoor Karting,55.0626101,-6.5270799,N/A,United Kingdom,https://www.kartsportleisure.com/,Karting
Codonas Karting,57.1515088,-2.079247,N/A,United Kingdom,N/A,Karting
Supakart,51.5742239,-2.9485356,Newport,United Kingdom,https://www.supakart.co.uk,Karting
TeamSport Go Karting Dundee,56.4773182,-3.0512917,Dundee,United Kingdom,https://www.team-sport.co.uk/go-kart-tracks/dundee,Karting
Rissington Kart Club,51.8658915,-1.6847898,N/A,United Kingdom,http://www.rissingtonkartclub.co.uk/,Karting
Team Karting,53.5961217,-2.1709536,Rochdale,United Kingdom,https://teamkarting.co.uk/,Karting
Race Kart Centre,53.4541737,-0.6887477,N/A,United Kingdom,N/A,Karting
Aviemore Kart Raceway,57.2100296,-3.8198423,Aviemore,United Kingdom,https://aviemorekartraceway.co.uk/,Karting
N/A,55.9996499,-2.5642792,N/A,United Kingdom,N/A,Karting
Chaos Karts,53.4776614,-2.2539711,N/A,United Kingdom,https://www.chaoskarts.com/,Karting
N/A,51.5422439,-0.0071841,N/A,United Kingdom,N/A,Karting
Absolutely Karting,51.5187425,-0.7137628,N/A,United Kingdom,N/A,Karting
Premier Karting,51.4526688,-0.8954706,Reading,United Kingdom,N/A,Karting
Daytona Sandown Park,51.3757455,-0.3623534,Esher,United Kingdom,https://www.daytona.co.uk/venues/sandown-park/,Karting
TeamSport Go Karting,52.4992414,-2.0146329,Oldbury,United Kingdom,https://www.team-sport.co.uk/go-kart-tracks/birmingham,Karting
Rye House Kart Raceway,51.767474,0.0118016,N/A,United Kingdom,N/A,Karting
TeamSport Mitcham,51.4128839,-0.15416,Mitcham,United Kingdom,https://www.team-sport.co.uk/go-kart-tracks/mitcham-south-london,Karting
TeamSport Liverpool,53.3813409,-2.975204,Liverpool,United Kingdom,https://www.team-sport.co.uk/go-kart-tracks/liverpool,Karting
Xtreme Karting Edinburgh,55.9369907,-3.4064304,N/A,United Kingdom,https://xtremekarting.co.uk/,Karting
Go Kart Track,51.3621441,0.2620784,N/A,United Kingdom,N/A,Karting
TeamSport Karting Crawley,51.1354246,-0.1641843,Crawley,United Kingdom,https://www.team-sport.co.uk/go-kart-tracks/crawley,Karting
Teamsport Karting,51.4938135,-3.149635,Cardiff,United Kingdom,https://www.team-sport.co.uk/cardiff/,Karting
TeamSport Karting,53.3831774,-2.6040843,Warrington,United Kingdom,https://www.team-sport.co.uk/go-kart-tracks/warrington,Karting
Grand Prix Go Karts,50.5971435,-3.4423029,N/A,United Kingdom,N/A,Karting
N/A,54.6681579,-1.7650504,N/A,United Kingdom,N/A,Karting
N/A,51.5177772,-0.0307103,N/A,United Kingdom,N/A,Karting
TeamSport Coventry,52.3947048,-1.5885367,Coventry,United Kingdom,https://www.team-sport.co.uk/go-kart-tracks/coventry,Karting
Trax Karting,53.7562716,-2.7694579,N/A,United Kingdom,N/A,Karting
N/A,51.3760429,-0.3609792,N/A,United Kingdom,N/A,Karting
N/A,51.3756898,-0.3618088,N/A,United Kingdom,N/A,Karting
Ace Karting Plus Ltd,52.5968447,-1.9890457,Walsall,United Kingdom,http://www.acekartingplusinfo.co.uk/,Karting
TeamSport Indoor Karting,51.4390275,-0.9747567,Reading,United Kingdom,https://www.team-sport.co.uk/go-karting-reading/,Karting
Teamwork Karting,52.4780034,-1.8809285,Birmingham,United Kingdom,N/A,Karting
Rye House Kart Circuit,51.7674449,0.0116158,N/A,United Kingdom,N/A,Karting
TeamSport Eastleigh,50.9690121,-1.3476136,Eastleigh,United Kingdom,https://www.team-sport.co.uk/go-kart-tracks/southampton,Karting
TeamSport Edmonton,51.6183344,-0.044152,London,United Kingdom,https://www.team-sport.co.uk/go-kart-tracks/edmonton-north-london,Karting
TeamSport Go Karting Glasgow,55.822373,-4.1526145,Glasgow,United Kingdom,https://www.team-sport.co.uk/go-kart-tracks/glasgow-cambuslang,Karting
Knockhill Karting,56.1314534,-3.5045304,N/A,United Kingdom,N/A,Karting
Rye House Kart Circuit,51.767482,0.0114974,N/A,United Kingdom,N/A,Karting
Rye House Kart Circuit,51.7673942,0.0116516,N/A,United Kingdom,N/A,Karting
Full Throttle Raceway,52.4586814,-2.1442504,N/A,United Kingdom,https://www.fullthrottleraceway.co.uk/,Karting
Buckmore Park,51.3430139,0.5016131,N/A,United Kingdom,N/A,Karting
N/A,50.934801,0.9071825,N/A,United Kingdom,N/A,Karting
N/A,50.9350261,0.907354,N/A,United Kingdom,N/A,Karting
N/A,50.9353911,0.9070349,N/A,United Kingdom,N/A,Karting
N/A,50.9346758,0.9074271,N/A,United Kingdom,N/A,Karting
N/A,50.9342591,0.9076663,N/A,United Kingdom,N/A,Karting
N/A,52.0818294,-1.4753014,N/A,United Kingdom,N/A,Karting
Clay Pigeon Raceway,50.8239618,-2.554516,N/A,United Kingdom,https://www.claypigeonraceway.com/,Karting
Larkhall Outdoor Kart Circuit,55.7522524,-3.9780649,N/A,United Kingdom,N/A,Karting
TeamSport Bristol,51.5033708,-2.6883578,Bristol,United Kingdom,https://www.team-sport.co.uk/go-kart-tracks/bristol,Karting
Kartworld,50.4270235,-4.4200041,N/A,United Kingdom,N/A,Karting
N/A,53.1212422,-0.2156225,N/A,United Kingdom,N/A,Karting
N/A,53.1210733,-0.2151803,N/A,United Kingdom,N/A,Karting
N/A,53.1209546,-0.2157473,N/A,United Kingdom,N/A,Karting
N/A,53.1213235,-0.2145427,N/A,United Kingdom,N/A,Karting
N/A,53.1215119,-0.2146665,N/A,United Kingdom,N/A,Karting
N/A,53.1218016,-0.2149144,N/A,United Kingdom,N/A,Karting
N/A,53.1211822,-0.2157731,N/A,United Kingdom,N/A,Karting
N/A,53.1209207,-0.214584,N/A,United Kingdom,N/A,Karting
N/A,53.1216343,-0.2149213,N/A,United Kingdom,N/A,Karting
N/A,52.1852658,-2.1101821,N/A,United Kingdom,N/A,Karting
TeamSport Karting Sheffield,53.3950281,-1.4055867,Sheffield,United Kingdom,N/A,Karting
N/A,53.3999869,-1.4849378,N/A,United Kingdom,N/A,Karting
Parkwood Karting,53.4001033,-1.4848441,Sheffield,United Kingdom,https://www.parkwoodkarting.com,Karting
Rayleigh Go Karting,51.577433,0.6047861,N/A,United Kingdom,https://www.essexkarting.co.uk/,Karting
Kids Racing Track,56.5525487,-2.5974423,N/A,United Kingdom,N/A,Karting
Ellough Park Raceway,52.4340124,1.6012472,Beccles,United Kingdom,http://www.elloughpark.co.uk/,Karting
Pit Lane,52.4347351,1.6013964,N/A,United Kingdom,N/A,Karting
Ellough Park Raceway,52.4342934,1.6008038,N/A,United Kingdom,N/A,Karting
Anglia Karting Centre,52.6304404,0.7383039,N/A,United Kingdom,N/A,Karting
N/A,52.6304588,0.737708,N/A,United Kingdom,N/A,Karting
N/A,51.4926811,0.2863459,N/A,United Kingdom,https://www.lakeside-karting.com/,Karting
N/A,52.6224376,-1.640396,N/A,United Kingdom,N/A,Karting
Lakeside Karting,51.492774,0.2863153,N/A,United Kingdom,http://www.lakeside-karting.co.uk/,Karting
Karting Track,55.3255901,-1.5801116,N/A,United Kingdom,N/A,Karting
TeamSport Karting Manchester Trafford,53.465944,-2.3011412,Manchester,United Kingdom,https://www.team-sport.co.uk/go-kart-tracks/manchester-trafford-park,Karting
N/A,52.6309243,0.7378426,N/A,United Kingdom,N/A,Karting
N/A,52.6306815,0.7385637,N/A,United Kingdom,N/A,Karting
TeamSport Leicester,52.6632525,-1.0852129,Leicester,United Kingdom,https://www.team-sport.co.uk/go-kart-tracks/leicester,Karting
Mill Circuit,52.2763393,-1.0900661,N/A,United Kingdom,N/A,Karting
Pit Lane,52.2758937,-1.0899004,N/A,United Kingdom,N/A,Karting
Go Cart Track,54.2303115,-0.3226169,N/A,United Kingdom,N/A,Karting
N/A,53.1219864,-0.2140209,N/A,United Kingdom,N/A,Karting
N/A,53.3099414,-2.9422513,N/A,United Kingdom,N/A,Karting
N/A,51.3279257,-0.8501119,N/A,United Kingdom,N/A,Karting
TeamSport Leeds,53.7868349,-1.5311041,Leeds,United Kingdom,https://www.team-sport.co.uk/go-kart-tracks/leeds,Karting
TeamSport Hull,53.7320057,-0.3788415,Hull,United Kingdom,https://www.team-sport.co.uk/go-kart-tracks/hull,Karting
Cardigan Bay Karting,52.2180008,-4.2921959,Llwyncelyn,United Kingdom,N/A,Karting
N/A,52.2175123,-4.2925279,N/A,United Kingdom,N/A,Karting
N/A,52.2175557,-4.2920828,N/A,United Kingdom,N/A,Karting
N/A,52.217793,-4.292561,N/A,United Kingdom,N/A,Karting
Brentwood Karting,51.5970502,0.2969044,N/A,United Kingdom,N/A,Karting
N/A,52.0396623,-0.7832542,N/A,United Kingdom,N/A,Karting
N/A,52.5079851,1.7478585,N/A,United Kingdom,N/A,Karting
N/A,50.9863227,0.8129509,N/A,United Kingdom,N/A,Karting
N/A,50.9863135,0.8128122,N/A,United Kingdom,N/A,Karting
N/A,50.9862101,0.8125438,N/A,United Kingdom,N/A,Karting
N/A,50.9862482,0.8126126,N/A,United Kingdom,N/A,Karting
N/A,50.9862819,0.8128038,N/A,United Kingdom,N/A,Karting
N/A,50.9863667,0.81303,N/A,United Kingdom,N/A,Karting
Mansell Raceway,50.8671638,-3.2383796,Honiton,United Kingdom,https://mansellraceway.com/,Karting
N/A,50.8665826,-3.2386877,N/A,United Kingdom,N/A,Karting
N/A,50.8664348,-3.2386539,N/A,United Kingdom,N/A,Karting
N/A,52.6059533,-1.0386446,N/A,United Kingdom,N/A,Karting
N/A,50.5561043,-3.6638899,N/A,United Kingdom,N/A,Karting
N/A,50.5557891,-3.6634973,N/A,United Kingdom,N/A,Karting
N/A,50.5559429,-3.6636235,N/A,United Kingdom,N/A,Karting
N/A,50.5559547,-3.6640225,N/A,United Kingdom,N/A,Karting
Cambuslang Karting,55.8220997,-4.179191,N/A,United Kingdom,http://www.cambuslangkarting.com/,Karting
Thruxton karting track,51.203542,-1.6103339,N/A,United Kingdom,N/A,Karting
Thruxton karting track,51.2037671,-1.6099325,N/A,United Kingdom,N/A,Karting
N/A,51.7263732,-1.2001537,N/A,United Kingdom,N/A,Karting
N/A,51.7266754,-1.1999068,N/A,United Kingdom,N/A,Karting
N/A,53.1211692,-0.2145839,N/A,United Kingdom,N/A,Karting
N/A,53.1210749,-0.2149095,N/A,United Kingdom,N/A,Karting
N/A,53.1219248,-0.2144585,N/A,United Kingdom,N/A,Karting
Jurassic Gardens,52.5964893,1.7363266,N/A,United Kingdom,N/A,Karting
Grand Pirx,52.5974873,1.7365,N/A,United Kingdom,N/A,Karting
M4 Karting,51.5369087,-2.1325212,Chippenham,United Kingdom,N/A,Karting
Formula-K,50.7855877,-0.6611817,N/A,United Kingdom,N/A,Karting
N/A,50.7856316,-0.6615098,N/A,United Kingdom,N/A,Karting
N/A,51.1803448,-1.3620083,N/A,United Kingdom,N/A,Karting
N/A,51.1804969,-1.3618594,N/A,United Kingdom,N/A,Karting
N/A,51.1806614,-1.361532,N/A,United Kingdom,N/A,Karting
Wacky Races,54.207426,-0.8079296,N/A,United Kingdom,N/A,Karting
N/A,53.1038301,-0.7672121,N/A,United Kingdom,N/A,Karting
ELK Motorsport,53.103846,-0.7672028,N/A,United Kingdom,https://www.elkmotorsport.co.uk/,Karting
N/A,53.3569853,0.2486382,N/A,United Kingdom,N/A,Karting
TeamSport Newcastle,54.9659865,-1.6774571,Newcastle upon Tyne,United Kingdom,https://www.team-sport.co.uk/go-kart-tracks/newcastle,Karting
Midland Karting,52.7115307,-1.7944243,N/A,United Kingdom,https://midlandkarting.co.uk/,Karting
Buckmore Park,51.3438248,0.5024078,N/A,United Kingdom,N/A,Karting
Buckmore Park Kart Circuit,51.3438042,0.5016948,N/A,United Kingdom,N/A,Karting
N/A,51.3434731,0.5025019,N/A,United Kingdom,N/A,Karting
N/A,51.3431447,0.5012825,N/A,United Kingdom,N/A,Karting
N/A,51.343468,0.5029176,N/A,United Kingdom,N/A,Karting
N/A,51.3434082,0.5021794,N/A,United Kingdom,N/A,Karting
N/A,51.3433744,0.5016321,N/A,United Kingdom,N/A,Karting
Amen Corner Karting,53.1804422,-1.0429094,N/A,United Kingdom,N/A,Karting
N/A,53.1809184,-1.0439519,N/A,United Kingdom,N/A,Karting
N/A,55.9996482,-2.5641879,N/A,United Kingdom,N/A,Karting
N/A,55.9996195,-2.5644443,N/A,United Kingdom,N/A,Karting
TeamSport Harlow,51.7940921,0.1294793,Harlow,United Kingdom,https://www.team-sport.co.uk/go-kart-tracks/harlow,Karting
Go Kart Track,53.7948281,-3.0574356,N/A,United Kingdom,N/A,Karting
N/A,50.8058235,-1.8271325,N/A,United Kingdom,N/A,Karting
N/A,50.8057943,-1.8264868,N/A,United Kingdom,N/A,Karting
N/A,50.8061228,-1.8268322,N/A,United Kingdom,N/A,Karting
N/A,52.5919202,-1.539344,N/A,United Kingdom,N/A,Karting
Raceview Karting,54.8727475,-6.230106,N/A,United Kingdom,N/A,Karting
N/A,53.309833,-2.9428439,N/A,United Kingdom,N/A,Karting
N/A,50.8237225,-2.5551658,N/A,United Kingdom,N/A,Karting
Pit Lane,50.8240979,-2.5543068,N/A,United Kingdom,N/A,Karting
N/A,56.2755915,-2.6021939,N/A,United Kingdom,N/A,Karting
N/A,56.2753055,-2.6026846,N/A,United Kingdom,N/A,Karting
N/A,56.2749005,-2.6016628,N/A,United Kingdom,N/A,Karting
N/A,56.2749809,-2.6018351,N/A,United Kingdom,N/A,Karting
N/A,52.937856,-1.5051852,N/A,United Kingdom,N/A,Karting
N/A,52.9379136,-1.505095,N/A,United Kingdom,N/A,Karting
N/A,52.9378817,-1.5050865,N/A,United Kingdom,N/A,Karting
Karting track,51.3893209,-0.1461961,N/A,United Kingdom,N/A,Karting
Langar Karting and Quad Centre,52.8844266,-0.8965611,Nottingham,United Kingdom,N/A,Karting
Langar Karting & Quad Centre,52.8847236,-0.8973759,N/A,United Kingdom,N/A,Karting
N/A,52.8852963,-0.897039,N/A,United Kingdom,N/A,Karting
N/A,52.8849584,-0.8975533,N/A,United Kingdom,N/A,Karting
N/A,52.8851569,-0.8977267,N/A,United Kingdom,N/A,Karting
N/A,52.8848871,-0.8971579,N/A,United Kingdom,N/A,Karting
WildTracks Karting,52.2925791,0.471523,N/A,United Kingdom,N/A,Karting
N/A,50.597104,-3.4422974,N/A,United Kingdom,N/A,Karting
GoPro Karting,54.9634666,-6.5565539,N/A,United Kingdom,N/A,Karting
Pits,54.9634711,-6.5575171,N/A,United Kingdom,N/A,Karting
Superdrive - Karting Track,54.4710223,-6.4982915,N/A,United Kingdom,N/A,Karting
N/A,54.2831331,-6.484777,N/A,United Kingdom,N/A,Karting
TeamSport Preston,53.7257678,-2.6487766,Preston,United Kingdom,https://www.team-sport.co.uk/go-kart-tracks/preston,Karting
Fulbeck Kart Circuit,53.045049,-0.6567873,N/A,United Kingdom,https://www.fulbeckkartclub.co.uk/,Karting
Sector 2,53.038643,-0.6614217,N/A,United Kingdom,N/A,Karting
Turn 4,53.0456449,-0.6563887,N/A,United Kingdom,N/A,Karting
PF International,53.0381949,-0.6605008,Grantham,United Kingdom,https://www.kartpfi.com/,Karting
N/A,53.0456027,-0.6563887,N/A,United Kingdom,N/A,Karting
N/A,53.0456896,-0.6576261,N/A,United Kingdom,N/A,Karting
TeamWorks Karting,53.9854544,-1.0520702,N/A,United Kingdom,https://www.teamworkskarting.com/locations/york/,Karting
TeamSport Bournemouth,50.7528413,-1.9283109,Bournemouth,United Kingdom,https://www.team-sport.co.uk/go-kart-tracks/bournemouth,Karting
N/A,52.2770997,-1.0886981,N/A,United Kingdom,N/A,Karting
TeamSport Go Karting Stoke,53.0429569,-2.1931161,Stoke-on-Trent,United Kingdom,https://www.team-sport.co.uk/go-kart-tracks/stoke,Karting
N/A,51.3387044,-2.8799376,N/A,United Kingdom,N/A,Karting
N/A,50.805131,0.2279432,N/A,United Kingdom,N/A,Karting
N/A,50.8053771,0.2279877,N/A,United Kingdom,N/A,Karting
N/A,50.8051259,0.2280219,N/A,United Kingdom,N/A,Karting
N/A,50.8056567,0.2281317,N/A,United Kingdom,N/A,Karting
Campbell Circuit,50.805292,0.2278214,N/A,United Kingdom,N/A,Karting
N/A,50.8052378,0.228066,N/A,United Kingdom,N/A,Karting
Lakeland Karting,54.5422362,-7.7451955,N/A,United Kingdom,https://lakelandkarting.co.uk/,Karting
Horse Racing Gallops,54.7217881,-1.7170199,N/A,United Kingdom,N/A,Karting
Teamwork Karting Car Park,52.4760215,-1.8794593,N/A,United Kingdom,N/A,Karting
Go Karting Club,53.2574866,-4.5416625,N/A,United Kingdom,N/A,Karting
N/A,50.934158,0.9076481,N/A,United Kingdom,N/A,Karting
N/A,53.2339116,-1.9161259,N/A,United Kingdom,N/A,Karting
N/A,53.2342262,-1.9160162,N/A,United Kingdom,N/A,Karting
N/A,53.2339657,-1.9159834,N/A,United Kingdom,N/A,Karting
Go-Kart Track,50.6758561,-1.090425,N/A,United Kingdom,N/A,Karting
Go-Kart Track,50.6758552,-1.0899462,N/A,United Kingdom,N/A,Karting
Go Kart Track,52.6206544,-2.2451149,N/A,United Kingdom,N/A,Karting
Go Kart Track,52.6205697,-2.2449097,N/A,United Kingdom,N/A,Karting
Hull Karting,53.7534311,-0.2690704,N/A,United Kingdom,N/A,Karting
BUMPs,53.7986664,-0.3225396,N/A,United Kingdom,N/A,Karting
N/A,53.7986851,-0.3225762,N/A,United Kingdom,N/A,Karting
Pit Lane,53.7986304,-0.3225623,N/A,United Kingdom,N/A,Karting
N/A,52.8884041,-1.3868395,N/A,United Kingdom,N/A,Karting
N/A,53.349889,-3.3515013,N/A,United Kingdom,N/A,Karting
West Coast Indoor Go-Karting,54.7071063,-3.5035437,Maryport,United Kingdom,https://www.westcoastkarting.co.uk/,Karting
TeamSport Stockton,54.5710734,-1.2923525,Stockton-on-Tees,United Kingdom,https://www.team-sport.co.uk/go-kart-tracks/stockton,Karting
Chequered Flag Karting,53.4995117,-0.0711909,Grimsby,United Kingdom,N/A,Karting
N/A,52.8210974,-1.0370039,N/A,United Kingdom,N/A,Karting
N/A,51.1092195,-0.5307884,N/A,United Kingdom,N/A,Karting
Daytona Tamworth,52.6226762,-1.6411102,N/A,United Kingdom,https://www.daytona.co.uk/venues/tamworth/,Karting
N/A,52.6231648,-1.6416697,N/A,United Kingdom,N/A,Karting
N/A,52.6227271,-1.6410481,N/A,United Kingdom,N/A,Karting
N/A,52.6225625,-1.6416236,N/A,United Kingdom,N/A,Karting
N/A,53.1774348,0.3496522,N/A,United Kingdom,N/A,Karting
Anglia Indoor Karting,52.0679324,1.1110694,Ipswich,United Kingdom,https://www.angliakarting.com/,Karting
N/A,51.0432505,-4.2353057,N/A,United Kingdom,N/A,Karting
N/A,51.3755051,-0.2684191,N/A,United Kingdom,N/A,Karting
N/A,51.3754671,-0.2684469,N/A,United Kingdom,N/A,Karting
N/A,51.3752765,-0.2689767,N/A,United Kingdom,N/A,Karting
N/A,51.3753264,-0.2689495,N/A,United Kingdom,N/A,Karting
Surbiton Raceway,51.3751108,-0.268164,N/A,United Kingdom,https://www.surbiton-raceway.co.uk/,Karting
TeamSport Nottingham,52.9584563,-1.0676629,Nottingham,United Kingdom,https://www.team-sport.co.uk/go-kart-tracks/nottingham,Karting
N/A,50.8666025,-3.2383701,N/A,United Kingdom,N/A,Karting
N/A,50.8659178,-3.2393408,N/A,United Kingdom,N/A,Karting
N/A,50.8669715,-3.2386286,N/A,United Kingdom,N/A,Karting
N/A,50.4843525,-5.0119471,N/A,United Kingdom,N/A,Karting
TeamWorks Karting Letchworth,51.9814906,-0.2165603,N/A,United Kingdom,https://www.teamworkskarting.com/locations/letchworth/,Karting
TKM Straight,52.3149231,-0.3681388,N/A,United Kingdom,N/A,Karting
Derek's Corner,52.3153627,-0.3682421,N/A,United Kingdom,N/A,Karting
N/A,52.3160071,-0.3691426,N/A,United Kingdom,N/A,Karting
N/A,53.5251317,-1.3960152,N/A,United Kingdom,N/A,Karting
N/A,52.3598607,-0.1581376,N/A,United Kingdom,N/A,Karting
N/A,52.2952873,0.4790259,N/A,United Kingdom,N/A,Karting
N/A,51.2070792,-3.45929,N/A,United Kingdom,N/A,Karting
St Eval Kart Circuit,50.4839432,-5.0117069,N/A,United Kingdom,https://www.stevalkartcircuit.com/,Karting
N/A,50.483993,-5.0119404,N/A,United Kingdom,N/A,Karting
N/A,51.7143468,-2.9929136,N/A,United Kingdom,N/A,Karting
G-Force Karting,51.7143218,-2.9927932,Pontypool,United Kingdom,http://www.g-forcekarting.co.uk/,Karting
N/A,50.9229216,-0.1949067,N/A,United Kingdom,N/A,Karting
N/A,50.9230692,-0.1951286,N/A,United Kingdom,N/A,Karting
N/A,50.9229465,-0.1948709,N/A,United Kingdom,N/A,Karting
Rally Karting Centre,52.3601274,-0.1579952,Huntingdon,United Kingdom,http://www.rallykartingcentre.co.uk/,Karting
N/A,52.3602038,-0.1576431,N/A,United Kingdom,N/A,Karting
Supa Karts,50.5558947,-3.6666171,N/A,United Kingdom,N/A,Karting
F1 Cars,50.5552418,-3.6667067,N/A,United Kingdom,N/A,Karting
Quad Bikes,50.5555087,-3.6657086,N/A,United Kingdom,N/A,Karting
Revolution Karting,51.5178939,-0.0307004,London,United Kingdom,https://revolutionkarting.com/,Karting
N/A,53.1354605,0.2727744,N/A,United Kingdom,N/A,Karting
Nottingham Raceway,52.8210529,-1.0369833,N/A,United Kingdom,http://www.nottinghamraceway.com/,Karting
Formulakart,53.8384054,-3.056077,N/A,United Kingdom,https://www.formulakart.co.uk/,Karting
Bayford Meadows MKA Circuit,51.3480099,0.7453369,N/A,United Kingdom,N/A,Karting
F1K - Indoor Karting,54.9488619,-1.6357336,Gateshead,United Kingdom,https://www.f1k.co.uk/,Karting
N/A,52.3820946,-0.708669,N/A,United Kingdom,N/A,Karting
Wight Karting,50.7111427,-1.1398825,Ryde,United Kingdom,https://www.wightkarting.co.uk/,Karting
Bedford Autodrome Kart Circuit,52.2350524,-0.4726566,N/A,United Kingdom,N/A,Karting
N/A,53.9206137,-2.8057815,N/A,United Kingdom,N/A,Karting
N/A,53.9206325,-2.8062765,N/A,United Kingdom,N/A,Karting
N/A,53.9208571,-2.8062412,N/A,United Kingdom,N/A,Karting
N/A,53.9208505,-2.805848,N/A,United Kingdom,N/A,Karting
N/A,52.6157235,0.9092567,N/A,United Kingdom,N/A,Karting
The Track (Cycle Racing Facility),50.2541908,-5.241065,N/A,United Kingdom,N/A,Karting
Pit Lane,53.0394885,-0.6599621,N/A,United Kingdom,N/A,Karting
Pit Lane,53.3103271,-2.9419875,N/A,United Kingdom,N/A,Karting
N/A,56.0209469,-2.6251719,N/A,United Kingdom,N/A,Karting
N/A,52.6061538,-1.0376466,N/A,United Kingdom,N/A,Karting
Pit Lane,52.6058836,-1.0379188,N/A,United Kingdom,N/A,Karting
TeamSport Farnborough,51.286837,-0.7678874,Farnborough,United Kingdom,https://www.team-sport.co.uk/go-kart-tracks/farnborough,Karting
N/A,50.934041,0.9074343,N/A,United Kingdom,N/A,Karting
N/A,50.9340452,0.9071339,N/A,United Kingdom,N/A,Karting
N/A,52.7117631,-1.7943349,N/A,United Kingdom,N/A,Karting
N/A,52.7113432,-1.7950704,N/A,United Kingdom,N/A,Karting
N/A,50.9227377,-0.1949055,N/A,United Kingdom,N/A,Karting
Sector 1,53.0370731,-0.6623529,N/A,United Kingdom,N/A,Karting
N/A,50.7030116,-3.4158413,N/A,United Kingdom,N/A,Karting
N/A,53.0102563,-0.9545018,N/A,United Kingdom,N/A,Karting
TeamSport Dunstable,51.8942829,-0.5141727,Dunstable,United Kingdom,https://www.team-sport.co.uk/go-kart-tracks/dunstable,Karting
N/A,57.2100978,-3.8202928,N/A,United Kingdom,N/A,Karting
N/A,57.2099457,-3.8203504,N/A,United Kingdom,N/A,Karting
Team Works Karting,52.2341355,-0.9172438,Northampton,United Kingdom,https://www.teamworkskarting.com/track_location/northampton/,Karting
N/A,50.3584786,-3.6689909,N/A,United Kingdom,N/A,Karting
Sandham Karts,50.6579127,-1.1470239,N/A,United Kingdom,https://sandhamgardens.com/attractions/sandham-karts/,Karting
Avago Karting,53.4892705,-1.3046392,N/A,United Kingdom,N/A,Karting
Daytona Motorsport,52.0401972,-0.7840189,Milton Keynes,United Kingdom,https://www.daytona.co.uk/,Karting
N/A,50.7111592,-1.1398799,N/A,United Kingdom,N/A,Karting
Cornwall BMX Racing Club,50.2756899,-5.1885623,Blackwater,United Kingdom,https://www.cornwallbmx.co.uk/,Karting
Thruxton karting track,51.2039697,-1.6088102,N/A,United Kingdom,N/A,Karting
Thruxton karting track (youth),51.2035175,-1.6089544,N/A,United Kingdom,N/A,Karting
Llandow Kart Circuit,51.4342174,-3.4974068,N/A,United Kingdom,N/A,Karting
Llandow Kart Circuit,51.434276,-3.4973426,N/A,United Kingdom,N/A,Karting
Llandow Kart Circuit,51.4338095,-3.4988211,N/A,United Kingdom,N/A,Karting
N/A,53.3023497,0.1713454,N/A,United Kingdom,N/A,Karting
Abbotsbury Swannery Go Karting,50.6562439,-2.6021365,N/A,United Kingdom,N/A,Karting
N/A,50.7339568,-0.80666,N/A,United Kingdom,N/A,Karting
N/A,50.7340289,-0.8064668,N/A,United Kingdom,N/A,Karting
N/A,57.2102317,-3.8205049,N/A,United Kingdom,N/A,Karting
N/A,53.7948327,-3.057593,N/A,United Kingdom,N/A,Karting
N/A,53.7948926,-3.0575796,N/A,United Kingdom,N/A,Karting
N/A,50.8547963,0.5891414,N/A,United Kingdom,N/A,Karting
N/A,50.8547946,0.5890428,N/A,United Kingdom,N/A,Karting
N/A,50.8547769,0.5893192,N/A,United Kingdom,N/A,Karting
N/A,50.4262399,-3.56133,N/A,United Kingdom,N/A,Karting
N/A,57.660436,-2.6413633,N/A,United Kingdom,N/A,Karting
East of Scotland Kart Club,56.2754108,-2.6030396,N/A,United Kingdom,https://www.eskc.net/,Karting
N/A,52.2736615,-2.9494969,N/A,United Kingdom,N/A,Karting
N/A,52.217569,-4.2916449,N/A,United Kingdom,N/A,Karting
N/A,52.2179404,-4.2924636,N/A,United Kingdom,N/A,Karting
N/A,52.2174388,-4.2923618,N/A,United Kingdom,N/A,Karting
N/A,50.7108683,-1.1395734,N/A,United Kingdom,N/A,Karting
N/A,51.3828593,0.4783027,N/A,United Kingdom,N/A,Karting
N/A,51.3815442,0.4773344,N/A,United Kingdom,N/A,Karting
N/A,52.3931259,0.6404699,N/A,United Kingdom,N/A,Karting
Absolutely Karting,51.4692283,-2.5423149,Bristol,United Kingdom,https://absolutely-karting.co.uk/venues/bristol/,Karting
N/A,51.4741427,-0.1293205,N/A,United Kingdom,N/A,Karting
N/A,52.7825225,-0.856208,N/A,United Kingdom,N/A,Karting
N/A,53.606423,-3.0598466,N/A,United Kingdom,N/A,Karting
N/A,53.9795479,-1.9105228,N/A,United Kingdom,N/A,Karting
N/A,53.756248,-2.769291,N/A,United Kingdom,N/A,Karting
N/A,53.6502235,-3.0181709,N/A,United Kingdom,N/A,Karting
N/A,54.8485403,-1.4231611,N/A,United Kingdom,N/A,Karting
Karting North East,54.8483677,-1.4245539,N/A,United Kingdom,https://kartingnortheast.com/,Karting
TeamSport Watford,51.6566048,-0.3847819,Bushey,United Kingdom,https://www.team-sport.co.uk/go-kart-tracks/watford,Karting
N/A,52.630776,0.7383622,N/A,United Kingdom,N/A,Karting
N/A,52.630512,0.7385278,N/A,United Kingdom,N/A,Karting
N/A,52.6306351,0.7390085,N/A,United Kingdom,N/A,Karting
Teesside Autodrome,54.5774158,-1.1895118,Middlesbrough,United Kingdom,https://teessideautodrome.co.uk/,Karting
N/A,54.2230738,-0.363045,N/A,United Kingdom,N/A,Karting
N/A,52.1706274,-2.8905945,N/A,United Kingdom,N/A,Karting
N/A,52.1702103,-2.8902441,N/A,United Kingdom,N/A,Karting
N/A,51.7256398,-0.4796195,N/A,United Kingdom,N/A,Karting
Pedal Karts,51.7256596,-0.4795248,N/A,United Kingdom,N/A,Karting
N/A,54.5403142,-5.5059876,N/A,United Kingdom,N/A,Karting
N/A,54.5402737,-5.5061367,N/A,United Kingdom,N/A,Karting
N/A,54.5400238,-5.5062616,N/A,United Kingdom,N/A,Karting
N/A,54.5400441,-5.5065324,N/A,United Kingdom,N/A,Karting
N/A,54.540539,-5.506295,N/A,United Kingdom,N/A,Karting
N/A,54.5410821,-5.5044993,N/A,United Kingdom,N/A,Karting
N/A,54.540213,-5.5044265,N/A,United Kingdom,N/A,Karting
N/A,53.1774484,0.3493865,N/A,United Kingdom,N/A,Karting
N/A,53.1775815,0.3493841,N/A,United Kingdom,N/A,Karting
N/A,53.1777,0.3494352,N/A,United Kingdom,N/A,Karting
N/A,51.3897061,-0.1460053,N/A,United Kingdom,N/A,Karting
N/A,50.7802864,-1.8601399,N/A,United Kingdom,N/A,Karting
N/A,50.7800489,-1.8591389,N/A,United Kingdom,N/A,Karting
N/A,50.7800315,-1.859597,N/A,United Kingdom,N/A,Karting
N/A,50.9479302,-1.5573938,N/A,United Kingdom,N/A,Karting
N/A,50.934997,0.8040479,N/A,United Kingdom,N/A,Karting
N/A,53.6714157,-2.6501805,N/A,United Kingdom,N/A,Karting
N/A,56.2617342,-3.0972034,N/A,United Kingdom,N/A,Karting
N/A,50.4844533,-5.0112743,N/A,United Kingdom,N/A,Karting
N/A,51.5357202,0.2683876,N/A,United Kingdom,N/A,Karting
N/A,50.9662932,-4.1757099,N/A,United Kingdom,N/A,Karting
Craigavon 5th scale model car stadium,54.4426559,-6.4098678,N/A,United Kingdom,N/A,Karting
N/A,52.8394274,-2.9406198,N/A,United Kingdom,N/A,Karting
Flamingo 1,54.2110584,-0.8083628,N/A,United Kingdom,N/A,Karting
Tractor Ride,54.2060169,-0.8073617,N/A,United Kingdom,N/A,Karting
Tractor Ride,54.2061472,-0.8077437,N/A,United Kingdom,N/A,Karting
Thruxton Kart Centre,51.2030663,-1.609519,Andover,United Kingdom,N/A,Karting
N/A,54.0213675,-0.9996891,N/A,United Kingdom,N/A,Karting
N/A,54.0213707,-0.9996692,N/A,United Kingdom,N/A,Karting
N/A,57.6303255,-3.2109968,N/A,United Kingdom,N/A,Karting
N/A,54.1842785,-0.2909465,N/A,United Kingdom,N/A,Karting
Start/Finish Straight,57.9541612,-3.995274,N/A,United Kingdom,N/A,Karting
Turn 1,57.9550696,-3.9948936,N/A,United Kingdom,N/A,Karting
Turn 2,57.9535592,-3.9945195,N/A,United Kingdom,N/A,Karting
Turn 3,57.9548346,-3.9939783,N/A,United Kingdom,N/A,Karting
Turn 4,57.9547058,-3.9935183,N/A,United Kingdom,N/A,Karting
Turn 5,57.9543913,-3.9934208,N/A,United Kingdom,N/A,Karting
Turn 6,57.9533422,-3.9936652,N/A,United Kingdom,N/A,Karting
Turn 7,57.9531985,-3.9950057,N/A,United Kingdom,N/A,Karting
Short Course,57.9541668,-3.9943728,N/A,United Kingdom,N/A,Karting
Outer Circuit,57.9550244,-3.9942714,N/A,United Kingdom,N/A,Karting
Back Straight,57.9538783,-3.9933922,N/A,United Kingdom,N/A,Karting
Golf Straight,57.9542924,-3.9948097,N/A,United Kingdom,N/A,Karting
Caravan Straight,57.9542239,-3.994308,N/A,United Kingdom,N/A,Karting
N/A,57.9541137,-3.9942405,N/A,United Kingdom,N/A,Karting
Club Straight,57.9531635,-3.994396,N/A,United Kingdom,N/A,Karting
Turn 4,54.5778264,-1.1905177,N/A,United Kingdom,N/A,Karting
Turn 5,54.5767099,-1.1919054,N/A,United Kingdom,N/A,Karting
Turn 6,54.577536,-1.1927726,N/A,United Kingdom,N/A,Karting
Turn 7,54.5777945,-1.1927693,N/A,United Kingdom,N/A,Karting
Turn 8,54.5781458,-1.1931215,N/A,United Kingdom,N/A,Karting
Turn 9,54.5783513,-1.1893548,N/A,United Kingdom,N/A,Karting
Turn 10,54.578266,-1.1890955,N/A,United Kingdom,N/A,Karting
Turn 11,54.5781704,-1.1888228,N/A,United Kingdom,N/A,Karting
Turn 12,54.5780668,-1.1886067,N/A,United Kingdom,N/A,Karting
Turn 13,54.5780743,-1.1878895,N/A,United Kingdom,N/A,Karting
Turn 14,54.5783209,-1.1883928,N/A,United Kingdom,N/A,Karting
Turn 15,54.57793,-1.1860697,N/A,United Kingdom,N/A,Karting
Turn 16,54.5777575,-1.1868295,N/A,United Kingdom,N/A,Karting
Turn 17,54.5779674,-1.1862502,N/A,United Kingdom,N/A,Karting
Turn 18,54.5780568,-1.1868953,N/A,United Kingdom,N/A,Karting
Turn 19,54.5778112,-1.18766,N/A,United Kingdom,N/A,Karting
Turn 2,54.5779978,-1.1891098,N/A,United Kingdom,N/A,Karting
National Circuit,54.5781239,-1.1894023,N/A,United Kingdom,N/A,Karting
Turn 3,54.5779269,-1.1895402,N/A,United Kingdom,N/A,Karting
Turn 1,54.5778956,-1.1887594,N/A,United Kingdom,N/A,Karting
Start/Finish,54.5777364,-1.1877916,N/A,United Kingdom,N/A,Karting
Start/Finish,54.57788,-1.1900323,N/A,United Kingdom,N/A,Karting
Club Straight,54.577269,-1.1911598,N/A,United Kingdom,N/A,Karting
Ironworks Straight,54.5770668,-1.1925087,N/A,United Kingdom,N/A,Karting
Dock Straight,54.5784005,-1.1895667,N/A,United Kingdom,N/A,Karting
National Straight,54.5779884,-1.1882823,N/A,United Kingdom,N/A,Karting
N/A,54.5782039,-1.1881679,N/A,United Kingdom,N/A,Karting
N/A,54.5775952,-1.1866661,N/A,United Kingdom,N/A,Karting
N/A,54.5778648,-1.1865144,N/A,United Kingdom,N/A,Karting
N/A,54.5781011,-1.1864742,N/A,United Kingdom,N/A,Karting
N/A,54.5779356,-1.1872949,N/A,United Kingdom,N/A,Karting
Clubman Circuit,54.5781324,-1.1908254,N/A,United Kingdom,N/A,Karting
N/A,54.5779222,-1.1884799,N/A,United Kingdom,N/A,Karting
N/A,54.5782979,-1.1874651,N/A,United Kingdom,N/A,Karting
N/A,54.5775671,-1.1908896,N/A,United Kingdom,N/A,Karting
Pit Lane,54.5773404,-1.1903141,N/A,United Kingdom,N/A,Karting
N/A,54.2230634,-0.3630305,N/A,United Kingdom,N/A,Karting
TeamSport Glasgow Clydebank,55.8959039,-4.3942268,Clydebank,United Kingdom,https://www.team-sport.co.uk/go-kart-tracks/glasgow-clydebank,Karting
N/A,52.5157787,-1.4781646,N/A,United Kingdom,N/A,Karting
N/A,52.5157748,-1.4781812,N/A,United Kingdom,N/A,Karting
Go Karts,51.6891246,-4.7615185,N/A,United Kingdom,N/A,Karting
N/A,54.8483083,-1.4226154,N/A,United Kingdom,N/A,Karting
N/A,54.8480757,-1.4238568,N/A,United Kingdom,N/A,Karting
N/A,54.8479669,-1.4242344,N/A,United Kingdom,N/A,Karting
N/A,54.8488952,-1.4240945,N/A,United Kingdom,N/A,Karting
N/A,54.8490937,-1.4231616,N/A,United Kingdom,N/A,Karting
N/A,54.8486806,-1.421738,N/A,United Kingdom,N/A,Karting
350 metre training circuit,54.8477158,-1.4236855,N/A,United Kingdom,N/A,Karting
Red Lodge Karting,52.2954984,0.4787404,N/A,United Kingdom,N/A,Karting
N/A,52.9487898,-4.392867,N/A,United Kingdom,N/A,Karting
N/A,52.9494718,-4.3927075,N/A,United Kingdom,N/A,Karting
N/A,52.9493181,-4.3925045,N/A,United Kingdom,N/A,Karting
N/A,52.949352,-4.3921792,N/A,United Kingdom,N/A,Karting
N/A,54.1842753,-0.2909737,N/A,United Kingdom,N/A,Karting
N/A,50.4267721,-4.420629,N/A,United Kingdom,N/A,Karting
N/A,55.9995725,-2.5640118,N/A,United Kingdom,N/A,Karting
South Coast Karting,50.7799189,-1.8591396,N/A,United Kingdom,https://www.southcoastkarting.co.uk/,Karting
N/A,52.3823302,-0.7090415,N/A,United Kingdom,N/A,Karting
N/A,51.8804806,-5.1256905,N/A,United Kingdom,N/A,Karting
Pit Lane,57.6306651,-3.211281,N/A,United Kingdom,N/A,Karting
N/A,52.1646352,-4.4476313,N/A,United Kingdom,N/A,Karting
N/A,52.1645446,-4.4474533,N/A,United Kingdom,N/A,Karting
N/A,51.3762456,-0.3611849,N/A,United Kingdom,N/A,Karting
N/A,51.3763417,-0.3608156,N/A,United Kingdom,N/A,Karting
N/A,50.9228989,-0.1945425,N/A,United Kingdom,N/A,Karting
Go Karting Track,50.8949835,-1.5056751,N/A,United Kingdom,N/A,Karting
N/A,54.9075012,-5.0352184,N/A,United Kingdom,N/A,Karting
N/A,52.1705743,-2.8903484,N/A,United Kingdom,N/A,Karting
Herefordshire Raceway,52.1702069,-2.8901727,N/A,United Kingdom,https://www.herefordshireraceway.org.uk/,Karting
N/A,54.9072051,-5.0349809,N/A,United Kingdom,N/A,Karting
Pikehall Harness Racing,53.127076,-1.706049,N/A,United Kingdom,http://www.pikehallharnessracing.co.uk/,Karting
N/A,51.2890703,-3.007051,N/A,United Kingdom,N/A,Karting
N/A,50.7031994,-3.4162054,N/A,United Kingdom,N/A,Karting
N/A,50.7029452,-3.4160971,N/A,United Kingdom,N/A,Karting
N/A,50.7033923,-3.4169605,N/A,United Kingdom,N/A,Karting
N/A,50.7030254,-3.4164423,N/A,United Kingdom,N/A,Karting
N/A,51.2861033,-3.0112598,N/A,United Kingdom,N/A,Karting
N/A,51.286095,-3.0110553,N/A,United Kingdom,N/A,Karting
N/A,51.2858709,-3.0111188,N/A,United Kingdom,N/A,Karting
N/A,50.5436948,-3.4959765,N/A,United Kingdom,N/A,Karting
N/A,51.4863388,-2.2085662,N/A,United Kingdom,N/A,Karting
N/A,51.4865801,-2.2090507,N/A,United Kingdom,N/A,Karting
N/A,52.6051365,-0.4955911,N/A,United Kingdom,N/A,Karting
N/A,52.6047687,-0.4953864,N/A,United Kingdom,N/A,Karting
N/A,50.657894,-1.1470553,N/A,United Kingdom,N/A,Karting
N/A,51.0432453,-4.2353124,N/A,United Kingdom,N/A,Karting
N/A,51.0431206,-4.2353686,N/A,United Kingdom,N/A,Karting
N/A,51.7089163,-4.3173067,N/A,United Kingdom,N/A,Karting
N/A,54.5521197,-3.4427879,N/A,United Kingdom,N/A,Karting
N/A,54.5513595,-3.4418789,N/A,United Kingdom,N/A,Karting
N/A,54.5531645,-3.4410685,N/A,United Kingdom,N/A,Karting
N/A,54.5528092,-3.4415484,N/A,United Kingdom,N/A,Karting
TeamSport Brighton,50.8220317,-0.3325552,Brighton,United Kingdom,https://www.team-sport.co.uk/go-kart-tracks/brighton,Karting
N/A,51.3438548,0.5024944,N/A,United Kingdom,N/A,Karting
Go Kart Track,51.3620022,0.2623079,N/A,United Kingdom,N/A,Karting
Go Kart Track,51.3619543,0.2622285,N/A,United Kingdom,N/A,Karting
Go Karting,51.3617702,0.2620246,N/A,United Kingdom,N/A,Karting
Karting at Haynes,51.0417893,-2.5562281,N/A,United Kingdom,https://southwestkarting.co.uk/,Karting
Quarry Kart Track,53.1590264,-4.0643173,N/A,United Kingdom,N/A,Karting
N/A,53.1600716,-4.0621029,N/A,United Kingdom,N/A,Karting
N/A,53.1599247,-4.0620944,N/A,United Kingdom,N/A,Karting
N/A,53.1600701,-4.0620199,N/A,United Kingdom,N/A,Karting
Quarry Kart Track,53.1638511,-4.0586412,N/A,United Kingdom,N/A,Karting
N/A,53.1602307,-4.0620015,N/A,United Kingdom,N/A,Karting
N/A,50.1751168,-5.4313052,N/A,United Kingdom,N/A,Karting
N/A,52.3498439,0.1756549,N/A,United Kingdom,https://www.twentypence.co.uk/events-activities/go-karts-play-area.htm,Karting
N/A,50.6439867,-2.4199833,N/A,United Kingdom,N/A,Karting
Pit Lane,52.1703943,-2.8902135,N/A,United Kingdom,N/A,Karting
N/A,52.0408899,-0.7856939,N/A,United Kingdom,N/A,Karting
N/A,52.0408626,-0.7857955,N/A,United Kingdom,N/A,Karting
Top Gear Karting,54.7814306,-1.5340251,Durham,United Kingdom,N/A,Karting
Smart Kart Raceway,57.6303209,-3.211168,N/A,United Kingdom,https://smartkartraceway.co.uk/,Karting
Need 4 Speed Karting,54.7460246,-6.0476153,Doagh,United Kingdom,N/A,Karting
Rowrah Circuit,54.55171,-3.4429117,N/A,United Kingdom,N/A,Karting
N/A,54.8926309,-4.929481,N/A,United Kingdom,N/A,Karting
N/A,54.8925441,-4.9295853,N/A,United Kingdom,N/A,Karting
M1 Go Karts,53.3440884,0.2632834,N/A,United Kingdom,N/A,Karting
N/A,54.5315403,-1.2222951,N/A,United Kingdom,N/A,Karting
N/A,57.1514363,-2.0792216,N/A,United Kingdom,N/A,Karting
N/A,53.1634981,-1.0651967,N/A,United Kingdom,N/A,Karting
N/A,53.1634513,-1.0654576,N/A,United Kingdom,N/A,Karting
N/A,53.40721,-2.6193478,N/A,United Kingdom,N/A,Karting
N/A,51.6890406,-4.8122152,N/A,United Kingdom,N/A,Karting
N/A,51.6892077,-4.8134021,N/A,United Kingdom,N/A,Karting
N/A,50.787474,-4.5570777,N/A,United Kingdom,N/A,Karting
N/A,55.7515111,-3.9774455,N/A,United Kingdom,N/A,Karting
Larkhall Outdoor Kart Circuit,55.7517535,-3.9768118,N/A,United Kingdom,N/A,Karting
Larkhall Outdoor Kart Circuit,55.7516553,-3.9780624,N/A,United Kingdom,N/A,Karting
N/A,55.7520191,-3.9788414,N/A,United Kingdom,N/A,Karting
N/A,52.338302,-2.2840597,N/A,United Kingdom,N/A,Karting
Rednal Karting,52.8394015,-2.9408677,N/A,United Kingdom,https://www.rednalkarting.co.uk/,Karting
N/A,51.3283622,-0.8511615,N/A,United Kingdom,N/A,Karting
N/A,52.3929578,0.640472,N/A,United Kingdom,N/A,Karting
N/A,51.469194,-2.5423281,N/A,United Kingdom,N/A,Karting
N/A,51.4693446,-2.5424925,N/A,United Kingdom,N/A,Karting
North Devon Karting Centre,51.0874476,-4.0797467,N/A,United Kingdom,N/A,Karting
Hooton Park Circuit,53.3100574,-2.9420003,N/A,United Kingdom,http://www.hootonparkcircuit.co.uk/,Karting
Pit Lane,52.275858,-1.0883064,N/A,United Kingdom,N/A,Karting
Zulu,52.2769149,-1.0879799,N/A,United Kingdom,N/A,Karting
N/A,52.2774103,-1.0879667,N/A,United Kingdom,N/A,Karting
Christmas Corner,52.2773411,-1.0869487,N/A,United Kingdom,N/A,Karting
Zulu,52.2768382,-1.0872352,N/A,United Kingdom,N/A,Karting
N/A,52.2771301,-1.0877789,N/A,United Kingdom,N/A,Karting
N/A,52.2766946,-1.0877468,N/A,United Kingdom,N/A,Karting
Back Straight,52.2763942,-1.0883299,N/A,United Kingdom,N/A,Karting
N/A,52.2756999,-1.0881064,N/A,United Kingdom,N/A,Karting
N/A,52.2770526,-1.0883775,N/A,United Kingdom,N/A,Karting
N/A,52.2764834,-1.0873092,N/A,United Kingdom,N/A,Karting
Ashby,52.2763305,-1.0878295,N/A,United Kingdom,N/A,Karting
N/A,52.2775605,-1.0875008,N/A,United Kingdom,N/A,Karting
N/A,52.2769,-1.0869407,N/A,United Kingdom,N/A,Karting
Home Straight,52.2764559,-1.0888246,N/A,United Kingdom,N/A,Karting
Home Straight,52.275937,-1.0887768,N/A,United Kingdom,N/A,Karting
N/A,52.2759031,-1.0880258,N/A,United Kingdom,N/A,Karting
Pit Bend,52.275575,-1.0886402,N/A,United Kingdom,N/A,Karting
Pit Lane,50.8246105,-2.554122,N/A,United Kingdom,N/A,Karting
Pit Lane,50.8243717,-2.5539887,N/A,United Kingdom,N/A,Karting
Pit Lane,51.5177645,-0.0310812,N/A,United Kingdom,N/A,Karting
Pit Lane,51.5181215,-0.0306685,N/A,United Kingdom,N/A,Karting
Pit Lane,51.5181427,-0.0309109,N/A,United Kingdom,N/A,Karting
Pit Lane,51.5180636,-0.0309117,N/A,United Kingdom,N/A,Karting
Pit Lane,50.8672882,-3.2383591,N/A,United Kingdom,N/A,Karting
N/A,51.3433476,0.5013987,N/A,United Kingdom,N/A,Karting
Pit Lane,51.3438765,0.5027959,N/A,United Kingdom,N/A,Karting
N/A,53.0457796,-0.6573098,N/A,United Kingdom,N/A,Karting
Turn 10,53.0451215,-0.6552884,N/A,United Kingdom,N/A,Karting
N/A,53.0454871,-0.6567934,N/A,United Kingdom,N/A,Karting
Turn 1,53.0457361,-0.6576261,N/A,United Kingdom,N/A,Karting
N/A,53.0458742,-0.6584326,N/A,United Kingdom,N/A,Karting
Turn 2,53.0461416,-0.6590187,N/A,United Kingdom,N/A,Karting
N/A,53.0461171,-0.6581824,N/A,United Kingdom,N/A,Karting
Turn 3,53.0458689,-0.6573047,N/A,United Kingdom,N/A,Karting
N/A,53.0457214,-0.6568809,N/A,United Kingdom,N/A,Karting
N/A,53.0454458,-0.6557051,N/A,United Kingdom,N/A,Karting
Turn 5,53.0453852,-0.6551155,N/A,United Kingdom,N/A,Karting
N/A,53.0456237,-0.6548953,N/A,United Kingdom,N/A,Karting
Turn 6,53.045815,-0.6547113,N/A,United Kingdom,N/A,Karting
N/A,53.0453511,-0.654656,N/A,United Kingdom,N/A,Karting
Turn 7,53.044883,-0.654641,N/A,United Kingdom,N/A,Karting
Turn 8,53.0447305,-0.6545162,N/A,United Kingdom,N/A,Karting
N/A,53.0446448,-0.6547099,N/A,United Kingdom,N/A,Karting
Turn 9,53.0446976,-0.6549015,N/A,United Kingdom,N/A,Karting
N/A,53.0448928,-0.6549663,N/A,United Kingdom,N/A,Karting
N/A,53.045277,-0.6559177,N/A,United Kingdom,N/A,Karting
Pit Lane,53.0448669,-0.6546631,N/A,United Kingdom,N/A,Karting
Dummy Grid,53.0444447,-0.654992,N/A,United Kingdom,N/A,Karting
Glan Y Gors Park,53.0354062,-3.5829565,N/A,United Kingdom,https://gygkarting.com/,Karting
Sector 3,53.0396001,-0.6604991,N/A,United Kingdom,N/A,Karting
Sector 1,53.0376251,-0.6620752,N/A,United Kingdom,N/A,Karting
Pit Lane,53.0385974,-0.6606354,N/A,United Kingdom,N/A,Karting
Pit Lane,53.0388648,-0.6603311,N/A,United Kingdom,N/A,Karting
Sector 1,53.0376993,-0.6622706,N/A,United Kingdom,N/A,Karting
Sector 1,53.0372898,-0.6619858,N/A,United Kingdom,N/A,Karting
Sector 3,53.0390825,-0.6605036,N/A,United Kingdom,N/A,Karting
Pit Lane,53.2341107,-1.9156251,N/A,United Kingdom,N/A,Karting
N/A,53.4004074,-1.484882,N/A,United Kingdom,N/A,Karting
N/A,51.4741559,-0.1293331,N/A,United Kingdom,N/A,Karting
Pit Lane,51.474146,-0.1292077,N/A,United Kingdom,N/A,Karting
N/A,51.4741308,-0.1293535,N/A,United Kingdom,N/A,Karting
N/A,51.389672,-0.1457776,N/A,United Kingdom,N/A,Karting
N/A,51.5357411,0.2685618,N/A,United Kingdom,N/A,Karting
N/A,53.7563793,-2.768839,N/A,United Kingdom,N/A,Karting
N/A,53.7562397,-2.7692498,N/A,United Kingdom,N/A,Karting
N/A,53.7562641,-2.7701684,N/A,United Kingdom,N/A,Karting
Nutts Corner Circuit,54.62245,-6.1450825,Crumlin,United Kingdom,https://www.nuttscornercircuit.com/,Karting
South Wales Karting Centre,51.4339692,-3.4973905,N/A,United Kingdom,https://swkc.co.uk/,Karting
Pit Lane,51.4336369,-3.49584,N/A,United Kingdom,N/A,Karting
Hunts Kart Racing Club,52.3158604,-0.3695432,N/A,United Kingdom,https://hkrc.co.uk/,Karting
N/A,52.3172677,-0.370858,N/A,United Kingdom,N/A,Karting
Shenington Kart Racing Club,52.0816159,-1.4758496,Banbury,United Kingdom,https://sheningtonkrc.co.uk/,Karting
N/A,52.0831023,-1.4758472,N/A,United Kingdom,N/A,Karting
N/A,52.0815784,-1.4756792,N/A,United Kingdom,N/A,Karting
N/A,52.0813274,-1.4749767,N/A,United Kingdom,N/A,Karting
N/A,52.0801436,-1.4744608,N/A,United Kingdom,N/A,Karting
Dummy Grid,52.0815994,-1.4764663,N/A,United Kingdom,N/A,Karting
Pit Lane,52.081174,-1.4762986,N/A,United Kingdom,N/A,Karting
N/A,51.8658967,-1.684217,N/A,United Kingdom,N/A,Karting
N/A,51.8654474,-1.6841347,N/A,United Kingdom,N/A,Karting
N/A,51.8662497,-1.6833674,N/A,United Kingdom,N/A,Karting
N/A,51.8658399,-1.683716,N/A,United Kingdom,N/A,Karting
Bayford Meadows,51.3480122,0.746188,Sittingbourne,United Kingdom,https://bayfordmeadows.co.uk/,Karting
Pit Lane,51.3481595,0.7463585,N/A,United Kingdom,N/A,Karting
Dummy Grid,51.3470374,0.7448421,N/A,United Kingdom,N/A,Karting
Lydd Kart Circuit,50.9351483,0.9070458,Lydd,United Kingdom,https://lyddkartcircuit.com/,Karting
Pit Lane,53.5262153,-1.3962853,N/A,United Kingdom,N/A,Karting
Dummy Grid,53.5256218,-1.397528,N/A,United Kingdom,N/A,Karting
N/A,53.5256447,-1.3969113,N/A,United Kingdom,N/A,Karting
N/A,53.5254704,-1.396922,N/A,United Kingdom,N/A,Karting
Dummy Grid,52.4350991,1.600722,N/A,United Kingdom,N/A,Karting
Dummy Grid,52.4350821,1.6013177,N/A,United Kingdom,N/A,Karting
Pit Lane,52.4342767,1.6013529,N/A,United Kingdom,N/A,Karting
Pit Lane,52.4345042,1.6014256,N/A,United Kingdom,N/A,Karting
N/A,52.4338772,1.6003681,N/A,United Kingdom,N/A,Karting
N/A,52.4351415,1.6002288,N/A,United Kingdom,N/A,Karting
N/A,52.4352763,1.6003926,N/A,United Kingdom,N/A,Karting
N/A,52.6056095,-1.0388462,N/A,United Kingdom,N/A,Karting
Stretton Circuit,52.6060966,-1.0385908,Leicester,United Kingdom,https://strettoncircuit.co.uk/,Karting
Camberley Kart Club,51.3282349,-0.8507714,Camberley,United Kingdom,http://www.camberleykartclub.com/,Karting
N/A,51.3275652,-0.8502052,N/A,United Kingdom,N/A,Karting
N/A,51.3282912,-0.8503886,N/A,United Kingdom,N/A,Karting
N/A,55.4309382,-5.6708856,N/A,United Kingdom,N/A,Karting
N/A,55.4303266,-5.6713992,N/A,United Kingdom,N/A,Karting
N/A,55.4307609,-5.6722209,N/A,United Kingdom,N/A,Karting
N/A,55.430835,-5.6720532,N/A,United Kingdom,N/A,Karting
N/A,55.4307521,-5.6719827,N/A,United Kingdom,N/A,Karting
N/A,55.4304868,-5.672219,N/A,United Kingdom,N/A,Karting
N/A,50.7751471,-1.8445824,N/A,United Kingdom,N/A,Karting
N/A,50.7751455,-1.8445835,N/A,United Kingdom,N/A,Karting
N/A,53.5495263,-2.9768807,N/A,United Kingdom,N/A,Karting
N/A,53.549485,-2.9769657,N/A,United Kingdom,N/A,Karting
N/A,55.2836632,-1.7011506,N/A,United Kingdom,N/A,Karting
N/A,55.2837306,-1.6999372,N/A,United Kingdom,N/A,Karting
N/A,55.2837794,-1.7011342,N/A,United Kingdom,N/A,Karting
N/A,53.4538678,-0.6872449,N/A,United Kingdom,N/A,Karting
N/A,53.4536114,-0.6879856,N/A,United Kingdom,N/A,Karting
Kart Track,53.9627116,-1.3041182,N/A,United Kingdom,N/A,Karting
N/A,53.0352958,-3.5834374,N/A,United Kingdom,N/A,Karting
N/A,53.0353405,-3.5834585,N/A,United Kingdom,N/A,Karting
N/A,53.0354526,-3.5834998,N/A,United Kingdom,N/A,Karting
N/A,53.0349264,-3.5841187,N/A,United Kingdom,N/A,Karting
N/A,53.274902,-4.5015112,N/A,United Kingdom,N/A,Karting
N/A,53.2749062,-4.5019123,N/A,United Kingdom,N/A,Karting
Cartio Môn,53.2750263,-4.501441,N/A,United Kingdom,N/A,Karting
N/A,53.1357773,0.2727943,N/A,United Kingdom,N/A,Karting
N/A,52.839604,-2.9412066,N/A,United Kingdom,N/A,Karting
N/A,52.839649,-2.9410066,N/A,United Kingdom,N/A,Karting
N/A,52.8398533,-2.9398734,N/A,United Kingdom,N/A,Karting
N/A,51.6490023,-0.3169551,N/A,United Kingdom,N/A,Karting
N/A,53.8383695,-3.0561152,N/A,United Kingdom,N/A,Karting
N/A,53.838321,-3.0556908,N/A,United Kingdom,N/A,Karting
North of Scotland Kart Club,57.9538591,-3.9947675,N/A,United Kingdom,N/A,Karting
N/A,57.9529861,-3.9953965,N/A,United Kingdom,N/A,Karting
Grampian Kart Club,57.660323,-2.6408386,N/A,United Kingdom,http://www.grampiankartclub.com/,Karting
N/A,57.6593702,-2.6411857,N/A,United Kingdom,N/A,Karting
N/A,52.3597381,-0.158789,N/A,United Kingdom,N/A,Karting
N/A,52.8208227,-1.0367348,N/A,United Kingdom,N/A,Karting
Silvercone,53.1314861,-2.7519782,N/A,United Kingdom,N/A,Karting
N/A,50.0945386,-5.2571433,N/A,United Kingdom,N/A,Karting
N/A,50.0946965,-5.2567055,N/A,United Kingdom,N/A,Karting
N/A,50.0946337,-5.2568349,N/A,United Kingdom,N/A,Karting
N/A,50.0946161,-5.2568939,N/A,United Kingdom,N/A,Karting
N/A,51.3819077,0.47739,N/A,United Kingdom,N/A,Karting
Larkhall Circuit,55.752229,-3.978192,N/A,United Kingdom,https://larkhallcircuit.com/,Karting
N/A,51.5656309,0.6749051,N/A,United Kingdom,N/A,Karting
N/A,51.5656223,0.6753524,N/A,United Kingdom,N/A,Karting
TeamSport Acton,51.5051238,-0.2552717,London,United Kingdom,https://www.team-sport.co.uk/go-kart-tracks/acton,Karting
N/A,52.0302344,-0.5247814,N/A,United Kingdom,N/A,Karting
N/A,52.030187,-0.5251913,N/A,United Kingdom,N/A,Karting
N/A,52.0267863,-0.534794,N/A,United Kingdom,N/A,Karting
N/A,52.0268729,-0.5345948,N/A,United Kingdom,N/A,Karting
N/A,52.0269638,-0.5346999,N/A,United Kingdom,N/A,Karting
N/A,52.6224132,-1.6396146,N/A,United Kingdom,N/A,Karting
Karttrack Cromer,52.9168169,1.3125793,N/A,United Kingdom,https://www.karttrak.co.uk/,Karting
N/A,52.9168811,1.3124177,N/A,United Kingdom,N/A,Karting
Pit Lane,52.916577,1.3127503,N/A,United Kingdom,N/A,Karting
Starting Grid,52.9164179,1.3125834,N/A,United Kingdom,N/A,Karting
N/A,54.2261185,-1.2802194,N/A,United Kingdom,N/A,Karting
OffRoad Explorers,54.6332694,-2.6654482,N/A,United Kingdom,N/A,Karting
Go-Karts & Street Karts,54.6341564,-2.6579132,N/A,United Kingdom,N/A,Karting
N/A,52.030152,-0.5248564,N/A,United Kingdom,N/A,Karting
N/A,52.0302616,-0.5250825,N/A,United Kingdom,N/A,Karting
N/A,52.0302616,-0.5250447,N/A,United Kingdom,N/A,Karting
N/A,51.2806084,-0.3436018,N/A,United Kingdom,N/A,Karting
Hines Straight,52.3162741,-0.3703609,N/A,United Kingdom,N/A,Karting
Slow Corner,52.3171424,-0.3703988,N/A,United Kingdom,N/A,Karting
The Willows,52.3167308,-0.3698092,N/A,United Kingdom,N/A,Karting
Yamitsu Straight,52.3159723,-0.3690878,N/A,United Kingdom,N/A,Karting
N/A,52.3153203,-0.3682421,N/A,United Kingdom,N/A,Karting
Yamitsu Straight,52.3150199,-0.3675984,N/A,United Kingdom,N/A,Karting
Dan Eheldon Corner,52.3147318,-0.367268,N/A,United Kingdom,N/A,Karting
Kestrel Corner,52.315377,-0.3690752,N/A,United Kingdom,N/A,Karting
Lazer Straight,52.315177,-0.3696321,N/A,United Kingdom,N/A,Karting
Kimbolton Corner,52.3152196,-0.370062,N/A,United Kingdom,N/A,Karting
N/A,52.8721989,0.4519187,N/A,United Kingdom,N/A,Karting
Teamworks Karting Letchworth Indoor Racetrack,51.9815312,-0.2163786,N/A,United Kingdom,N/A,Karting
Pit Lane,51.9814274,-0.2169651,N/A,United Kingdom,N/A,Karting
Pit Lane,57.2102013,-3.8199772,N/A,United Kingdom,N/A,Karting
N/A,52.9320694,0.4815529,N/A,United Kingdom,N/A,Karting
N/A,56.3173319,-2.839619,N/A,United Kingdom,N/A,Karting
Teamsport London Docklands,51.4942742,0.0354121,London,United Kingdom,https://www.team-sport.co.uk/go-kart-tracks/docklands,Karting
TeamSport High Wycombe,51.630132,-0.7570728,High Wycombe,United Kingdom,https://www.team-sport.co.uk/go-kart-tracks/high-wycombe,Karting
TeamSport Bradford,53.7838918,-1.7849869,Bradford,United Kingdom,https://www.team-sport.co.uk/go-kart-tracks/bradford,Karting
TeamSport Basildon,51.5858833,0.4660604,Basildon,United Kingdom,https://www.team-sport.co.uk/,Karting
N/A,51.2643358,1.0360605,N/A,United Kingdom,N/A,Karting
WildTracks Karting,52.2923664,0.4706798,N/A,United Kingdom,N/A,Karting
Lockwell Hill Karting,53.1214366,-1.0582162,N/A,United Kingdom,https://facebook.com/lockwellhillcircuit,Karting
N/A,51.4340223,-3.4988035,N/A,United Kingdom,N/A,Karting
N/A,51.4345853,-3.4975907,N/A,United Kingdom,N/A,Karting
N/A,51.4343789,-3.4969501,N/A,United Kingdom,N/A,Karting
N/A,51.7674863,0.0138628,N/A,United Kingdom,N/A,Karting
Pit Lane,51.343137,0.5010233,N/A,United Kingdom,N/A,Karting
N/A,51.3427662,0.5012815,N/A,United Kingdom,N/A,Karting
Coast2Coast Karting,50.1754002,-5.4314019,N/A,United Kingdom,https://www.coast2coastkarting.co.uk/,Karting
N/A,50.1747051,-5.4315061,N/A,United Kingdom,N/A,Karting
N/A,50.4838279,-5.0120517,N/A,United Kingdom,N/A,Karting
N/A,50.4836324,-5.0104343,N/A,United Kingdom,N/A,Karting
N/A,50.4841538,-5.012702,N/A,United Kingdom,N/A,Karting
N/A,51.374696,-0.2683245,N/A,United Kingdom,N/A,Karting
N/A,51.3751861,-0.268165,N/A,United Kingdom,N/A,Karting
N/A,51.568879,-3.9770221,N/A,United Kingdom,N/A,Karting
N/A,55.3182462,-4.8262539,N/A,United Kingdom,N/A,Karting
N/A,55.3185216,-4.825889,N/A,United Kingdom,N/A,Karting
N/A,51.2032602,-1.6105502,N/A,United Kingdom,N/A,Karting
N/A,51.2033063,-1.6090881,N/A,United Kingdom,N/A,Karting
N/A,51.2038798,-1.6090294,N/A,United Kingdom,N/A,Karting
N/A,51.2038968,-1.6087702,N/A,United Kingdom,N/A,Karting
N/A,51.2040324,-1.6089185,N/A,United Kingdom,N/A,Karting
N/A,51.2030757,-1.6110205,N/A,United Kingdom,N/A,Karting
Thruxton karting track,51.2035579,-1.6104367,N/A,United Kingdom,N/A,Karting
Thruxton karting track,51.2037957,-1.6099295,N/A,United Kingdom,N/A,Karting
N/A,51.2032583,-1.6097174,N/A,United Kingdom,N/A,Karting
N/A,51.3759411,-0.3622592,N/A,United Kingdom,N/A,Karting
N/A,51.6565071,-0.3846459,N/A,United Kingdom,N/A,Karting
N/A,51.6564859,-0.3849379,N/A,United Kingdom,N/A,Karting
N/A,51.6566496,-0.3847822,N/A,United Kingdom,N/A,Karting
N/A,51.6566828,-0.3848041,N/A,United Kingdom,N/A,Karting
Karting,50.6801067,-1.4696246,N/A,United Kingdom,N/A,Karting
N/A,53.3453156,-1.3112224,N/A,United Kingdom,N/A,Karting
Flamingo 1,54.2110988,-0.8084917,N/A,United Kingdom,N/A,Karting
N/A,53.1124753,-2.516504,N/A,United Kingdom,N/A,Karting
N/A,52.7829299,-0.856593,N/A,United Kingdom,N/A,Karting
